{"version": 0.6, "generator": "Overpass API 0.7.62.8 e802775f", "osm3s": {"timestamp_osm_base": "2026-01-20T09:04:43Z", "copyright": "The data included in this document is from www.openstreetmap.org. The data is made available under ODbL."}, "elements": [{"type": "node", "id": 289582025, "lat": 17.4129744, "lon": 78.4610582, "tags": {"internet_access": "no", "name": "Khairatabad", "name:te": "\u0c16\u0c48\u0c30\u0c24\u0c3e\u0c2c\u0c3e\u0c26\u0c4d", "name:ur": "\u062e\u06cc\u0631\u062a \u0622\u0628\u0627\u062f", "network": "IR", "operator": "SCR", "platforms": "2", "public_transport": "station", "railway": "station", "ref": "KQD", "train": "yes", "wikidata": "Q6399082", "wikipedia": "en:Khairatabad railway station"}}, {"type": "node", "id": 289582401, "lat": 17.4233355, "lon": 78.4631857, "tags": {"internet_access": "no", "name": "Necklace Road", "name:te": "\u0c28\u0c46\u0c15\u0c4d\u0c32\u0c46\u0c38\u0c4d \u0c30\u0c4b\u0c21\u0c4d\u0c21\u0c41", "name:ur": "\u0646\u06a9\u0644\u06cc\u0633 \u0631\u0648\u0688", "network": "IR", "operator": "SCR", "platforms": "2", "public_transport": "station", "railway": "station", "ref": "NLRD", "train": "yes", "wikidata": "Q6985575", "wikipedia": "en:Necklace Road railway station"}}, {"type": "node", "id": 289656763, "lat": 17.3924223, "lon": 78.4675956, "tags": {"internet_access": "no", "name": "Hyderabad Deccan Nampally", "name:fa": "\u062d\u06cc\u062f\u0631\u0622\u0628\u0627\u062f \u062f\u06a9\u0646", "name:te": "\u0c39\u0c48\u0c26\u0c30\u0c3e\u0c2c\u0c3e\u0c26\u0c4d \u0c26\u0c15\u0c4d\u0c15\u0c28\u0c4d \u0c28\u0c3e\u0c02\u0c2a\u0c32\u0c4d\u0c32\u0c3f", "name:ur": "\u062d\u06cc\u062f\u0631\u0622\u0628\u0627\u062f \u062f\u06a9\u0646", "network": "IR", "operator": "SCR", "platforms": "6", "railway": "station", "ref": "HYB", "train": "yes", "wheelchair": "limited", "wikidata": "Q3633967", "wikipedia": "en:Hyderabad Deccan railway station"}}, {"type": "node", "id": 307015337, "lat": 17.3765035, "lon": 78.4948263, "tags": {"alt_name:ur": "\u0645\u0644\u06a9 \u067e\u06cc\u0679", "internet_access": "no", "name": "Malakpet", "name:ar": "\u0645\u0627\u0644\u0643 \u0628\u064a\u062a", "name:fa": "\u0645\u0644\u06a9 \u067e\u06cc\u062a", "name:ur": "\u0645\u0627\u0644\u06a9 \u067e\u06cc\u0679", "network": "IR", "operator": "SCR", "platforms": "2", "public_transport": "station", "railway": "station", "ref": "MXT", "train": "yes", "wikidata": "Q6741191", "wikipedia": "en:Malakpet railway station"}}, {"type": "node", "id": 307023348, "lat": 17.389311, "lon": 78.4992403, "tags": {"historic": "yes", "internet_access": "wlan", "name": "Kacheguda", "name:ml": "\u0d15\u0d3e\u0d1a\u0d4d\u0d1a\u0d3f\u0d17\u0d41\u0d21", "name:te": "\u0c15\u0c3e\u0c1a\u0c3f\u0c17\u0c42\u0c21", "name:ur": "\u06a9\u0627\u0686\u06cc \u06af\u0648\u0691\u06c1", "network": "IR", "operator": "SCR", "public_transport": "station", "railway": "station", "ref": "KCG", "train": "yes", "wikidata": "Q6344674", "wikipedia": "en:Kacheguda railway station"}}, {"type": "node", "id": 308937020, "lat": 17.4407394, "lon": 78.5506697, "tags": {"internet_access": "no", "name": "Moula Ali", "name:fa": "\u0645\u0648\u0644\u0627 \u0639\u0644\u06cc", "name:te": "\u0c2e\u0c4c\u0c32\u0c3e \u0c05\u0c32\u0c3f", "name:ur": "\u0645\u0648\u0644\u0627 \u0639\u0644\u06cc", "network": "IR", "operator": "SCR", "public_transport": "station", "railway": "station", "ref": "MLY", "train": "yes", "wikidata": "Q62004881", "wikipedia": "en:Moula Ali railway station"}}, {"type": "node", "id": 343319245, "lat": 17.4456571, "lon": 78.4521487, "tags": {"internet_access": "no", "name": "Nature Cure Hospital", "name:te": "\u0c2a\u0c4d\u0c30\u0c15\u0c43\u0c24\u0c3f \u0c1a\u0c3f\u0c15\u0c3f\u0c24\u0c4d\u0c38\u0c3e\u0c32\u0c2f \u0c30\u0c48\u0c32\u0c4d\u0c35\u0c47 \u0c38\u0c4d\u0c1f\u0c47\u0c37\u0c28\u0c4d", "network": "IR", "operator": "SCR", "platforms": "2", "public_transport": "station", "railway": "station", "ref": "NCHS", "train": "yes", "wikidata": "Q6980906", "wikipedia": "en:Nature Cure Hospital railway station"}}, {"type": "node", "id": 343641073, "lat": 17.4386951, "lon": 78.4580969, "tags": {"internet_access": "no", "name": "Begumpet", "name:te": "\u0c2c\u0c47\u0c17\u0c02\u0c2a\u0c47\u0c1f\u0c4d", "name:ur": "\u0628\u06cc\u06af\u0645 \u067e\u06cc\u0679", "network": "IR", "operator": "SCR", "platforms": "2", "public_transport": "station", "railway": "station", "ref": "BMT", "train": "yes", "wikidata": "Q4880629", "wikipedia": "en:Begumpet railway station"}}, {"type": "node", "id": 886161862, "lat": 17.4823997, "lon": 78.3630141, "tags": {"internet_access": "no", "name": "Hafeezpet", "network": "IR", "operator": "SCR", "platforms": "2", "public_transport": "station", "railway": "station", "ref": "HFZ", "train": "yes", "wikidata": "Q5638317", "wikipedia": "en:Hafeezpet railway station"}}, {"type": "node", "id": 893170355, "lat": 17.4329515, "lon": 78.4873218, "tags": {"internet_access": "no", "name": "James Street", "name:te": "\u0c1c\u0c47\u0c2e\u0c4d\u0c38\u0c4d \u0c38\u0c4d\u0c1f\u0c4d\u0c30\u0c40\u0c1f\u0c4d", "name:ur": "\u062c\u06cc\u0645\u0632 \u0627\u0633\u0679\u0631\u06cc\u0679", "network": "IR", "operator": "SCR", "platforms": "2", "public_transport": "station", "railway": "station", "ref": "JET", "train": "yes", "wikidata": "Q6143758", "wikipedia": "en:James Street railway station, Hyderabad"}}, {"type": "node", "id": 1118754390, "lat": 17.3326604, "lon": 78.4751984, "tags": {"alt_name:ur": "\u0641\u0644\u06a9 \u0646\u0645\u0627", "internet_access": "no", "name": "Falaknuma", "name:fa": "\u0641\u0644\u06a9 \u0646\u0645\u0627", "name:ur": "\u0641\u0644\u06a9 \u0646\u0645\u0627\u0621", "network": "IR", "operator": "SCR", "public_transport": "station", "railway": "station", "ref": "FM", "train": "yes", "wikidata": "Q5431641", "wikipedia": "en:Falaknuma railway station"}}, {"type": "node", "id": 1118754593, "lat": 17.3353179, "lon": 78.4683887, "tags": {"construction": "station", "disused": "yes", "name": "Jungametta (u/c)", "name:te": "\u0c1c\u0c02\u0c17\u0c02\u0c2e\u0c47\u0c1f", "network": "Hyderabad Metro", "note": "Contributors are requested to not edit the \"network\" and the \"operator\" tags. (2023/11/08)", "operator": "Hyderabad Metro Rail Limited", "railway": "station", "station": "subway", "subway": "yes"}}, {"type": "node", "id": 1118754600, "lat": 17.3619252, "lon": 78.4799909, "tags": {"construction": "station", "disused": "yes", "name": "Charminar (u/c)", "name:te": "\u0c1a\u0c3e\u0c30\u0c4d\u0c2e\u0c3f\u0c28\u0c3e\u0c30\u0c4d", "network": "Hyderabad Metro", "note": "Contributors are requested to not edit the \"network\" and the \"operator\" tags. (2023/11/08)", "operator": "Hyderabad Metro Rail Limited", "railway": "station", "station": "subway", "subway": "yes"}}, {"type": "node", "id": 1118754617, "lat": 17.3408101, "lon": 78.4683869, "tags": {"construction": "station", "disused:railway": "station", "name": "Shamserganj (u/c)", "name:te": "\u0c37\u0c02\u0c37\u0c47\u0c30\u0c4d\u0c17\u0c02\u0c1c\u0c4d", "network": "Hyderabad Metro", "note": "Contributors are requested to not edit the \"network\" and the \"operator\" tags. (2023/11/08)", "operator": "Hyderabad Metro Rail Limited", "public_transport": "station", "railway": "station", "station": "subway", "subway": "yes"}}, {"type": "node", "id": 1118754623, "lat": 17.3507744, "lon": 78.4723504, "tags": {"addr:city": "Hyderabad", "addr:district": "Hyderabad", "addr:postcode": "500065", "addr:street": "Shah Ali Banda", "construction": "station", "disused:railway": "station", "name": "Shah Ali Banda (u/c)", "name:te": "\u0c37\u0c3e \u0c05\u0c32\u0c40 \u0c2c\u0c02\u0c21\u0c3e", "name:ur": "\u0634\u0627\u06c1 \u0639\u0644\u06cc \u0628\u0646\u062f\u06c1", "network": "Hyderabad Metro", "note": "Contributors are requested to not edit the \"network\" and the \"operator\" tags. (2023/11/08)", "operator": "Hyderabad Metro Rail Limited", "public_transport": "station", "railway": "station", "station": "subway", "subway": "yes"}}, {"type": "node", "id": 1118754666, "lat": 17.3317141, "lon": 78.4699981, "tags": {"construction": "station", "disused": "yes", "name": "Falaknuma Terminal (u/c)", "name:te": "\u0c2b\u0c32\u0c15\u0c4d\u0c28\u0c41\u0c2e\u0c3e \u0c1f\u0c46\u0c30\u0c4d\u0c2e\u0c3f\u0c28\u0c32\u0c4d", "network": "Hyderabad Metro", "note": "Contributors are requested to not edit the \"network\" and the \"operator\" tags. (2023/11/08)", "operator": "Hyderabad Metro Rail Limited", "railway": "station", "station": "subway", "subway": "yes"}}, {"type": "node", "id": 1118754671, "lat": 17.3717823, "lon": 78.4822609, "tags": {"construction": "station", "disused": "yes", "name": "Salar Jung Museum (u/c)", "name:te": "\u0c38\u0c3e\u0c32\u0c3e\u0c30\u0c4d \u0c1c\u0c02\u0c17\u0c4d \u0c2e\u0c4d\u0c2f\u0c42\u0c1c\u0c3f\u0c2f\u0c02", "network": "Hyderabad Metro", "note": "Contributors are requested to not edit the \"network\" and the \"operator\" tags. (2023/11/08)", "operator": "Hyderabad Metro Rail Limited", "railway": "station", "station": "subway", "subway": "yes"}}, {"type": "node", "id": 1215788873, "lat": 17.4872976, "lon": 78.3322142, "tags": {"internet_access": "no", "name": "Chandanagar", "network": "IR", "operator": "SCR", "platforms": "2", "public_transport": "station", "railway": "station", "ref": "CDNR", "toilets:wheelchair": "no", "train": "yes", "wheelchair": "limited", "wikidata": "Q5070904", "wikipedia": "en:Chanda Nagar railway station"}}, {"type": "node", "id": 1425916857, "lat": 17.4698143, "lon": 78.3853779, "tags": {"internet_access": "no", "name": "HITEC City", "network": "IR", "operator": "SCR", "platforms": "2", "public_transport": "station", "railway": "station", "ref": "HTCY", "train": "yes", "wheelchair": "no", "wikidata": "Q5871886", "wikipedia": "en:HITEC City railway station"}}, {"type": "node", "id": 1435162002, "lat": 17.4953503, "lon": 78.519068, "tags": {"IR:zone": "SCR:", "internet_access": "no", "name": "Cavalry Barracks", "name:te": "\u0c15\u0c46\u0c35\u0c32\u0c30\u0c3f \u0c2c\u0c4d\u0c2f\u0c3e\u0c30\u0c15\u0c4d\u0c38\u0c4d", "network": "IR", "operator": "SCR", "public_transport": "station", "railway": "station", "ref": "CVB", "train": "yes", "wikidata": "Q5054809", "wikipedia": "en:Cavalry Barracks railway station"}}, {"type": "node", "id": 1435327658, "lat": 17.4483438, "lon": 78.5289727, "tags": {"internet_access": "no", "name": "Malkajgiri", "name:te": "\u0c2e\u0c32\u0c4d\u0c15\u0c3e\u0c1c\u0c3f\u0c17\u0c3f\u0c30\u0c3f", "name:ur": "\u0645\u0644\u06a9\u0627 \u062c\u06af\u0631\u06cc", "network": "IR", "operator": "SCR", "public_transport": "station", "railway": "station", "ref": "MJF", "train": "yes", "wikidata": "Q6743861", "wikipedia": "en:Malkajgiri railway station"}}, {"type": "node", "id": 1437208985, "lat": 17.4590687, "lon": 78.4078664, "tags": {"internet_access": "no", "name": "Borabanda", "name:ur": "\u0628\u0648\u0631\u0627 \u0628\u0646\u0688\u0627", "network": "IR", "operator": "SCR", "platforms": "2", "public_transport": "station", "railway": "station", "ref": "BRBD", "wikidata": "Q4944267", "wikipedia": "en:Borabanda railway station"}}, {"type": "node", "id": 1437209842, "lat": 17.4626026, "lon": 78.4301562, "tags": {"internet_access": "no", "name": "Bharath Nagar", "network": "IR", "operator": "SCR", "platforms": "3", "public_transport": "station", "railway": "station", "ref": "BTNR", "train": "yes", "wikidata": "Q4901137", "wikipedia": "en:Bharat Nagar railway station"}}, {"type": "node", "id": 1936294138, "lat": 17.4831225, "lon": 78.3177732, "tags": {"internet_access": "no", "name": "Lingampalli", "network": "IR", "operator": "SCR", "platforms": "6", "public_transport": "station", "railway": "station", "ref": "LPI", "train": "yes", "wikidata": "Q6553760", "wikipedia": "en:Lingampalli railway station"}}, {"type": "node", "id": 1974699686, "lat": 17.4585975, "lon": 78.6066056, "tags": {"internet_access": "no", "name": "Charlapalli", "name:te": "\u0c1a\u0c30\u0c4d\u0c32\u0c2a\u0c32\u0c4d\u0c32\u0c3f", "name:ur": "\u0686\u0631\u0644\u06c1 \u067e\u0644\u06cc", "network": "IR", "operator": "SCR", "public_transport": "station", "railway": "station", "ref": "CHZ", "train": "yes", "wikidata": "Q59326703"}}, {"type": "node", "id": 1974699692, "lat": 17.4528558, "lon": 78.6782985, "tags": {"internet_access": "no", "name": "Ghatkesar", "name:te": "\u0c18\u0c1f\u0c4d\u200c\u0c15\u0c47\u0c38\u0c30\u0c4d", "name:ur": "\u06af\u06be\u0679\u06a9\u06cc\u0633\u0631", "network": "IR", "operator": "SCR", "public_transport": "station", "railway": "station", "ref": "GT", "train": "yes", "wikidata": "Q18125093", "wikipedia": "en:Ghatkesar railway station"}}, {"type": "node", "id": 2084119304, "lat": 17.4272947, "lon": 78.5207231, "tags": {"alt_name": "Sitaphal Mandi", "internet_access": "no", "name": "Sitaphalmandi", "name:te": "\u0c38\u0c40\u0c24\u0c3e\u0c2b\u0c32\u0c4d\u200c\u0c2e\u0c02\u0c21\u0c3f", "name:ur": "\u0633\u06cc\u062a\u0627 \u067e\u06be\u0644 \u0645\u0646\u0688\u06cc", "network": "IR", "operator": "SCR", "public_transport": "station", "railway": "station", "ref": "STPD", "train": "yes", "wikidata": "Q7531662", "wikipedia": "en:Sitaphalmandi railway station"}}, {"type": "node", "id": 2422172970, "lat": 17.4375661, "lon": 78.4569341, "tags": {"name": "Begumpet", "name:fa": "\u0628\u06cc\u06af\u0645 \u067e\u06cc\u062a", "name:ml": "\u0d2c\u0d47\u0d17\u0d02\u0d2a\u0d47\u0d1f\u0d4d\u0d1f\u0d4d", "name:te": "\u0c2c\u0c47\u0c17\u0c02\u0c2a\u0c47\u0c1f\u0c4d", "name:ur": "\u0628\u06cc\u06af\u0645 \u067e\u06cc\u0679", "network": "Hyderabad Metro", "note": "Contributors are requested to not edit the \"network\" and the \"operator\" tags. (2023/11/08)", "operator": "Hyderabad Metro Rail Limited", "public_transport": "station", "railway": "station", "station": "subway", "subway": "yes"}}, {"type": "node", "id": 2461447890, "lat": 17.4385942, "lon": 78.458062, "tags": {"name": "Begumpet", "name:kn": "\u0cac\u0cc7\u0c97\u0c82\u0caa\u0cc7\u0c9f\u0cc6", "name:ur": "\u0628\u06cc\u06af\u0645 \u067e\u06cc\u0679", "public_transport": "station", "railway": "station", "ref": "2", "train": "yes", "wikidata": "Q4880629", "wikipedia": "en:Begumpet railway station"}}, {"type": "node", "id": 2528166287, "lat": 17.460242, "lon": 78.2300829, "tags": {"internet_access": "no", "name": "Nagalapalli", "network": "IR", "operator": "SCR", "public_transport": "station", "railway": "station", "ref": "NPL", "train": "yes", "wikidata": "Q63369717"}}, {"type": "node", "id": 2528193014, "lat": 17.4562011, "lon": 78.4499241, "tags": {"internet_access": "no", "name": "Fateh Nagar", "name:ur": "\u0641\u062a\u062d \u0646\u06af\u0631", "network": "IR", "operator": "SCR", "platforms": "2", "public_transport": "station", "railway": "station", "ref": "FNB", "train": "yes", "wikidata": "Q5437396", "wikipedia": "en:Fateh Nagar railway station"}}, {"type": "node", "id": 2531993221, "lat": 17.3098599, "lon": 78.4249837, "tags": {"internet_access": "no", "name": "Budvel", "network": "IR", "operator": "SCR", "platforms": "2", "public_transport": "station", "railway": "station", "ref": "BDVL", "train": "yes", "wikidata": "Q63371611"}}, {"type": "node", "id": 2531994405, "lat": 17.2634072, "lon": 78.3931714, "tags": {"internet_access": "no", "name": "Umdanagar", "name:te": "\u0c09\u0c2e\u0c4d\u0c26\u0c3e\u0c28\u0c17\u0c30\u0c4d", "network": "IR", "operator": "SCR", "public_transport": "station", "railway": "station", "ref": "UR", "train": "yes", "wikidata": "Q12991702", "wikipedia": "en:Umdanagar railway station"}}, {"type": "node", "id": 2712437769, "lat": 17.4038328, "lon": 78.4635019, "tags": {"internet_access": "no", "name": "Lakdi-ka-pul", "name:te": "\u0c32\u0c15\u0c4d\u0c21\u0c3f\u0c15\u0c2a\u0c42\u0c32\u0c4d", "name:ur": "\u0644\u06a9\u0691\u06cc \u06a9\u0627 \u067e\u0644", "network": "IR", "operator": "SCR", "platforms": "2", "public_transport": "station", "railway": "station", "ref": "LKPL", "train": "yes", "wikidata": "Q6474590", "wikipedia": "en:Lakdi-ka-pul railway station"}}, {"type": "node", "id": 2921494804, "lat": 17.5330679, "lon": 78.5154568, "tags": {"internet_access": "no", "name": "Bolarum", "name:te": "\u0c2c\u0c4a\u0c32\u0c4d\u0c32\u0c3e\u0c30\u0c02", "network": "IR", "operator": "SCR", "public_transport": "station", "railway": "station", "ref": "BMO", "train": "yes", "wikidata": "Q4938946", "wikipedia": "en:Bolarum railway station"}}, {"type": "node", "id": 2923174835, "lat": 17.5050368, "lon": 78.514663, "tags": {"internet_access": "no", "name": "Alwal", "network": "IR", "operator": "SCR", "public_transport": "station", "railway": "station", "ref": "ALW", "train": "yes", "wikidata": "Q4738357", "wikipedia": "en:Alwal railway station"}}, {"type": "node", "id": 2962282518, "lat": 17.5687096, "lon": 78.4882373, "tags": {"internet_access": "no", "name": "Gundla Pochampally", "name:te": "\u0c17\u0c41\u0c02\u0c21\u0c4d\u0c32 \u0c2a\u0c4b\u0c1a\u0c02\u0c2a\u0c32\u0c4d\u0c32\u0c3f", "network": "IR", "operator": "SCR", "platforms": "2", "public_transport": "station", "railway": "station", "ref": "GDPL", "train": "yes", "wikidata": "Q63357400"}}, {"type": "node", "id": 5186129525, "lat": 17.4622355, "lon": 78.4366978, "tags": {"internet_access": "no", "name": "Sanat Nagar", "network": "IR", "operator": "SCR", "platforms": "2", "public_transport": "station", "railway": "station", "ref": "SNF", "train": "yes", "wikidata": "Q63369718"}}, {"type": "node", "id": 5993751682, "lat": 17.3706972, "lon": 78.5124795}, {"type": "node", "id": 5993751683, "lat": 17.3708739, "lon": 78.5125864}, {"type": "node", "id": 5993751684, "lat": 17.3714919, "lon": 78.5114646}, {"type": "node", "id": 5993752585, "lat": 17.3713151, "lon": 78.5113577}, {"type": "node", "id": 5994099503, "lat": 17.4484132, "lon": 78.3835495}, {"type": "node", "id": 5994099504, "lat": 17.4485532, "lon": 78.3837315}, {"type": "node", "id": 5994099505, "lat": 17.4495201, "lon": 78.3829146}, {"type": "node", "id": 5994099506, "lat": 17.4493802, "lon": 78.3827326}, {"type": "node", "id": 6444553238, "lat": 17.4431396, "lon": 78.4407903, "tags": {"name": "S. R. Nagar", "name:fa": "\u0627\u0633 \u0622\u0631 \u0646\u06af\u0631", "name:ml": "\u0d0e\u0d38\u0d4d \u0d06\u0d7c \u0d28\u0d17\u0d7c", "name:te": "\u0c0e\u0c38\u0c4d.\u0c06\u0c30\u0c4d. \u0c28\u0c17\u0c30\u0c4d", "network": "Hyderabad Metro", "note": "Contributors are requested to not edit the \"network\" and the \"operator\" tags. (2023/11/08)", "operator": "Hyderabad Metro Rail Limited", "public_transport": "station", "public_transport:version": "2", "railway": "station", "station": "subway", "subway": "yes", "wikidata": "Q83175963"}}, {"type": "node", "id": 6444553239, "lat": 17.4490055, "lon": 78.3831376, "tags": {"name": "HITEC City", "name:fa": "\u0634\u0647\u0631 \u0647\u0627\u06cc\u062a\u06a9", "name:ml": "\u0d39\u0d48\u0d1f\u0d46\u0d15\u0d4d \u0d38\u0d3f\u0d31\u0d4d\u0d31\u0d3f", "name:te": "\u0c39\u0c48\u0c1f\u0c46\u0c15\u0c4d \u0c38\u0c3f\u0c1f\u0c3f", "network": "Hyderabad Metro", "note": "Contributors are requested to not edit the \"network\" and the \"operator\" tags. (2023/11/08)", "operator": "Hyderabad Metro Rail Limited", "public_transport": "station", "railway": "station", "station": "subway", "subway": "yes", "wikidata": "Q56701859"}}, {"type": "node", "id": 6447168562, "lat": 17.3907683, "lon": 78.5588222, "tags": {"layer": "1", "name": "Nagole", "name:fa": "\u0646\u0627\u06af\u0648\u0644", "name:ml": "\u0d28\u0d3e\u0d17\u0d4b\u0d7d", "name:te": "\u0c28\u0c3e\u0c17\u0c4b\u0c32\u0c4d", "network": "Hyderabad Metro", "note": "Contributors are requested to not edit the \"network\" and the \"operator\" tags. (2023/11/08)", "operator": "Hyderabad Metro Rail Limited", "public_transport": "station", "railway": "station", "station": "subway", "subway": "yes", "wheelchair": "yes", "wikidata": "Q83377016"}}, {"type": "node", "id": 6447191882, "lat": 17.4357214, "lon": 78.4447933, "tags": {"name": "Ameerpet (Red Line)", "name:fa": "\u0627\u0645\u06cc\u0631\u067e\u06cc\u062a (\u062e\u0637 \u0642\u0631\u0645\u0632)", "name:ml": "\u0d05\u0d2e\u0d40\u0d7c\u0d2a\u0d47\u0d1f\u0d4d\u0d1f\u0d4d", "name:te": "\u0c05\u0c2e\u0c40\u0c30\u0c4d\u200c\u0c2a\u0c47\u0c1f\u0c4d", "network": "Hyderabad Metro", "note": "Contributors are requested to not edit the \"network\" and the \"operator\" tags. (2023/11/08)", "operator": "Hyderabad Metro Rail Limited", "public_transport": "station", "public_transport:version": "2", "railway": "station", "station": "subway", "subway": "yes", "wikidata": "Q56701862", "wikipedia": "en:Ameerpet metro station"}}, {"type": "node", "id": 6451675812, "lat": 17.4429466, "lon": 78.3875721, "tags": {"internet_access": "no", "name": "Durgam Cheruvu", "name:fa": "\u062f\u0631\u06af\u0627\u0645 \u0686\u0631\u0648\u0648", "name:ml": "\u0d26\u0d41\u0d7c\u0d17\u0d4d\u0d17\u0d02 \u0d1a\u0d46\u0d30\u0d41\u0d35\u0d4d", "name:te": "\u0c26\u0c41\u0c30\u0c4d\u0c17\u0c02 \u0c1a\u0c46\u0c30\u0c41\u0c35\u0c41", "network": "Hyderabad Metro", "note": "Contributors are requested to not edit the \"network\" and the \"operator\" tags. (2023/11/08)", "operator": "Hyderabad Metro Rail Limited", "public_transport": "station", "railway": "station", "station": "Metro", "subway": "yes", "website": "https://hmrl.co.in", "wheelchair": "yes", "wikidata": "Q83554384"}}, {"type": "node", "id": 6594596014, "lat": 17.4749602, "lon": 78.2849764, "tags": {"internet_access": "no", "name": "Telapur", "network": "IR", "operator": "SCR", "public_transport": "station", "railway": "station", "ref": "TLPR", "train": "yes", "wikidata": "Q87776840"}}, {"type": "node", "id": 6598047610, "lat": 17.5102204, "lon": 78.2824464, "tags": {"internet_access": "no", "name": "Ramachandrapuram TS", "network": "IR", "operator": "SCR", "public_transport": "station", "railway": "station", "ref": "RCPT", "train": "yes", "wikidata": "Q105395406"}}, {"type": "node", "id": 6672440858, "lat": 17.4351132, "lon": 78.4273216, "tags": {"name": "Yusufguda", "name:fa": "\u06cc\u0648\u0633\u0641 \u06af\u0648\u062f\u0627", "name:ml": "\u0d2f\u0d42\u0d38\u0d41\u0d2b\u0d4d\u0d17\u0d41\u0d21", "name:te": "\u0c2f\u0c42\u0c38\u0c41\u0c2b\u0c4d\u200c\u0c17\u0c42\u0c21", "name:ur": "\u06cc\u0648\u0633\u0641 \u06af\u0648\u0691\u06c1", "network": "Hyderabad Metro", "note": "Contributors are requested to not edit the \"network\" and the \"operator\" tags. (2023/11/08)", "operator": "Hyderabad Metro Rail Limited", "public_transport": "station", "railway": "station", "station": "subway", "subway": "yes", "wikidata": "Q85518572"}}, {"type": "node", "id": 6700511122, "lat": 17.4352864, "lon": 78.4447834, "tags": {"name": "Ameerpet (Blue Line)", "name:fa": "\u0627\u0645\u06cc\u0631\u067e\u06cc\u062a (\u062e\u0637 \u0622\u0628\u06cc)", "name:ml": "\u0d05\u0d2e\u0d40\u0d7c\u0d2a\u0d47\u0d1f\u0d4d\u0d1f\u0d4d", "name:te": "\u0c05\u0c2e\u0c40\u0c30\u0c4d\u200c\u0c2a\u0c47\u0c1f\u0c4d", "network": "Hyderabad Metro", "note": "Contributors are requested to not edit the \"network\" and the \"operator\" tags. (2023/11/08)", "operator": "Hyderabad Metro Rail Limited", "public_transport": "station", "public_transport:version": "2", "railway": "station", "station": "subway", "subway": "yes", "wikidata": "Q56701862", "wikipedia": "en:Ameerpet metro station"}}, {"type": "node", "id": 6777782858, "lat": 17.4281969, "lon": 78.4137145, "tags": {"layer": "1", "lit": "yes", "name": "Jubilee Hills Checkpost", "name:fa": "\u0627\u06cc\u0633\u062a \u0628\u0627\u0632\u0631\u0633\u06cc \u062c\u0648\u0628\u06cc\u0644\u06cc \u0647\u06cc\u0644\u0632", "name:ml": "\u0d1c\u0d42\u0d2c\u0d3f\u0d32\u0d3f \u0d39\u0d3f\u0d7d\u0d38\u0d4d \u0d1a\u0d46\u0d15\u0d4d\u0d15\u0d4d\u0d2a\u0d4b\u0d38\u0d4d\u0d31\u0d4d\u0d31\u0d4d", "name:te": "\u0c1c\u0c42\u0c2c\u0c4d\u0c32\u0c40 \u0c39\u0c3f\u0c32\u0c4d\u0c38\u0c4d \u0c1a\u0c46\u0c15\u0c4d\u200c\u0c2a\u0c4b\u0c38\u0c4d\u0c1f\u0c4d", "network": "Hyderabad Metro", "note": "Contributors are requested to not edit the \"network\" and the \"operator\" tags. (2023/11/08)", "operator": "Hyderabad Metro Rail Limited", "platforms": "2", "public_transport": "station", "public_transport:version": "2", "railway": "station", "shelter": "yes", "station": "subway", "subway": "yes", "wheelchair": "yes", "wikidata": "Q64038090"}}, {"type": "node", "id": 7040366286, "lat": 17.4850883, "lon": 78.411638, "tags": {"internet_access": "no", "name": "Kukatpally", "name:fa": "\u06a9\u0648\u06a9\u062a\u067e\u0627\u0644\u06cc", "name:ml": "\u0d15\u0d41\u0d15\u0d4d\u0d15\u0d1f\u0d4d\u0d1f\u0d4d\u0d2a\u0d33\u0d4d\u0d33\u0d3f", "name:te": "\u0c15\u0c42\u0c15\u0c4d\u0c15\u0c1f\u0c4d\u200c\u0c2a\u0c32\u0c4d\u0c32\u0c3f", "network": "Hyderabad Metro", "note": "Contributors are requested to not edit the \"network\" and the \"operator\" tags. (2023/11/08)", "operator": "Hyderabad Metro Rail Limited", "public_transport": "station", "railway": "station", "station": "subway", "subway": "yes", "website": "https://hmrl.co.in", "wheelchair": "yes", "wikidata": "Q83283577"}}, {"type": "node", "id": 7052069749, "lat": 17.3999384, "lon": 78.5601591, "tags": {"name": "Uppal", "name:fa": "\u0627\u067e\u0644", "name:ml": "\u0d09\u0d2a\u0d4d\u0d2a\u0d7d", "name:te": "\u0c09\u0c2a\u0c4d\u0c2a\u0c32\u0c4d", "network": "Hyderabad Metro", "note": "Contributors are requested to not edit the \"network\" and the \"operator\" tags. (2023/11/08)", "operator": "Hyderabad Metro Rail Limited", "public_transport": "station", "railway": "station", "ref": "OPL", "station": "subway", "subway": "yes", "wheelchair": "yes", "wikidata": "Q83407689", "wikipedia": "en:Uppal metro station"}}, {"type": "node", "id": 7052069752, "lat": 17.4074002, "lon": 78.5542531, "tags": {"name": "Stadium", "name:fa": "\u0648\u0631\u0632\u0634\u06af\u0627\u0647", "name:ml": "\u0d38\u0d4d\u0d31\u0d4d\u0d31\u0d47\u0d21\u0d3f\u0d2f\u0d02", "name:te": "\u0c38\u0c4d\u0c1f\u0c47\u0c21\u0c3f\u0c2f\u0c02", "network": "Hyderabad Metro", "note": "Contributors are requested to not edit the \"network\" and the \"operator\" tags. (2023/11/08)", "operator": "Hyderabad Metro Rail Limited", "public_transport": "station", "railway": "station", "station": "subway", "subway": "yes", "wheelchair": "yes"}}, {"type": "node", "id": 7052069753, "lat": 17.4148264, "lon": 78.5463345, "tags": {"name": "NGRI", "name:fa": "\u0627\u0646\u200c\u062c\u06cc\u200c\u0622\u0631\u200c\u0622\u06cc", "name:te": "\u0c0e\u0c28\u0c4d.\u0c1c\u0c3f.\u0c06\u0c30\u0c4d.\u0c10", "network": "Hyderabad Metro", "note": "Contributors are requested to not edit the \"network\" and the \"operator\" tags. (2023/11/08)", "operator": "Hyderabad Metro Rail Limited", "public_transport": "station", "railway": "station", "station": "subway", "subway": "yes", "wikidata": "Q83491622"}}, {"type": "node", "id": 7052069754, "lat": 17.42018, "lon": 78.540548, "tags": {"name": "Habsiguda", "name:fa": "\u0647\u0627\u0628\u0633\u06cc\u06af\u0648\u062f\u0627", "name:ml": "\u0d39\u0d2c\u0d4d\u0d38\u0d3f\u0d17\u0d41\u0d21", "name:te": "\u0c39\u0c2c\u0c4d\u0c38\u0c40\u0c17\u0c42\u0c21", "name:ur": "\u062d\u0628\u0634\u06cc \u06af\u0648\u0691\u06c1", "network": "Hyderabad Metro", "note": "Contributors are requested to not edit the \"network\" and the \"operator\" tags. (2023/11/08)", "operator": "Hyderabad Metro Rail Limited", "public_transport": "station", "railway": "station", "station": "subway", "subway": "yes", "wikidata": "Q58814861"}}, {"type": "node", "id": 7052069755, "lat": 17.4282965, "lon": 78.5284415, "tags": {"name": "Tarnaka", "name:fa": "\u062a\u0627\u0631\u0646\u0627\u06a9\u0627", "name:ml": "\u0d24\u0d7c\u0d23\u0d3e\u0d15", "name:te": "\u0c24\u0c3e\u0c30\u0c4d\u0c28\u0c3e\u0c15", "name:ur": "\u062a\u0627\u0631\u0646\u0627\u06a9\u0627", "network": "Hyderabad Metro", "note": "Contributors are requested to not edit the \"network\" and the \"operator\" tags. (2023/11/08)", "operator": "Hyderabad Metro Rail Limited", "public_transport": "station", "railway": "station", "station": "subway", "subway": "yes", "wikidata": "Q56701857"}}, {"type": "node", "id": 7052069756, "lat": 17.4355207, "lon": 78.5195754, "tags": {"name": "Mettuguda", "name:fa": "\u0645\u062a\u0648\u06af\u0648\u062f\u0627", "name:ml": "\u0d2e\u0d47\u0d1f\u0d4d\u0d1f\u0d41\u0d17\u0d41\u0d21", "name:te": "\u0c2e\u0c46\u0c1f\u0c4d\u0c1f\u0c41\u0c17\u0c42\u0c21", "name:ur": "\u0645\u06cc\u0679\u0648 \u06af\u0648\u0691\u06c1", "network": "Hyderabad Metro", "note": "Contributors are requested to not edit the \"network\" and the \"operator\" tags. (2023/11/08)", "operator": "Hyderabad Metro Rail Limited", "public_transport": "station", "railway": "station", "station": "subway", "subway": "yes", "wheelchair": "yes"}}, {"type": "node", "id": 7052069757, "lat": 17.4357184, "lon": 78.5054623, "tags": {"name": "Secunderabad East", "name:fa": "\u0633\u06a9\u0646\u062f\u0631\u0622\u0628\u0627\u062f \u0634\u0631\u0642\u06cc", "name:ml": "\u0d38\u0d46\u0d15\u0d4d\u0d15\u0d28\u0d4d\u0d26\u0d4d\u0d30\u0d3e\u0d2c\u0d3e\u0d26\u0d4d \u0d08\u0d38\u0d4d\u0d31\u0d4d\u0d31\u0d4d", "name:te": "\u0c38\u0c3f\u0c15\u0c3f\u0c02\u0c26\u0c4d\u0c30\u0c3e\u0c2c\u0c3e\u0c26\u0c4d \u0c08\u0c38\u0c4d\u0c1f\u0c4d", "name:ur": "\u0633\u06a9\u0646\u062f\u0631 \u0622\u0628\u0627\u062f \u0627\u06cc\u0633\u0679", "network": "Hyderabad Metro", "note": "Contributors are requested to not edit the \"network\" and the \"operator\" tags. (2023/11/08)", "operator": "Hyderabad Metro Rail Limited", "public_transport": "station", "railway": "station", "station": "subway", "subway": "yes", "wikidata": "Q58814860"}}, {"type": "node", "id": 7052069758, "lat": 17.4431943, "lon": 78.4974687, "tags": {"name": "Parade Grounds (Blue Line)", "name:fa": "\u0645\u06cc\u062f\u0627\u0646 \u0631\u0698\u0647 (\u062e\u0637 \u0622\u0628\u06cc)", "name:ml": "\u0d2a\u0d30\u0d47\u0d21\u0d4d \u0d17\u0d4d\u0d30\u0d57\u0d23\u0d4d\u0d1f\u0d4d\u0d38\u0d4d", "name:te": "\u0c2a\u0c46\u0c30\u0c47\u0c21\u0c4d \u0c17\u0c4d\u0c30\u0c4c\u0c02\u0c21\u0c4d\u0c38\u0c4d", "network": "Hyderabad Metro", "note": "Contributors are requested to not edit the \"network\" and the \"operator\" tags. (2023/11/08)", "operator": "Hyderabad Metro Rail Limited", "public_transport": "station", "railway": "station", "station": "subway", "subway": "yes"}}, {"type": "node", "id": 7052069759, "lat": 17.4434668, "lon": 78.4862436, "tags": {"name": "Paradise", "name:fa": "\u067e\u0627\u0631\u0627\u062f\u0627\u06cc\u0633", "name:ml": "\u0d2a\u0d3e\u0d30\u0d21\u0d48\u0d38\u0d4d", "name:te": "\u0c2a\u0c4d\u0c2f\u0c3e\u0c30\u0c21\u0c48\u0c1c\u0c4d", "network": "Hyderabad Metro", "note": "Contributors are requested to not edit the \"network\" and the \"operator\" tags. (2023/11/08)", "operator": "Hyderabad Metro Rail Limited", "public_transport": "station", "railway": "station", "station": "subway", "subway": "yes"}}, {"type": "node", "id": 7052069760, "lat": 17.443612, "lon": 78.4764053, "tags": {"name": "Rasoolpura", "name:fa": "\u0631\u0633\u0648\u0644 \u067e\u0648\u0631\u0647", "name:ml": "\u0d31\u0d38\u0d42\u0d7d\u0d2a\u0d41\u0d30", "name:te": "\u0c30\u0c38\u0c42\u0c32\u0c4d\u200c\u0c2a\u0c41\u0c30", "network": "Hyderabad Metro", "note": "Contributors are requested to not edit the \"network\" and the \"operator\" tags. (2023/11/08)", "operator": "Hyderabad Metro Rail Limited", "railway": "station", "station": "subway", "subway": "yes", "wikidata": "Q84358120"}}, {"type": "node", "id": 7052069766, "lat": 17.4448889, "lon": 78.4658749, "tags": {"name": "Prakash Nagar", "name:fa": "\u067e\u0631\u06a9\u0627\u0634 \u0646\u06af\u0631", "name:ml": "\u0d2a\u0d4d\u0d30\u0d15\u0d3e\u0d36\u0d4d \u0d28\u0d17\u0d7c", "name:te": "\u0c2a\u0c4d\u0c30\u0c15\u0c3e\u0c36\u0c4d\u200c\u0c28\u0c17\u0c30\u0c4d", "name:ur": "\u067e\u0631\u06a9\u0627\u0634 \u0646\u06af\u0631", "network": "Hyderabad Metro", "note": "Contributors are requested to not edit the \"network\" and the \"operator\" tags. (2023/11/08)", "operator": "Hyderabad Metro Rail Limited", "public_transport": "station", "railway": "station", "station": "subway", "subway": "yes", "wikidata": "Q84499965"}}, {"type": "node", "id": 7052069770, "lat": 17.4369652, "lon": 78.4390993, "tags": {"alt_name": "Taruni Madhura Nagar", "name": "Madhura Nagar", "name:fa": "\u0645\u062f\u0647\u0648\u0631\u0627 \u0646\u06af\u0631", "name:ml": "\u0d2e\u0d27\u0d41\u0d30 \u0d28\u0d17\u0d7c", "name:te": "\u0c2e\u0c27\u0c41\u0c30 \u0c28\u0c17\u0c30\u0c4d", "name:ur": "\u0645\u062f\u06be\u0648\u0631\u0627 \u0646\u06af\u0631", "network": "Hyderabad Metro", "note": "Contributors are requested to not edit the \"network\" and the \"operator\" tags. (2023/11/08)", "operator": "Hyderabad Metro Rail Limited", "public_transport": "station", "railway": "station", "station": "subway", "subway": "yes", "wikidata": "Q63250572"}}, {"type": "node", "id": 7052069772, "lat": 17.4300489, "lon": 78.4232069, "tags": {"name": "Road No 5 Jubilee Hills", "name:fa": "\u062c\u0627\u062f\u0647 \u0634\u0645\u0627\u0631\u0647 \u06f5 \u062c\u0648\u0628\u06cc\u0644\u06cc \u0647\u06cc\u0644\u0632", "name:ml": "\u0d31\u0d4b\u0d21\u0d4d \u0d28\u0d2e\u0d4d\u0d2a\u0d7c 5 \u0d1c\u0d42\u0d2c\u0d3f\u0d32\u0d3f \u0d39\u0d3f\u0d7d\u0d38\u0d4d", "name:te": "\u0c30\u0c4b\u0c21\u0c4d \u0c28\u0c02 5 \u0c1c\u0c42\u0c2c\u0c3f\u0c32\u0c40 \u0c39\u0c3f\u0c32\u0c4d\u0c38\u0c4d", "network": "Hyderabad Metro", "note": "Contributors are requested to not edit the \"network\" and the \"operator\" tags. (2023/11/08)", "operator": "Hyderabad Metro Rail Limited", "public_transport": "station", "railway": "station", "station": "subway", "subway": "yes", "wikidata": "Q108874431"}}, {"type": "node", "id": 7052069774, "lat": 17.4306512, "lon": 78.4083721, "tags": {"name": "Peddamma Gudi", "name:fa": "\u067e\u062f\u0627\u0645\u0627 \u06af\u0648\u062f\u06cc", "name:ml": "\u0d2a\u0d46\u0d26\u0d4d\u0d26\u0d2e\u0d4d\u0d2e \u0d17\u0d41\u0d21\u0d3f", "name:te": "\u0c2a\u0c46\u0c26\u0c4d\u0c26\u0c2e\u0c4d\u0c2e \u0c17\u0c41\u0c21\u0c3f", "name:ur": "\u067e\u06cc\u062f\u0645\u0627 \u06af\u0688\u06cc", "network": "Hyderabad Metro", "note": "Contributors are requested to not edit the \"network\" and the \"operator\" tags. (2023/11/08)", "operator": "Hyderabad Metro Rail Limited", "public_transport": "station", "railway": "station", "station": "subway", "subway": "yes", "wikidata": "Q84028775"}}, {"type": "node", "id": 7052069775, "lat": 17.44218, "lon": 78.3771819, "tags": {"name": "Raidurg", "name:fa": "\u0631\u0627\u06cc\u062f\u0648\u0631\u06af", "name:ml": "\u0d31\u0d3e\u0d2f\u0d4d\u0d26\u0d41\u0d7c\u0d17\u0d4d", "name:te": "\u0c30\u0c3e\u0c2f\u0c26\u0c41\u0c30\u0c4d\u0c17\u0c4d", "network": "Hyderabad Metro", "note": "Contributors are requested to not edit the \"network\" and the \"operator\" tags. (2023/11/08)", "operator": "Hyderabad Metro Rail Limited", "public_transport": "station", "railway": "station", "station": "subway", "subway": "yes", "wikidata": "Q58814837"}}, {"type": "node", "id": 7195061310, "lat": 17.4444775, "lon": 78.497584, "tags": {"name": "Parade Grounds (Green Line)", "name:fa": "\u0645\u06cc\u062f\u0627\u0646 \u0631\u0698\u0647 (\u062e\u0637 \u0633\u0628\u0632)", "name:ml": "\u0d2a\u0d30\u0d47\u0d21\u0d4d \u0d17\u0d4d\u0d30\u0d57\u0d23\u0d4d\u0d1f\u0d4d\u0d38\u0d4d", "name:te": "\u0c2a\u0c46\u0c30\u0c47\u0c21\u0c4d \u0c17\u0c4d\u0c30\u0c4c\u0c02\u0c21\u0c4d\u0c38\u0c4d", "network": "Hyderabad Metro", "note": "Contributors are requested to not edit the \"network\" and the \"operator\" tags. (2023/11/08)", "operator": "Hyderabad Metro Rail Limited", "public_transport": "station", "railway": "station", "station": "subway", "subway": "yes"}}, {"type": "node", "id": 7201054971, "lat": 17.4488181, "lon": 78.4964843, "tags": {"alt_name": "Jubilee Bus Station", "name": "JBS", "name:fa": "\u062c\u06cc \u0628\u06cc \u0627\u0633", "name:ml": "\u0d1c\u0d46\u0d2c\u0d3f\u0d0e\u0d38\u0d4d", "name:te": "\u0c1c\u0c46 \u0c2c\u0c3f \u0c0e\u0c38\u0c4d", "network": "Hyderabad Metro", "note": "Contributors are requested to not edit the \"network\" and the \"operator\" tags. (2023/11/08)", "operator": "Hyderabad Metro Rail Limited", "public_transport": "station", "railway": "station", "station": "subway", "subway": "yes"}}, {"type": "node", "id": 7206794919, "lat": 17.4070321, "lon": 78.4968023, "tags": {"name": "RTC Cross Roads", "name:fa": "\u0622\u0631. \u062a\u06cc. \u0633\u06cc. \u06a9\u0631\u0627\u0633 \u0631\u0648\u062f\u0632", "name:ml": "\u0d06\u0d7c \u0d1f\u0d3f \u0d38\u0d3f \u0d15\u0d4d\u0d30\u0d4b\u0d38\u0d4d \u0d31\u0d4b\u0d21\u0d4d\u0d38\u0d4d", "name:te": "\u0c06\u0c30\u0c4d \u0c1f\u0c40 \u0c38\u0c3f \u0c15\u0c4d\u0c30\u0c3e\u0c38\u0c4d \u0c30\u0c4b\u0c21\u0c4d\u0c38\u0c4d", "network": "Hyderabad Metro", "note": "Contributors are requested to not edit the \"network\" and the \"operator\" tags. (2023/11/08)", "operator": "Hyderabad Metro Rail Limited", "public_transport": "station", "railway": "station", "station": "subway", "subway": "yes", "wikidata": "Q108874753"}}, {"type": "node", "id": 7208768626, "lat": 17.3798572, "lon": 78.4862022, "tags": {"alt_name": "M. G. Bus Station (Red Line)", "name": "Mahatma Gandhi Bus Station (Red Line)", "name:fa": "\u0627\u06cc\u0633\u062a\u06af\u0627\u0647 \u0627\u062a\u0648\u0628\u0648\u0633 \u0645\u0647\u0627\u062a\u0645\u0627 \u06af\u0627\u0646\u062f\u06cc (\u062e\u0637 \u0642\u0631\u0645\u0632)", "name:ml": "\u0d2e\u0d39\u0d3e\u0d24\u0d4d\u0d2e\u0d3e\u0d17\u0d3e\u0d28\u0d4d\u0d27\u0d3f \u0d2c\u0d38\u0d4d \u0d38\u0d4d\u0d31\u0d4d\u0d31\u0d47\u0d37\u0d7b", "name:te": "\u0c0e\u0c02.\u0c1c\u0c3f. \u0c2c\u0c38\u0c4d. \u0c38\u0c4d\u0c1f\u0c47\u0c37\u0c28\u0c4d", "name:ur": "\u0645\u06c1\u0627\u062a\u0645\u0627 \u06af\u0627\u0646\u062f\u06be\u06cc \u0628\u0633 \u0627\u0633\u0679\u06cc\u0634\u0646 (\u0631\u06cc\u0688 \u0644\u0627\u0626\u0646)", "network": "Hyderabad Metro", "note": "Contributors are requested to not edit the \"network\" and the \"operator\" tags. (2023/11/08)", "operator": "Hyderabad Metro Rail Limited", "public_transport": "station", "railway": "station", "station": "subway", "subway": "yes"}}, {"type": "node", "id": 7208768627, "lat": 17.3796948, "lon": 78.4858635, "tags": {"alt_name": "M. G. Bus Station (Green Line)", "name": "Mahatma Gandhi Bus Station (Green Line)", "name:fa": "\u0627\u06cc\u0633\u062a\u06af\u0627\u0647 \u0627\u062a\u0648\u0628\u0648\u0633 \u0645\u0647\u0627\u062a\u0645\u0627 \u06af\u0627\u0646\u062f\u06cc (\u062e\u0637 \u0633\u0628\u0632)", "name:ml": "\u0d2e\u0d39\u0d3e\u0d24\u0d4d\u0d2e\u0d3e\u0d17\u0d3e\u0d28\u0d4d\u0d27\u0d3f \u0d2c\u0d38\u0d4d \u0d38\u0d4d\u0d31\u0d4d\u0d31\u0d47\u0d37\u0d7b", "name:te": "\u0c0e\u0c02.\u0c1c\u0c3f. \u0c2c\u0c38\u0c4d. \u0c38\u0c4d\u0c1f\u0c47\u0c37\u0c28\u0c4d", "name:ur": "\u0645\u06c1\u0627\u062a\u0645\u0627 \u06af\u0627\u0646\u062f\u06be\u06cc \u0628\u0633 \u0627\u0633\u0679\u06cc\u0634\u0646 (\u06af\u0631\u06cc\u0646 \u0644\u0627\u0626\u0646", "network": "Hyderabad Metro", "note": "Contributors are requested to not edit the \"network\" and the \"operator\" tags. (2023/11/08)", "operator": "Hyderabad Metro Rail Limited", "public_transport": "station", "railway": "station", "station": "subway", "subway": "yes"}}, {"type": "node", "id": 7208768628, "lat": 17.3771888, "lon": 78.4939356, "tags": {"addr:city": "Hyderabad", "addr:city:ar": "\u062d\u064a\u062f\u0631 \u0622\u0628\u0627\u062f", "addr:city:ur": "\u062d\u06cc\u062f\u0631\u0622\u0628\u0627\u062f", "addr:place": "Malakpet", "addr:place:ar": "\u0645\u0627\u0644\u0643 \u0628\u064a\u062a", "addr:place:ur": "\u0645\u0627\u0644\u06a9 \u067e\u06cc\u0679", "alt_name:ur": "\u0645\u0644\u06a9 \u067e\u06cc\u0679", "name": "Malakpet", "name:ar": "\u0645\u0627\u0644\u0643 \u0628\u064a\u062a", "name:fa": "\u0645\u0644\u06a9 \u067e\u06cc\u062a", "name:ml": "\u0d2e\u0d32\u0d15\u0d4d\u0d2a\u0d47\u0d1f\u0d4d\u0d1f\u0d4d", "name:te": "\u0c2e\u0c32\u0c15\u0c4d\u200c\u0c2a\u0c47\u0c1f\u0c4d", "name:ur": "\u0645\u0627\u0644\u06a9 \u067e\u06cc\u0679", "network": "Hyderabad Metro", "note": "Contributors are requested to not edit the \"network\" and the \"operator\" tags. (2023/11/08)", "operator": "Hyderabad Metro Rail Limited", "public_transport": "station", "railway": "station", "station": "subway", "subway": "yes", "wheelchair": "yes"}}, {"type": "node", "id": 7246815452, "lat": 17.3710728, "lon": 78.5119483, "tags": {"name": "Musarambagh", "name:fa": "\u0645\u0648\u0633\u06cc \u0631\u0627\u0645 \u0628\u0627\u063a", "name:te": "\u0c2e\u0c42\u0c38\u0c30\u0c02\u0c2c\u0c3e\u0c18\u0c4d", "name:ur": "\u0645\u0648\u0633\u06cc\u0670 \u0631\u0627\u0645 \u0628\u0627\u063a", "network": "Hyderabad Metro", "note": "Contributors are requested to not edit the \"network\" and the \"operator\" tags. (2023/11/08)", "operator": "Hyderabad Metro Rail Limited", "public_transport": "station", "railway": "station", "station": "subway", "subway": "yes", "wikidata": "Q81640785"}}, {"type": "node", "id": 7358663499, "lat": 17.3844473, "lon": 78.4840241, "tags": {"name": "Sultan Bazar", "name:fa": "\u0633\u0644\u0637\u0627\u0646 \u0628\u0627\u0632\u0627\u0631", "name:ml": "\u0d38\u0d41\u0d7d\u0d24\u0d4d\u0d24\u0d3e\u0d7b \u0d2c\u0d38\u0d3e\u0d7c", "name:te": "\u0c38\u0c41\u0c32\u0c4d\u0c24\u0c3e\u0c28\u0c4d \u0c2c\u0c1c\u0c3e\u0c30\u0c4d", "network": "Hyderabad Metro", "note": "Contributors are requested to not edit the \"network\" and the \"operator\" tags. (2023/11/08)", "operator": "Hyderabad Metro Rail Limited", "railway": "station", "station": "subway", "subway": "yes"}}, {"type": "node", "id": 7358663501, "lat": 17.3943658, "lon": 78.4899578, "tags": {"name": "Narayanaguda", "name:fa": "\u0646\u0627\u0631\u0627\u06cc\u0627\u0646\u0627\u06af\u0648\u062f\u0627", "name:ml": "\u0d28\u0d3e\u0d30\u0d3e\u0d2f\u0d23\u0d17\u0d41\u0d21", "name:te": "\u0c28\u0c3e\u0c30\u0c3e\u0c2f\u0c23\u0c17\u0c42\u0c21", "network": "Hyderabad Metro", "note": "Contributors are requested to not edit the \"network\" and the \"operator\" tags. (2023/11/08)", "operator": "Hyderabad Metro Rail Limited", "railway": "station", "station": "subway", "subway": "yes", "wikidata": "Q108874763"}}, {"type": "node", "id": 7358663502, "lat": 17.4003634, "lon": 78.4948964, "tags": {"name": "Chikkadpally", "name:fa": "\u0686\u06cc\u06a9\u0627\u062f\u067e\u0627\u0644\u06cc", "name:ml": "\u0d1a\u0d3f\u0d15\u0d4d\u0d15\u0d1f\u0d2a\u0d4d\u0d2a\u0d33\u0d4d\u0d33\u0d3f", "name:te": "\u0c1a\u0c3f\u0c15\u0c4d\u0c15\u0c21\u0c2a\u0c32\u0c4d\u0c32\u0c3f", "network": "Hyderabad Metro", "note": "Contributors are requested to not edit the \"network\" and the \"operator\" tags. (2023/11/08)", "operator": "Hyderabad Metro Rail Limited", "railway": "station", "station": "subway", "subway": "yes", "wikidata": "Q108874757"}}, {"type": "node", "id": 7358663503, "lat": 17.4178744, "lon": 78.4995051, "tags": {"name": "Musheerabad", "name:fa": "\u0645\u0634\u06cc\u0631\u0622\u0628\u0627\u062f", "name:ml": "\u0d2e\u0d41\u0d37\u0d40\u0d31\u0d3e\u0d2c\u0d3e\u0d26\u0d4d", "name:te": "\u0c2e\u0c41\u0c37\u0c40\u0c30\u0c3e\u0c2c\u0c3e\u0c26\u0c4d", "network": "Hyderabad Metro", "note": "Contributors are requested to not edit the \"network\" and the \"operator\" tags. (2023/11/08)", "operator": "Hyderabad Metro Rail Limited", "railway": "station", "station": "subway", "subway": "yes", "wikidata": "Q84890478"}}, {"type": "node", "id": 7358663506, "lat": 17.4255155, "lon": 78.501956, "tags": {"name": "Gandhi Hospital", "name:fa": "\u0628\u06cc\u0645\u0627\u0631\u0633\u062a\u0627\u0646 \u06af\u0627\u0646\u062f\u06cc", "name:ml": "\u0d17\u0d3e\u0d28\u0d4d\u0d27\u0d3f \u0d39\u0d4b\u0d38\u0d4d\u0d2a\u0d3f\u0d31\u0d4d\u0d31\u0d7d", "name:te": "\u0c17\u0c3e\u0c02\u0c27\u0c40 \u0c39\u0c3e\u0c38\u0c4d\u0c2a\u0c3f\u0c1f\u0c32\u0c4d", "network": "Hyderabad Metro", "note": "Contributors are requested to not edit the \"network\" and the \"operator\" tags. (2023/11/08)", "operator": "Hyderabad Metro Rail Limited", "railway": "station", "station": "subway", "subway": "yes", "wikidata": "Q84766563"}}, {"type": "node", "id": 7358663518, "lat": 17.4338034, "lon": 78.4995181, "tags": {"name": "Secunderabad West", "name:fa": "\u0633\u06a9\u0646\u062f\u0631\u0622\u0628\u0627\u062f \u063a\u0631\u0628\u06cc", "name:ml": "\u0d38\u0d46\u0d15\u0d4d\u0d15\u0d28\u0d4d\u0d26\u0d4d\u0d30\u0d3e\u0d2c\u0d3e\u0d26\u0d4d \u0d35\u0d46\u0d38\u0d4d\u0d31\u0d4d\u0d31\u0d4d", "name:te": "\u0c38\u0c3f\u0c15\u0c3f\u0c02\u0c26\u0c4d\u0c30\u0c3e\u0c2c\u0c3e\u0c26\u0c4d \u0c35\u0c46\u0c38\u0c4d\u0c1f\u0c4d", "name:ur": "\u0633\u06a9\u0646\u062f\u0631 \u0622\u0628\u0627\u062f \u0648\u06cc\u0633\u0679", "network": "Hyderabad Metro", "note": "Contributors are requested to not edit the \"network\" and the \"operator\" tags. (2023/11/08)", "operator": "Hyderabad Metro Rail Limited", "public_transport": "station", "railway": "station", "station": "subway", "subway": "yes", "wikidata": "Q108874730"}}, {"type": "node", "id": 7966231611, "lat": 17.4416436, "lon": 78.3770477}, {"type": "node", "id": 7966231612, "lat": 17.4416462, "lon": 78.3772653}, {"type": "node", "id": 7966231613, "lat": 17.4427452, "lon": 78.3772511}, {"type": "node", "id": 7966231614, "lat": 17.4427426, "lon": 78.3770335}, {"type": "node", "id": 9144573053, "lat": 17.4372637, "lon": 78.4004257, "tags": {"layer": "1", "lit": "yes", "name": "Madhapur", "name:fa": "\u0645\u0627\u062f\u0647\u0627\u067e\u0648\u0631", "name:ml": "\u0d2e\u0d3e\u0d27\u0d3e\u0d2a\u0d42\u0d7c", "name:te": "\u0c2e\u0c3e\u0c27\u0c3e\u0c2a\u0c42\u0c30\u0c4d", "network": "Hyderabad Metro", "note": "Contributors are requested to not edit the \"network\" and the \"operator\" tags. (2023/11/08)", "operator": "Hyderabad Metro Rail Limited", "platforms": "2", "public_transport": "station", "public_transport:version": "2", "railway": "station", "shelter": "yes", "station": "subway", "subway": "yes", "wheelchair": "yes", "wikidata": "Q83637027"}}, {"type": "node", "id": 10252989488, "lat": 17.4338591, "lon": 78.502051, "tags": {"addr:city": "Secunderabad", "addr:postcode": "500003", "addr:street": "Station Road", "internet_access": "wlan", "internet_access:fee": "yes", "internet_access:ssid": "Rail Wire Free Wi-Fi", "name": "Secunderabad Junction", "name:hi": "\u0938\u093f\u0915\u0902\u0926\u0930\u093e\u092c\u093e\u0926 \u091c\u0902\u0915\u094d\u0936\u0928", "name:kn": "\u0cb8\u0cbf\u0c95\u0c82\u0ca6\u0cb0\u0cbe\u0cac\u0cbe\u0ca6\u0ccd \u0c9c\u0c82\u0c95\u0ccd\u0cb7\u0ca8\u0ccd", "name:ml": "\u0d38\u0d46\u0d15\u0d4d\u0d15\u0d28\u0d4d\u0d24\u0d30\u0d3e\u0d2c\u0d3e\u0d26\u0d4d \u0d1c\u0d02\u0d17\u0d4d\u0d37\u0d7b", "name:ta": "\u0b9a\u0bc6\u0b95\u0ba8\u0bcd\u0ba4\u0bbf\u0bb0\u0bbe\u0baa\u0bbe\u0ba4\u0bcd \u0b9a\u0ba8\u0bcd\u0ba4\u0bbf\u0baa\u0bcd\u0baa\u0bc1", "name:te": "\u0c38\u0c3f\u0c15\u0c3f\u0c02\u0c26\u0c4d\u0c30\u0c3e\u0c2c\u0c3e\u0c26\u0c4d \u0c1c\u0c02\u0c15\u0c4d\u0c37\u0c28\u0c4d", "name:ur": "\u0633\u06a9\u0646\u062f\u0631 \u0622\u0628\u0627\u062f \u062c\u0646\u06a9\u0634\u0646", "network": "Indian Railways", "operator": "South Central Railway", "platforms": "10", "public_transport": "station", "railway": "station", "ref": "SC", "train": "yes", "wheelchair": "yes", "wikidata": "Q7444810", "wikipedia": "en:Secunderabad Junction railway station"}}, {"type": "node", "id": 10279821749, "lat": 17.3734268, "lon": 78.5031775, "tags": {"alt_name": "\u0645\u062d\u0628\u0648\u0628 \u06af\u0646\u062c", "name": "New Market", "name:fa": "\u0628\u0627\u0632\u0627\u0631 \u062c\u062f\u06cc\u062f", "name:ml": "\u0d28\u0d4d\u0d2f\u0d42\u0d2e\u0d3e\u0d7c\u0d15\u0d4d\u0d15\u0d31\u0d4d\u0d31\u0d4d", "name:te": "\u0c15\u0c4a\u0c24\u0c4d\u0c24 \u0c2e\u0c3e\u0c30\u0c4d\u0c15\u0c46\u0c1f\u0c4d", "name:ur": "\u0646\u0626\u06cc \u0645\u0627\u0631\u06a9\u06cc\u0679", "network": "Hyderabad Metro", "note": "Contributors are requested to not edit the \"network\" and the \"operator\" tags. (2023/11/08)", "operator": "Hyderabad Metro Rail Limited", "public_transport": "station", "railway": "station", "station": "subway", "subway": "yes", "wikidata": "Q81483949"}}, {"type": "node", "id": 11737669094, "lat": 17.4986555, "lon": 78.3888661, "tags": {"name": "JNTU College", "name:fa": "\u062c\u06cc.\u0627\u0646.\u062a\u06cc.\u06cc\u0648 \u06a9\u0627\u0644\u062c", "name:ml": "\u0d1c\u0d46 \u0d0e\u0d7b \u0d1f\u0d3f \u0d2f\u0d41 \u0d15\u0d4b\u0d33\u0d47\u0d1c\u0d4d", "name:te": "\u0c1c\u0c46.\u0c0e\u0c28\u0c4d.\u0c1f\u0c3f.\u0c2f\u0c42 \u0c15\u0c3e\u0c32\u0c47\u0c1c\u0c3f", "network": "Hyderabad Metro", "operator": "Hyderabad Metro Rail Limited", "public_transport": "station", "railway": "station", "station": "subway", "subway": "yes", "wikidata": "Q84250421"}}, {"type": "node", "id": 11737669096, "lat": 17.4938025, "lon": 78.4017651, "tags": {"name": "KPHB Colony", "name:fa": "\u0645\u0633\u062a\u0639\u0645\u0631\u0647 \u06a9\u06cc \u067e\u06cc \u0627\u0686 \u0628\u06cc", "name:ml": "\u0d15\u0d46 \u0d2a\u0d3f \u0d0e\u0d1a\u0d4d\u0d1a\u0d4d \u0d2c\u0d3f \u0d15\u0d4b\u0d33\u0d28\u0d3f", "name:te": "\u0c15\u0c46.\u0c2a\u0c3f.\u0c39\u0c46\u0c1a\u0c4d.\u0c2c\u0c3f \u0c15\u0c3e\u0c32\u0c28\u0c40", "network": "Hyderabad Metro", "note": "Contributors are requested to not edit the \"network\" and the \"operator\" tags. (2023/11/08)", "operator": "Hyderabad Metro Rail Limited", "public_transport": "station", "railway": "station", "station": "subway", "subway": "yes", "wikidata": "Q85773083"}}, {"type": "node", "id": 11737669097, "lat": 17.4965392, "lon": 78.3730252, "tags": {"name": "Miyapur", "name:fa": "\u0645\u06cc\u0627\u067e\u0648\u0631", "name:ml": "\u0d2e\u0d3f\u0d2f\u0d3e\u0d2a\u0d42\u0d7c", "name:te": "\u0c2e\u0c3f\u0c2f\u0c3e\u0c2a\u0c42\u0c30\u0c4d", "network": "Hyderabad Metro", "operator": "Hyderabad Metro Rail Limited", "public_transport": "station", "railway": "station", "station": "subway", "subway": "yes", "wheelchair": "yes", "wikidata": "Q58814840"}}, {"type": "node", "id": 11737669098, "lat": 17.3618537, "lon": 78.5439302, "tags": {"name": "Victoria Memorial", "name:fa": "\u06cc\u0627\u062f\u0628\u0648\u062f \u0648\u06cc\u06a9\u062a\u0648\u0631\u06cc\u0627", "name:ml": "\u0d35\u0d3f\u0d15\u0d4d\u0d1f\u0d4b\u0d31\u0d3f\u0d2f \u0d2e\u0d46\u0d2e\u0d4d\u0d2e\u0d4b\u0d31\u0d3f\u0d2f\u0d7d", "name:te": "\u0c35\u0c3f\u0c15\u0c4d\u0c1f\u0c4b\u0c30\u0c3f\u0c2f\u0c3e \u0c2e\u0c46\u0c2e\u0c4b\u0c30\u0c3f\u0c2f\u0c32\u0c4d", "name:ur": "\u0648\u06a9\u0679\u0648\u0631\u06cc\u06c1 \u0645\u06cc\u0648\u0645\u0631\u06cc\u0644", "network": "Hyderabad Metro", "operator": "Hyderabad Metro Rail Limited", "public_transport": "station", "railway": "station", "station": "subway", "subway": "yes", "wheelchair": "yes", "wikidata": "Q58814872"}}, {"type": "node", "id": 11737669099, "lat": 17.3685518, "lon": 78.5257172, "tags": {"name": "Dilsukh Nagar", "name:fa": "\u062f\u0644\u0633\u0648\u062e \u0646\u06af\u0631", "name:ml": "\u0d26\u0d3f\u0d7d\u0d38\u0d41\u0d16\u0d4d\u0d28\u0d17\u0d7c", "name:te": "\u0c26\u0c3f\u0c32\u0c4d\u200c\u0c38\u0c41\u0c16\u0c4d\u200c\u0c28\u0c17\u0c30\u0c4d", "name:ur": "\u062f\u0650\u0644 \u0633\u064f\u06a9\u06be \u0646\u06af\u0631", "network": "Hyderabad Metro", "operator": "Hyderabad Metro Rail Limited", "public_transport": "station", "railway": "station", "station": "subway", "subway": "yes", "wheelchair": "yes", "wikidata": "Q81724990"}}, {"type": "node", "id": 11737669100, "lat": 17.3498286, "lon": 78.5479138, "tags": {"name": "L. B. Nagar Metro Station", "name:fa": "\u0627\u0644 \u0628\u06cc \u0646\u06af\u0631", "name:ml": "\u0d0e\u0d7d \u0d2c\u0d3f \u0d28\u0d17\u0d7c", "name:te": "\u0c0e\u0c32\u0c4d.\u0c2c\u0c3f. \u0c28\u0c17\u0c30\u0c4d", "network": "Hyderabad Metro", "operator": "Hyderabad Metro Rail Limited", "public_transport": "station", "railway": "station", "station": "subway", "subway": "yes", "wheelchair": "yes", "wikidata": "Q58814838"}}, {"type": "node", "id": 11738179187, "lat": 17.3823471, "lon": 78.4811327, "tags": {"alt_name": "OMC", "internet_access": "no", "name": "Osmania Medical College", "name:fa": "\u06a9\u0627\u0644\u062c \u067e\u0632\u0634\u06a9\u06cc \u0639\u062b\u0645\u0627\u0646\u06cc\u0647", "name:ml": "\u0d09\u0d38\u0d4d\u0d2e\u0d3e\u0d28\u0d3f\u0d2f \u0d2e\u0d46\u0d21\u0d3f\u0d15\u0d4d\u0d15\u0d7d \u0d15\u0d4b\u0d33\u0d47\u0d1c\u0d4d", "name:te": "\u0c09\u0c38\u0c4d\u0c2e\u0c3e\u0c28\u0c3f\u0c2f\u0c3e \u0c35\u0c48\u0c26\u0c4d\u0c2f \u0c15\u0c33\u0c3e\u0c36\u0c3e\u0c32", "name:ur": "\u0639\u062b\u0645\u0627\u0646\u06cc\u06c1 \u0645\u06cc\u0688\u06cc\u06a9\u0644 \u06a9\u0627\u0644\u062c", "network": "Hyderabad Metro", "note": "Contributors are requested to not edit the \"network\" and the \"operator\" tags. (2023/11/08)", "operator": "Hyderabad Metro Rail Limited", "public_transport": "station", "railway": "station", "station": "subway", "subway": "yes", "website": "https://hmrl.co.in", "wheelchair": "yes", "wikidata": "Q83859784"}}, {"type": "node", "id": 11738179188, "lat": 17.3923995, "lon": 78.4701477, "tags": {"internet_access": "no", "name": "Nampally", "name:fa": "\u0646\u0627\u0645\u067e\u0627\u0644\u06cc", "name:ml": "\u0d28\u0d3e\u0d2e\u0d4d\u0d2a\u0d33\u0d4d\u0d33\u0d3f", "name:te": "\u0c28\u0c3e\u0c02\u0c2a\u0c32\u0c4d\u0c32\u0c3f", "name:ur": "\u0646\u0627\u0645\u067e\u0644\u0651\u06cc", "network": "Hyderabad Metro", "note": "Contributors are requested to not edit the \"network\" and the \"operator\" tags. (2023/11/08)", "operator": "Hyderabad Metro Rail Limited", "public_transport": "station", "railway": "station", "station": "subway", "subway": "yes", "website": "https://hmrl.co.in", "wheelchair": "yes", "wikidata": "Q63346685"}}, {"type": "node", "id": 11738179189, "lat": 17.4719703, "lon": 78.4260361, "tags": {"internet_access": "no", "name": "Moosapet", "name:fa": "\u0645\u0648\u0633\u06cc \u067e\u06cc\u062a", "name:ml": "\u0d2e\u0d42\u0d38\u0d3e\u0d2a\u0d4d\u0d2a\u0d47\u0d1f\u0d4d\u0d1f\u0d4d", "name:te": "\u0c2e\u0c42\u0c38\u0c3e\u0c2a\u0c47\u0c1f\u0c4d", "name:ur": "\u0645\u0648\u0633\u06cc\u0670 \u067e\u06cc\u0679", "network": "Hyderabad Metro", "note": "Contributors are requested to not edit the \"network\" and the \"operator\" tags. (2023/11/08)", "operator": "Hyderabad Metro Rail Limited", "public_transport": "station", "railway": "station", "station": "subway", "subway": "yes", "website": "https://hmrl.co.in", "wheelchair": "yes", "wikidata": "Q82256850"}}, {"type": "node", "id": 11738179190, "lat": 17.4039063, "lon": 78.4650247, "tags": {"internet_access": "no", "name": "Lakdi-ka-pul", "name:fa": "\u0644\u06a9\u062f\u06cc-\u06a9\u0627-\u067e\u0644", "name:ml": "\u0d32\u0d15\u0d4d\u0d21\u0d3f-\u0d15\u0d3e-\u0d2a\u0d41\u0d7d", "name:te": "\u0c32\u0c15\u0c4d\u0c21\u0c3f-\u0c15\u0c3e-\u0c2a\u0c41\u0c32\u0c4d", "name:ur": "\u0644\u06a9\u0691\u06cc \u06a9\u0627 \u067e\u0644", "network": "Hyderabad Metro", "note": "Contributors are requested to not edit the \"network\" and the \"operator\" tags. (2023/11/08)", "operator": "Hyderabad Metro Rail Limited", "public_transport": "station", "railway": "station", "station": "subway", "subway": "yes", "website": "https://hmrl.co.in", "wheelchair": "yes"}}, {"type": "node", "id": 11738179191, "lat": 17.4115319, "lon": 78.4608458, "tags": {"internet_access": "no", "name": "Khairatabad", "name:fa": "\u062e\u06cc\u0631\u062a \u0622\u0628\u0627\u062f", "name:ml": "\u0d16\u0d48\u0d30\u0d24\u0d3e\u0d2c\u0d3e\u0d26\u0d4d", "name:te": "\u0c16\u0c48\u0c30\u0c24\u0c3e\u0c2c\u0c3e\u0c26\u0c4d", "name:ur": "\u062e\u06cc\u0631\u062a \u0622\u0628\u0627\u062f", "network": "Hyderabad Metro", "note": "Contributors are requested to not edit the \"network\" and the \"operator\" tags. (2023/11/08)", "operator": "Hyderabad Metro Rail Limited", "public_transport": "station", "railway": "station", "station": "subway", "subway": "yes", "website": "https://hmrl.co.in", "wheelchair": "yes"}}, {"type": "node", "id": 11738179193, "lat": 17.4205559, "lon": 78.456101, "tags": {"internet_access": "no", "name": "Irrum Manzil", "name:fa": "\u0627\u0631\u0645 \u0645\u0646\u0632\u0644", "name:ml": "\u0d0e\u0d31\u0d02 \u0d2e\u0d7b\u0d38\u0d3f\u0d7d", "name:te": "\u0c07\u0c31\u0c02 \u0c2e\u0c02\u0c1c\u0c3f\u0c32\u0c4d", "name:ur": "\u0627\u0631\u0645 \u0645\u0646\u0632\u0644", "network": "Hyderabad Metro", "note": "Contributors are requested to not edit the \"network\" and the \"operator\" tags. (2023/11/08)", "operator": "Hyderabad Metro Rail Limited", "public_transport": "station", "railway": "station", "station": "subway", "subway": "yes", "website": "https://hmrl.co.in", "wheelchair": "yes", "wikidata": "Q85770033"}}, {"type": "node", "id": 11738179194, "lat": 17.3861073, "lon": 78.4730995, "tags": {"internet_access": "no", "name": "Gandhi Bhavan", "name:fa": "\u06af\u0627\u0646\u062f\u06cc \u0628\u0647\u0627\u0648\u0627\u0646", "name:ml": "\u0d17\u0d3e\u0d28\u0d4d\u0d27\u0d3f \u0d2d\u0d35\u0d7b", "name:te": "\u0c17\u0c3e\u0c02\u0c27\u0c40 \u0c2d\u0c35\u0c28\u0c4d", "name:ur": "\u06af\u0627\u0646\u062f\u06be\u06cc \u0628\u06be\u0648\u0646", "network": "Hyderabad Metro", "note": "Contributors are requested to not edit the \"network\" and the \"operator\" tags. (2023/11/08)", "operator": "Hyderabad Metro Rail Limited", "public_transport": "station", "railway": "station", "station": "subway", "subway": "yes", "website": "https://hmrl.co.in", "wheelchair": "yes", "wikidata": "Q62860405"}}, {"type": "node", "id": 11738179195, "lat": 17.4474042, "lon": 78.4383501, "tags": {"internet_access": "no", "name": "ESI Hospital", "name:fa": "\u0628\u06cc\u0645\u0627\u0631\u0633\u062a\u0627\u0646 \u0627\u06cc \u0627\u0633 \u0622\u06cc", "name:ml": "\u0d07.\u0d0e\u0d38\u0d4d.\u0d10 \u0d06\u0d36\u0d41\u0d2a\u0d24\u0d4d\u0d30\u0d3f", "name:te": "\u0c08.\u0c0e\u0c38\u0c4d.\u0c10 \u0c06\u0c38\u0c4d\u0c2a\u0c24\u0c4d\u0c30\u0c3f", "network": "Hyderabad Metro", "note": "Contributors are requested to not edit the \"network\" and the \"operator\" tags. (2023/11/08)", "operator": "Hyderabad Metro Rail Limited", "public_transport": "station", "railway": "station", "station": "subway", "subway": "yes", "website": "https://hmrl.co.in", "wheelchair": "yes", "wikidata": "Q83008743"}}, {"type": "node", "id": 11738179196, "lat": 17.4573276, "lon": 78.4334618, "tags": {"internet_access": "no", "name": "Erragadda", "name:fa": "\u0627\u0631\u0627\u06af\u062f\u0627", "name:ml": "\u0d0e\u0d31\u0d17\u0d22", "name:te": "\u0c0e\u0c30\u0c4d\u0c30\u0c17\u0c21\u0c4d\u0c21", "name:ur": "\u0627\u06cc\u0631\u06c1 \u06af\u0688\u06c1", "network": "Hyderabad Metro", "note": "Contributors are requested to not edit the \"network\" and the \"operator\" tags. (2023/11/08)", "operator": "Hyderabad Metro Rail Limited", "public_transport": "station", "railway": "station", "station": "subway", "subway": "yes", "website": "https://hmrl.co.in", "wheelchair": "yes", "wikidata": "Q82698806"}}, {"type": "node", "id": 11738179197, "lat": 17.368286, "lon": 78.5359409, "tags": {"internet_access": "no", "name": "Chaitanyapuri", "name:fa": "\u0686\u0627\u06cc\u062a\u0627\u0646\u06cc\u0627\u067e\u0648\u0631\u06cc", "name:ml": "\u0d1a\u0d48\u0d24\u0d28\u0d4d\u0d2f\u0d2a\u0d41\u0d30\u0d3f", "name:te": "\u0c1b\u0c48\u0c24\u0c28\u0c4d\u0c2f\u0c2a\u0c41\u0c30\u0c3f", "name:ur": "\u0686\u06cc\u062a\u0646\u06cc\u06c1 \u067e\u0648\u0631\u06cc", "network": "Hyderabad Metro", "note": "Contributors are requested to not edit the \"network\" and the \"operator\" tags. (2023/11/08)", "operator": "Hyderabad Metro Rail Limited", "public_transport": "station", "railway": "station", "station": "subway", "subway": "yes", "website": "https://hmrl.co.in", "wheelchair": "yes", "wikidata": "Q81820840"}}, {"type": "node", "id": 11738179198, "lat": 17.4641604, "lon": 78.4300051, "tags": {"internet_access": "no", "name": "Bharat Nagar", "name:fa": "\u0628\u0647\u0631\u062a \u0646\u06af\u0631", "name:ml": "\u0d2d\u0d30\u0d24\u0d4d \u0d28\u0d17\u0d7c", "name:te": "\u0c2d\u0c30\u0c24\u0c4d \u0c28\u0c17\u0c30\u0c4d", "network": "Hyderabad Metro", "note": "Contributors are requested to not edit the \"network\" and the \"operator\" tags. (2023/11/08)", "operator": "Hyderabad Metro Rail Limited", "public_transport": "station", "railway": "station", "station": "subway", "subway": "yes", "website": "https://hmrl.co.in", "wheelchair": "yes", "wikidata": "Q82532536"}}, {"type": "node", "id": 11738179199, "lat": 17.4768224, "lon": 78.4219645, "tags": {"internet_access": "no", "name": "Balanagar", "name:fa": "\u0628\u0627\u0644\u0627\u0646\u06af\u0631", "name:ml": "\u0d2c\u0d3e\u0d32\u0d3e\u0d28\u0d17\u0d7c", "name:te": "\u0c2c\u0c3e\u0c32\u0c3e\u0c28\u0c17\u0c30\u0c4d", "name:ur": "\u0628\u0627\u0644\u0627 \u0646\u06af\u0631", "network": "Hyderabad Metro", "note": "Contributors are requested to not edit the \"network\" and the \"operator\" tags. (2023/11/08)", "operator": "Hyderabad Metro Rail Limited", "public_transport": "station", "railway": "station", "station": "subway", "subway": "yes", "website": "https://hmrl.co.in", "wheelchair": "yes", "wikidata": "Q82064377"}}, {"type": "node", "id": 11738179200, "lat": 17.3981092, "lon": 78.4708176, "tags": {"internet_access": "no", "name": "Assembly", "name:fa": "\u0627\u0633\u0645\u0628\u0644\u06cc", "name:ml": "\u0d05\u0d38\u0d02\u0d2c\u0d4d\u0d32\u0d3f", "name:te": "\u0c05\u0c38\u0c46\u0c02\u0c2c\u0c4d\u0c32\u0c40", "name:ur": "\u0627\u0633\u0645\u0628\u0644\u06cc", "network": "Hyderabad Metro", "note": "Contributors are requested to not edit the \"network\" and the \"operator\" tags. (2023/11/08)", "operator": "Hyderabad Metro Rail Limited", "public_transport": "station", "railway": "station", "station": "subway", "subway": "yes", "website": "https://hmrl.co.in", "wheelchair": "yes", "wikidata": "Q83718950"}}, {"type": "node", "id": 11738663633, "lat": 17.4286312, "lon": 78.4511322, "tags": {"internet_access": "no", "name": "Panjagutta", "name:fa": "\u067e\u0646\u062c\u0627\u06af\u0648\u062a\u0627", "name:ml": "\u0d2a\u0d1e\u0d4d\u0d1a\u0d17\u0d41\u0d1f\u0d4d\u0d1f", "name:te": "\u0c2a\u0c02\u0c1c\u0c3e\u0c17\u0c41\u0c1f\u0c4d\u0c1f", "name:ur": "\u067e\u0646\u062c\u06c1 \u06af\u0679\u06c1", "network": "Hyderabad Metro", "note": "Contributors are requested to not edit the \"network\" and the \"operator\" tags. (2023/11/08)", "operator": "Hyderabad Metro Rail Limited", "public_transport": "station", "railway": "station", "station": "subway", "subway": "yes", "website": "https://hmrl.co.in", "wheelchair": "yes"}}, {"type": "node", "id": 12115364967, "lat": 17.4929657, "lon": 78.5021679, "tags": {"name": "Bhudevi Nagar", "operator": "South Central Railway", "public_transport": "station", "railway": "station"}}, {"type": "node", "id": 12115419835, "lat": 17.4888436, "lon": 78.5236929, "tags": {"name": "Ammuguda", "operator": "South Central Railway", "public_transport": "station", "railway": "station", "train": "yes"}}, {"type": "node", "id": 12115419916, "lat": 17.4781112, "lon": 78.5366716, "tags": {"name": "Neredmet", "operator": "South Central Railway", "public_transport": "station", "railway": "station"}}, {"type": "node", "id": 12115521168, "lat": 17.4648917, "lon": 78.4603057, "tags": {"name": "Ferozguda", "name:ur": "\u0641\u06cc\u0631\u0648\u0632 \u06af\u0648\u0688\u0627", "operator": "South Central Railway", "public_transport": "station", "railway": "station"}}, {"type": "node", "id": 12115521192, "lat": 17.4892259, "lon": 78.4729062, "tags": {"name": "Suchitra Centre", "operator": "South Central Railway", "public_transport": "station", "railway": "station", "ref": "SACH"}}, {"type": "node", "id": 12231561141, "lat": 17.4356998, "lon": 78.4764022, "tags": {"internet_access": "no", "name": "Sanjeevaiah Park", "name:te": "\u0c38\u0c02\u0c1c\u0c40\u0c35\u0c2f\u0c4d\u0c2f \u0c2a\u0c3e\u0c30\u0c4d\u0c15\u0c4d", "name:ur": "\u0633\u0646\u062c\u06cc\u0648\u06cc\u0627 \u067e\u0627\u0631\u06a9", "network": "Indian Railways", "operator": "South Central Railway", "platforms": "2", "public_transport": "station", "railway": "station", "ref": "SJVP", "train": "yes", "wikidata": "Q7418525", "wikipedia": "en:Sanjeevaiah Park railway station"}}, {"type": "node", "id": 12565833060, "lat": 17.3539755, "lon": 78.4728875, "tags": {"addr:postcode": "500065", "addr:street": "Hyderabad", "name": "Shah Ali Banda Metro Station", "network": "Hydeabad Metro Rail", "operator": "State Govt", "public_transport": "station", "railway": "station", "train": "yes"}}, {"type": "node", "id": 12596333395, "lat": 17.4963825, "lon": 78.3727487, "tags": {"name": "miyapur metro", "public_transport": "station", "railway": "station", "station": "subway", "subway": "yes"}}, {"type": "node", "id": 12596336335, "lat": 17.4852053, "lon": 78.4115793, "tags": {"name": "Kukatpally Metro", "public_transport": "station", "railway": "station", "station": "subway", "subway": "yes"}}, {"type": "node", "id": 12596350332, "lat": 17.4768693, "lon": 78.4219076, "tags": {"name": "Balanagar Metro", "name:ur": "\u0628\u0627\u0644\u0627 \u0646\u06af\u0631", "public_transport": "station", "railway": "station", "station": "subway", "subway": "yes"}}, {"type": "way", "id": 635386167, "nodes": [5993752585, 5993751684, 5993751683, 5993751682, 5993752585], "tags": {"building": "yes", "layer": "1", "name": "Moosarambagh", "network": "Hyderabad Metro", "note": "Contributors are requested to not edit the \"network\" and the \"operator\" tags. (2023/11/08)", "operator": "Hyderabad Metro Rail Limited", "public_transport": "stop_position", "station": "subway", "subway": "yes"}}, {"type": "way", "id": 635428041, "nodes": [5994099506, 5994099505, 5994099504, 5994099503, 5994099506], "tags": {"layer": "1", "name": "HITEC City", "network": "Hyderabad Metro", "network:wikidata": "Q646209", "public_transport": "station", "railway": "station", "source": "survey", "station": "subway", "subway": "yes"}}, {"type": "way", "id": 854204711, "nodes": [7966231614, 7966231613, 7966231612, 7966231611, 7966231614], "tags": {"building": "train_station", "layer": "1", "name": "Synchrony @ Raidurg", "network": "Hyderabad Metro", "note": "Contributors are requested to not edit the \"network\" and the \"operator\" tags. (2023/11/08)", "operator": "Hyderabad Metro Rail Limited", "station": "subway", "subway": "yes"}}]}