{"version": 0.6, "generator": "Overpass API 0.7.62.8 e802775f", "osm3s": {"timestamp_osm_base": "2026-01-20T08:54:35Z", "copyright": "The data included in this document is from www.openstreetmap.org. The data is made available under ODbL."}, "elements": [{"type": "node", "id": 308971546, "lat": 17.4473271, "lon": 78.3634745, "tags": {"bus": "yes", "highway": "bus_stop", "name": "Chhota Anjaiah Nagar", "public_transport": "platform", "shelter": "no"}}, {"type": "node", "id": 315063655, "lat": 17.4102472, "lon": 78.4865248, "tags": {"bus": "yes", "highway": "bus_stop", "name": "Domalguada Bus top", "public_transport": "platform"}}, {"type": "node", "id": 324858173, "lat": 17.4263175, "lon": 78.5313258, "tags": {"amenity": "bus_station", "bus": "yes", "highway": "bus_stop", "name": "Tarnaka Bus Stop", "public_transport": "station"}}, {"type": "node", "id": 324859710, "lat": 17.4259908, "lon": 78.5302396, "tags": {"highway": "bus_stop", "name": "TGSRTC Hospital Bus Stop"}}, {"type": "node", "id": 324859997, "lat": 17.4238103, "lon": 78.5274645, "tags": {"highway": "bus_stop", "name": "Old Dairy Farm"}}, {"type": "node", "id": 324870018, "lat": 17.4060326, "lon": 78.5169959, "tags": {"created_by": "Potlatch 0.10f", "highway": "bus_stop", "name": "NCC"}}, {"type": "node", "id": 324870393, "lat": 17.4091039, "lon": 78.5201029, "tags": {"created_by": "Potlatch 0.10f", "highway": "bus_stop", "name": "Engineering College"}}, {"type": "node", "id": 324870748, "lat": 17.4148776, "lon": 78.5250554, "tags": {"created_by": "Potlatch 0.10f", "highway": "bus_stop", "name": "Law College"}}, {"type": "node", "id": 324871124, "lat": 17.4118475, "lon": 78.5218367, "tags": {"created_by": "Potlatch 0.10f", "highway": "bus_stop", "name": "Ladies Hostel"}}, {"type": "node", "id": 324871542, "lat": 17.4203646, "lon": 78.527347, "tags": {"created_by": "Potlatch 0.10f", "highway": "bus_stop", "name": "Arts College"}}, {"type": "node", "id": 349017544, "lat": 17.4957688, "lon": 78.3948885, "tags": {"bench": "no", "bin": "yes", "bus": "yes", "highway": "bus_stop", "name": "JNTU Bus Stop toward Hitech City", "public_transport": "platform", "shelter": "no"}}, {"type": "node", "id": 349177449, "lat": 17.4430816, "lon": 78.4404626, "tags": {"created_by": "Merkaartor 0.12", "highway": "bus_stop", "shelter": "yes"}}, {"type": "node", "id": 349267769, "lat": 17.4411141, "lon": 78.3914668, "tags": {"bus": "yes", "highway": "bus_stop", "name": "Madhapur Petrol Pump", "public_transport": "platform"}}, {"type": "node", "id": 349267780, "lat": 17.440965, "lon": 78.3913097, "tags": {"bus": "yes", "highway": "bus_stop", "name": "Madhapur Petrol Pump", "public_transport": "platform"}}, {"type": "node", "id": 350456697, "lat": 17.4928865, "lon": 78.4023206, "tags": {"highway": "bus_stop"}}, {"type": "node", "id": 353027468, "lat": 17.4374277, "lon": 78.443449, "tags": {"bus": "yes", "highway": "bus_stop", "name": "S.R.Nagar Bus Stop", "operator": "A.P.S.R.T.C", "public_transport": "platform", "shelter": "yes", "wheelchair": "no"}}, {"type": "node", "id": 354662996, "lat": 17.4364999, "lon": 78.4440447, "tags": {"bus": "yes", "highway": "bus_stop", "public_transport": "platform"}}, {"type": "node", "id": 582824401, "lat": 17.4566, "lon": 78.4900888, "tags": {"highway": "bus_stop", "name": "Sikh Village"}}, {"type": "node", "id": 582824402, "lat": 17.456317, "lon": 78.4840993, "tags": {"highway": "bus_stop", "local_ref": "Tarbund", "name": "Tarbund"}}, {"type": "node", "id": 582824403, "lat": 17.4451266, "lon": 78.4871598, "tags": {"check_date:shelter": "2022-12-13", "highway": "bus_stop", "name": "Paradise", "shelter": "yes"}}, {"type": "node", "id": 582824406, "lat": 17.4677226, "lon": 78.4818498, "tags": {"highway": "bus_stop", "name": "Bapuji Nagar Stop"}}, {"type": "node", "id": 582824407, "lat": 17.4642307, "lon": 78.4844156, "tags": {"bus": "yes", "departures_board": "no", "highway": "bus_stop", "name": "Center Point", "public_transport": "platform", "shelter": "no"}}, {"type": "node", "id": 582824409, "lat": 17.4693252, "lon": 78.4948647, "tags": {"bus": "yes", "highway": "bus_stop", "name": "Wholesale Market", "public_transport": "platform", "shelter": "no"}}, {"type": "node", "id": 626897367, "lat": 17.3744556, "lon": 78.4753984, "tags": {"highway": "bus_stop"}}, {"type": "node", "id": 626897415, "lat": 17.3738598, "lon": 78.4779838, "tags": {"bench": "yes", "check_date:shelter": "2023-04-23", "highway": "bus_stop", "name": "Public Library", "shelter": "yes"}}, {"type": "node", "id": 634123581, "lat": 17.4107475, "lon": 78.5075901, "tags": {"bus": "yes", "highway": "bus_stop", "name": "Ramnagar Cross Roads Bus Stop", "public_transport": "platform"}}, {"type": "node", "id": 634123955, "lat": 17.4077286, "lon": 78.5120765, "tags": {"highway": "bus_stop", "name": "Ramnagar Gundu Bus Stop"}}, {"type": "node", "id": 655158856, "lat": 17.450675, "lon": 78.3801434, "tags": {"bus": "yes", "highway": "bus_stop", "name": "Cyber Towers", "public_transport": "platform"}}, {"type": "node", "id": 655158870, "lat": 17.4507134, "lon": 78.3821189, "tags": {"bus": "yes", "highway": "bus_stop", "name": "Cyber Towers Bus Stop", "name:te": "\u0c38\u0c48\u0c2c\u0c30\u0c4d \u0c1f\u0c35\u0c30\u0c4d\u0c38\u0c4d \u0c2c\u0c38\u0c4d\u0c38\u0c41 \u0c38\u0c4d\u0c1f\u0c3e\u0c2a\u0c4d", "public_transport": "platform"}}, {"type": "node", "id": 655158946, "lat": 17.4342977, "lon": 78.3843417, "tags": {"bench": "yes", "bin": "no", "bus": "yes", "highway": "bus_stop", "lit": "yes", "name": "V IT Park", "public_transport": "platform", "shelter": "yes", "source": "Maxar"}}, {"type": "node", "id": 655159062, "lat": 17.4340492, "lon": 78.3840991, "tags": {"bench": "yes", "bin": "no", "bus": "yes", "highway": "bus_stop", "lit": "yes", "name": "V IT Park", "public_transport": "platform", "shelter": "no", "source": "Maxar"}}, {"type": "node", "id": 655159152, "lat": 17.4414196, "lon": 78.3769845, "tags": {"bus": "yes", "highway": "bus_stop", "name": "Mindspace", "public_transport": "platform"}}, {"type": "node", "id": 660079943, "lat": 17.2537174, "lon": 78.6781899, "tags": {"highway": "bus_stop"}}, {"type": "node", "id": 660080626, "lat": 17.255066, "lon": 78.676658, "tags": {"bench": "no", "bus": "yes", "highway": "bus_stop", "public_transport": "platform", "shelter": "no", "tourist_bus": "yes"}}, {"type": "node", "id": 660087155, "lat": 17.3090415, "lon": 78.6820028, "tags": {"bus": "yes", "highway": "bus_stop", "name": "Ramoji Film City Bus Pick-Up Point", "public_transport": "platform"}}, {"type": "node", "id": 660109474, "lat": 17.3404117, "lon": 78.6259087, "tags": {"highway": "bus_stop", "name": "Kuntloor"}}, {"type": "node", "id": 660916026, "lat": 17.4318264, "lon": 78.4068998, "tags": {"bus": "yes", "highway": "bus_stop", "public_transport": "platform"}}, {"type": "node", "id": 660916027, "lat": 17.4315449, "lon": 78.4071305, "tags": {"bus": "yes", "highway": "bus_stop", "public_transport": "platform"}}, {"type": "node", "id": 660916060, "lat": 17.4235017, "lon": 78.4276065, "tags": {"bench": "yes", "bus": "yes", "highway": "bus_stop", "name": "L V Prasad", "name:te": "\u0c0e\u0c32\u0c4d \u0c35\u0c40 \u0c2a\u0c4d\u0c30\u0c38\u0c3e\u0c26\u0c4d \u0c2c\u0c38\u0c4d\u0c38\u0c41 \u0c38\u0c4d\u0c1f\u0c3e\u0c2a\u0c4d", "public_transport": "platform", "shelter": "yes"}}, {"type": "node", "id": 675646786, "lat": 17.4048294, "lon": 78.5022525, "tags": {"highway": "bus_stop", "name": "VST Bus Stop"}}, {"type": "node", "id": 675647348, "lat": 17.4073169, "lon": 78.5033717, "tags": {"highway": "bus_stop", "name": "TSRTC BUS DEPOT, MUSHEERABAD 1"}}, {"type": "node", "id": 677300443, "lat": 17.3959051, "lon": 78.4909681, "tags": {"highway": "bus_stop", "name": "YMCA Bus Stop"}}, {"type": "node", "id": 682874256, "lat": 17.4116181, "lon": 78.4824323, "tags": {"highway": "bus_stop", "name": "Indira Park", "shelter": "yes"}}, {"type": "node", "id": 703544296, "lat": 17.4244708, "lon": 78.5472919, "tags": {"highway": "bus_stop", "name": "HMT Bus stop"}}, {"type": "node", "id": 722273943, "lat": 17.4231252, "lon": 78.4546595, "tags": {"highway": "bus_stop", "name": "NIMS"}}, {"type": "node", "id": 726161087, "lat": 17.4072432, "lon": 78.4663365, "tags": {"highway": "bus_stop", "name": "Telephone Bhavan"}}, {"type": "node", "id": 726170683, "lat": 17.4034111, "lon": 78.4652115, "tags": {"bench": "yes", "bin": "no", "highway": "bus_stop", "lit": "yes", "name": "Lakdikapul Bus Stop", "shelter": "yes"}}, {"type": "node", "id": 727278310, "lat": 17.4022136, "lon": 78.4836242, "tags": {"highway": "bus_stop", "name": "Himayathnagar Bus stop", "name:te": "\u0c39\u0c3f\u0c2e\u0c3e\u0c2f\u0c24\u0c4d \u0c28\u0c17\u0c30\u0c4d \u0c2c\u0c38\u0c4d \u0c38\u0c4d\u0c1f\u0c3e\u0c2a\u0c4d"}}, {"type": "node", "id": 728331506, "lat": 17.4046345, "lon": 78.4676224, "tags": {"highway": "bus_stop", "name": "Birla Mandir", "name:te": "\u0c2c\u0c3f\u0c30\u0c4d\u0c32\u0c3e \u0c2e\u0c02\u0c26\u0c3f\u0c30\u0c4d"}}, {"type": "node", "id": 728919366, "lat": 17.39038, "lon": 78.4686267, "tags": {"highway": "bus_stop", "name": "Latha Talkies", "name:en": "Bus to Golcanda Fort"}}, {"type": "node", "id": 752496454, "lat": 17.4234932, "lon": 78.5465945, "tags": {"highway": "bus_stop", "name": "HMT"}}, {"type": "node", "id": 813570709, "lat": 17.4269784, "lon": 78.4396869, "tags": {"bus": "yes", "highway": "bus_stop", "name": "TV9 Bus Stop", "name:te": "\u0c1f\u0c40\u0c35\u0c40 9 \u0c2c\u0c38\u0c4d\u0c38\u0c41 \u0c38\u0c4d\u0c1f\u0c3e\u0c2a\u0c4d", "public_transport": "platform", "shelter": "yes"}}, {"type": "node", "id": 817353604, "lat": 17.4351205, "lon": 78.5142111, "tags": {"bus": "yes", "highway": "bus_stop", "public_transport": "platform"}}, {"type": "node", "id": 817354364, "lat": 17.4422852, "lon": 78.4584347, "tags": {"highway": "bus_stop"}}, {"type": "node", "id": 817354374, "lat": 17.4421395, "lon": 78.4585964, "tags": {"highway": "bus_stop", "name": "Begumpet"}}, {"type": "node", "id": 817354391, "lat": 17.4439888, "lon": 78.4612656, "tags": {"highway": "bus_stop"}}, {"type": "node", "id": 817354410, "lat": 17.4443551, "lon": 78.4610365, "tags": {"highway": "bus_stop"}}, {"type": "node", "id": 817354457, "lat": 17.4448332, "lon": 78.4656108, "tags": {"highway": "bus_stop", "name": "Shoppers Stop"}}, {"type": "node", "id": 817354636, "lat": 17.434104, "lon": 78.520881, "tags": {"bus": "yes", "highway": "bus_stop", "name": "\u0c2e\u0c46\u0c1f\u0c4d\u0c1f\u0c41\u0c17\u0c41\u0c21", "public_transport": "platform"}}, {"type": "node", "id": 817354660, "lat": 17.4278269, "lon": 78.5292938, "tags": {"highway": "bus_stop"}}, {"type": "node", "id": 854940934, "lat": 17.4622124, "lon": 78.4909058, "tags": {"bus": "yes", "departures_board": "no", "highway": "bus_stop", "name": "Diamond Point", "public_transport": "platform", "shelter": "no"}}, {"type": "node", "id": 854940937, "lat": 17.4624069, "lon": 78.4911418, "tags": {"bus": "yes", "departures_board": "no", "highway": "bus_stop", "name": "Diamond Point", "public_transport": "platform", "shelter": "no"}}, {"type": "node", "id": 854960917, "lat": 17.4430219, "lon": 78.4945643, "tags": {"bus": "yes", "highway": "bus_stop", "name": "Patny Bus Stop", "public_transport": "platform", "shelter": "yes"}}, {"type": "node", "id": 886347465, "lat": 17.4388713, "lon": 78.5047987, "tags": {"bus": "yes", "highway": "bus_stop", "name": "Keyes High School", "public_transport": "platform", "shelter": "yes"}}, {"type": "node", "id": 886347477, "lat": 17.4390044, "lon": 78.5048952, "tags": {"bus": "yes", "description": "Airport Shuttle Terminus", "highway": "bus_stop", "name": "Airport Liner", "public_transport": "platform"}}, {"type": "node", "id": 945061357, "lat": 17.407861, "lon": 78.4389668, "tags": {"highway": "bus_stop", "name": "Kaman"}}, {"type": "node", "id": 945064796, "lat": 17.4077258, "lon": 78.4509789, "tags": {"highway": "bus_stop", "name": "Pension Office Bus Stop"}}, {"type": "node", "id": 973261734, "lat": 17.4996016, "lon": 78.5373572, "tags": {"highway": "bus_stop"}}, {"type": "node", "id": 973261735, "lat": 17.4967059, "lon": 78.5323898, "tags": {"highway": "bus_stop", "name": "Ammuguda"}}, {"type": "node", "id": 1038396446, "lat": 17.4303516, "lon": 78.4879985, "tags": {"highway": "bus_stop", "name": "Ranigunj"}}, {"type": "node", "id": 1050861850, "lat": 17.4652813, "lon": 78.4726775, "tags": {"highway": "bus_stop"}}, {"type": "node", "id": 1142699496, "lat": 17.465169, "lon": 78.4729384, "tags": {"highway": "bus_stop", "local_ref": "Bowenpally", "name": "Bowenpally"}}, {"type": "node", "id": 1142699538, "lat": 17.463161, "lon": 78.4725389, "tags": {"highway": "bus_stop", "local_ref": "Bowenpally", "name": "Bowenpally", "shelter": "yes"}}, {"type": "node", "id": 1142735841, "lat": 17.4564424, "lon": 78.4839007, "tags": {"highway": "bus_stop", "local_ref": "Tarbund", "name": "Tarbund"}}, {"type": "node", "id": 1143062157, "lat": 17.4617293, "lon": 78.4733842, "tags": {"highway": "bus_stop", "local_ref": "Bowenpally", "name": "Bowenpally"}}, {"type": "node", "id": 1152749054, "lat": 17.3920701, "lon": 78.5164734, "tags": {"highway": "bus_stop", "name": "amberpet bus stop"}}, {"type": "node", "id": 1152749067, "lat": 17.3915758, "lon": 78.5123889, "tags": {"highway": "bus_stop", "name": "chey number stop"}}, {"type": "node", "id": 1215192975, "lat": 17.4594101, "lon": 78.3659425, "tags": {"bus": "yes", "highway": "bus_stop", "name": "Kothaguda", "public_transport": "platform"}}, {"type": "node", "id": 1215774387, "lat": 17.4641924, "lon": 78.3667766, "tags": {"bus": "yes", "highway": "bus_stop", "public_transport": "platform"}}, {"type": "node", "id": 1215782332, "lat": 17.4445422, "lon": 78.3536778, "tags": {"bus": "yes", "highway": "bus_stop", "name": "DLF Bus stop near JNIB", "public_transport": "platform"}}, {"type": "node", "id": 1224549888, "lat": 17.439503, "lon": 78.3635448, "tags": {"bench": "yes", "bin": "yes", "bus": "yes", "highway": "bus_stop", "lit": "yes", "name": "Gachibowli", "public_transport": "platform", "shelter": "yes"}}, {"type": "node", "id": 1224549897, "lat": 17.441046, "lon": 78.3603475, "tags": {"bus": "yes", "highway": "bus_stop", "name": "Indra Nagar", "public_transport": "platform"}}, {"type": "node", "id": 1242172638, "lat": 17.457719, "lon": 78.3716207, "tags": {"bus": "yes", "highway": "bus_stop", "public_transport": "platform"}}, {"type": "node", "id": 1271924369, "lat": 17.395501, "lon": 78.5024402, "tags": {"highway": "bus_stop", "name": "Fever Hospital"}}, {"type": "node", "id": 1306268401, "lat": 17.4846693, "lon": 78.4972634, "tags": {"highway": "bus_stop", "name": "Kanajiguda Bus Stop"}}, {"type": "node", "id": 1306272825, "lat": 17.4814108, "lon": 78.5023248, "tags": {"highway": "bus_stop", "name": "Teachers Colony"}}, {"type": "node", "id": 1306278399, "lat": 17.4785608, "lon": 78.5110259, "tags": {"addr:street": "Lal Bazar", "highway": "bus_stop", "name": "Lal Bazar"}}, {"type": "node", "id": 1306278403, "lat": 17.4791338, "lon": 78.5107791, "tags": {"addr:street": "Lal Bazar", "highway": "bus_stop", "name": "Lal Bazar"}}, {"type": "node", "id": 1306282907, "lat": 17.4903783, "lon": 78.5377761, "tags": {"highway": "bus_stop", "name": "Nirmal Nagar"}}, {"type": "node", "id": 1333764623, "lat": 17.4451251, "lon": 78.4655312, "tags": {"highway": "bus_stop", "name": "Shoppers Stop"}}, {"type": "node", "id": 1365115101, "lat": 17.4390017, "lon": 78.3970577, "tags": {"bus": "yes", "highway": "bus_stop", "local_ref": "Kavuri Hills", "public_transport": "platform"}}, {"type": "node", "id": 1435328905, "lat": 17.4498327, "lon": 78.5366468, "tags": {"highway": "bus_stop", "name": "Malkajgiri Bus Stop"}}, {"type": "node", "id": 1435328907, "lat": 17.4608934, "lon": 78.5354081, "tags": {"direction": "N", "highway": "bus_stop", "local_ref": "16A, 16C, 16A/K, 16N, 16A/49M, 16A/10F", "name": "Safilguda Bus Stop", "public_transport": "platform"}}, {"type": "node", "id": 1437395352, "lat": 17.4553192, "lon": 78.5298879, "tags": {"highway": "bus_stop", "local_ref": "38EX, 38X, 38S", "name": "SubStation"}}, {"type": "node", "id": 1437395354, "lat": 17.4623094, "lon": 78.532613, "tags": {"highway": "bus_stop", "local_ref": "38EX, 38X, 38S, 38s/47V, 38A", "name": "Safil Guda"}}, {"type": "node", "id": 1437395362, "lat": 17.4598326, "lon": 78.5315831, "tags": {"highway": "bus_stop", "local_ref": "38EX, 38X, 38S", "name": "Uttam Nagar"}}, {"type": "node", "id": 1437395364, "lat": 17.4577857, "lon": 78.5308213, "tags": {"highway": "bus_stop", "local_ref": "38EX, 38X, 38S, 38s/47V", "name": "Dayananda Nagar"}}, {"type": "node", "id": 1437398682, "lat": 17.4587554, "lon": 78.5366052, "tags": {"highway": "bus_stop", "local_ref": "16A, 16C, 16A/K, 16N, 16A/49M, 16A/10F", "name": "Anandh Bagh"}}, {"type": "node", "id": 1437398683, "lat": 17.446169, "lon": 78.5265298, "tags": {"highway": "bus_stop", "local_ref": "38EX, 38X, 38S, 38s/47V", "name": "Hanumanpet"}}, {"type": "node", "id": 1437398685, "lat": 17.4431803, "lon": 78.5247917, "tags": {"highway": "bus_stop", "local_ref": "38EX, 38X, 38S, 38s/47V", "name": "Jyothi Nagar"}}, {"type": "node", "id": 1437398687, "lat": 17.4593619, "lon": 78.5360999, "tags": {"highway": "bus_stop", "local_ref": "16A, 16C, 16A/K, 16N, 16A/49M, 16A/10F", "name": "Anandh Bagh"}}, {"type": "node", "id": 1437398688, "lat": 17.4495057, "lon": 78.5274203, "tags": {"highway": "bus_stop", "local_ref": "38EX, 38X, 38S, 38s/47V", "name": "Mallikarjuna Nagar"}}, {"type": "node", "id": 1437398690, "lat": 17.4410718, "lon": 78.5222061, "tags": {"highway": "bus_stop", "local_ref": "38EX, 38X, 38S, 38s/47V, 38T", "name": "Tukaram Gate"}}, {"type": "node", "id": 1474078027, "lat": 17.4715398, "lon": 78.5391654, "tags": {"highway": "bus_stop", "local_ref": "All 16 no", "name": "Muudu Gudulu"}}, {"type": "node", "id": 1474078030, "lat": 17.4738936, "lon": 78.5386343, "tags": {"direction": "SW", "highway": "bus_stop", "local_ref": "Old PS", "name": "Neredmet Old PS", "public_transport": "platform", "source": "All 16 number buses"}}, {"type": "node", "id": 1474078036, "lat": 17.469273, "lon": 78.5391171, "tags": {"highway": "bus_stop", "local_ref": "All 16 numbers", "name": "Vinayak Nagar"}}, {"type": "node", "id": 1474078396, "lat": 17.46521, "lon": 78.5385377, "tags": {"highway": "bus_stop", "local_ref": "All 16 no buses", "name": "Krupa Complex"}}, {"type": "node", "id": 1499692385, "lat": 17.4141424, "lon": 78.423745, "tags": {"bench": "yes", "bin": "yes", "highway": "bus_stop", "lit": "yes", "name": "VLCC Bus Stop", "shelter": "yes"}}, {"type": "node", "id": 1594518972, "lat": 17.3754928, "lon": 78.5579136, "tags": {"highway": "bus_stop", "local_ref": "Nagole", "name": "Nagole X Road", "name_1": "Nagole Cross Road", "operator": "APSRTC Hyderabad", "shelter": "no"}}, {"type": "node", "id": 1598136849, "lat": 17.3685468, "lon": 78.5329092, "tags": {"bus": "yes", "highway": "bus_stop", "name": "Chaitanyapuri Bus Stop", "public_transport": "platform", "shelter": "yes"}}, {"type": "node", "id": 1660253705, "lat": 17.4721238, "lon": 78.484531, "tags": {"highway": "bus_stop", "local_ref": "Dubai gate, Bowenpally", "name": "Dubai Gate"}}, {"type": "node", "id": 1660257578, "lat": 17.4691107, "lon": 78.4834527, "tags": {"highway": "bus_stop", "local_ref": "Mahatma Nagar, Bowenpally", "name": "Mahatma Nagar"}}, {"type": "node", "id": 1699091338, "lat": 17.4413689, "lon": 78.3627758, "tags": {"bus": "yes", "highway": "bus_stop", "name": "Rajiv Gandhi Nagar", "public_transport": "platform"}}, {"type": "node", "id": 1705434070, "lat": 17.539847, "lon": 78.3862085, "tags": {"bus": "yes", "highway": "bus_stop", "name": "VNRVJIET Student Bus-Stop", "public_transport": "platform"}}, {"type": "node", "id": 1720122633, "lat": 17.4409616, "lon": 78.360012, "tags": {"bus": "yes", "highway": "bus_stop", "name": "Indra Nagar", "public_transport": "platform"}}, {"type": "node", "id": 1725150606, "lat": 17.3897353, "lon": 78.4986692, "tags": {"highway": "bus_stop", "name": "Kacheguda Railway Station Bus Stop"}}, {"type": "node", "id": 1779029051, "lat": 17.4070738, "lon": 78.4606872, "tags": {"highway": "bus_stop", "name": "Chintal Basti"}}, {"type": "node", "id": 1779502577, "lat": 17.4428937, "lon": 78.5039242, "tags": {"bench": "yes", "bus": "yes", "highway": "bus_stop", "public_transport": "platform", "shelter": "yes"}}, {"type": "node", "id": 1779552114, "lat": 17.4366218, "lon": 78.5195776, "tags": {"bus": "yes", "highway": "bus_stop", "public_transport": "platform"}}, {"type": "node", "id": 1802668812, "lat": 17.4472459, "lon": 78.3778986, "tags": {"bus": "yes", "highway": "bus_stop", "local_ref": "Cyber Gateway", "name": "Cyber Gateway", "public_transport": "platform", "shelter": "yes"}}, {"type": "node", "id": 1883412881, "lat": 17.4272928, "lon": 78.4450291, "tags": {"bench": "yes", "highway": "bus_stop", "name": "Nagarjuna Circle Bus Stop", "name:te": "\u0c28\u0c3e\u0c17\u0c3e\u0c30\u0c4d\u0c1c\u0c41\u0c28 \u0c38\u0c30\u0c4d\u0c15\u0c3f\u0c32\u0c4d \u0c2c\u0c38\u0c4d\u0c38\u0c41 \u0c38\u0c4d\u0c1f\u0c3e\u0c2a\u0c4d", "shelter": "yes"}}, {"type": "node", "id": 1883412973, "lat": 17.4301846, "lon": 78.442438, "tags": {"highway": "bus_stop", "name": "Sri Nagar Colony Bus Stop"}}, {"type": "node", "id": 1883488178, "lat": 17.4258368, "lon": 78.4359253, "tags": {"bus": "yes", "highway": "bus_stop", "name": "Banjara Hills Road No.2 Lumbini Mall", "public_transport": "platform", "shelter": "yes"}}, {"type": "node", "id": 1936294248, "lat": 17.483695, "lon": 78.3165842, "tags": {"bus": "yes", "highway": "bus_stop", "name": "Lingampalli Railway Station", "public_transport": "platform"}}, {"type": "node", "id": 1967910698, "lat": 17.4385641, "lon": 78.3643036, "tags": {"bench": "yes", "bin": "yes", "bus": "yes", "highway": "bus_stop", "lit": "yes", "name": "Gachibowli", "public_transport": "platform", "shelter": "yes"}}, {"type": "node", "id": 1967910702, "lat": 17.439004, "lon": 78.3629707, "tags": {"bench": "yes", "bin": "no", "bus": "yes", "highway": "bus_stop", "lit": "yes", "name": "Gachibowli", "public_transport": "platform", "shelter": "yes"}}, {"type": "node", "id": 1985561809, "lat": 17.4382485, "lon": 78.3580736, "tags": {"bench": "yes", "bus": "yes", "highway": "bus_stop", "name": "GPRA Quarters Enterance", "public_transport": "platform", "shelter": "yes"}}, {"type": "node", "id": 2003244260, "lat": 17.4035699, "lon": 78.495308, "tags": {"highway": "bus_stop", "name": "Chikkadpally"}}, {"type": "node", "id": 2003244265, "lat": 17.4020317, "lon": 78.4951256, "tags": {"highway": "bus_stop", "name": "Chikkadpally"}}, {"type": "node", "id": 2134524343, "lat": 17.4569355, "lon": 78.4948998, "tags": {"highway": "bus_stop", "name": "Mudfort"}}, {"type": "node", "id": 2134524647, "lat": 17.4641985, "lon": 78.4843442, "tags": {"bus": "yes", "departures_board": "no", "highway": "bus_stop", "name": "Center Point", "public_transport": "platform", "shelter": "no"}}, {"type": "node", "id": 2166591605, "lat": 17.3959377, "lon": 78.4270188, "tags": {"alt_name": "Rethibowli", "highway": "bus_stop", "name": "Nanalnagar"}}, {"type": "node", "id": 2166591609, "lat": 17.3960184, "lon": 78.4307445, "tags": {"bus": "yes", "highway": "bus_stop", "name": "Rethibowli", "public_transport": "platform"}}, {"type": "node", "id": 2166591611, "lat": 17.4684811, "lon": 78.3311457, "tags": {"bus": "yes", "highway": "bus_stop", "name": "HCU Bus Depot", "operator": "TSRTC", "public_transport": "platform"}}, {"type": "node", "id": 2166591614, "lat": 17.4494087, "lon": 78.3484676, "tags": {"bus": "yes", "highway": "bus_stop", "name": "Gachibowli Stadium", "public_transport": "platform"}}, {"type": "node", "id": 2166591615, "lat": 17.4281236, "lon": 78.3753876, "tags": {"alt_name": "HITEX Cross Roads", "bus": "yes", "highway": "bus_stop", "name": "Roda Mistry College", "public_transport": "platform"}}, {"type": "node", "id": 2166591616, "lat": 17.4099224, "lon": 78.3985713, "tags": {"bus": "yes", "highway": "bus_stop", "name": "Narayanamma College", "public_transport": "platform"}}, {"type": "node", "id": 2166591618, "lat": 17.4132032, "lon": 78.3945807, "tags": {"alt_name": "Dargah", "highway": "bus_stop", "name": "Shaikpet Dargah"}}, {"type": "node", "id": 2166591621, "lat": 17.4944937, "lon": 78.3159192, "tags": {"bus": "yes", "highway": "bus_stop", "name": "Lingampally", "public_transport": "platform"}}, {"type": "node", "id": 2166591623, "lat": 17.3986352, "lon": 78.4168535, "tags": {"bus": "yes", "highway": "bus_stop", "name": "Tolichowki", "public_transport": "platform"}}, {"type": "node", "id": 2166591626, "lat": 17.4062572, "lon": 78.4031042, "tags": {"highway": "bus_stop", "name": "Sheikpet Nala"}}, {"type": "node", "id": 2166591629, "lat": 17.468348, "lon": 78.3309525, "tags": {"bus": "yes", "highway": "bus_stop", "name": "HCU Bus Depot", "operator": "TSRTC", "public_transport": "platform"}}, {"type": "node", "id": 2166591632, "lat": 17.4788198, "lon": 78.3199881, "tags": {"bus": "yes", "highway": "bus_stop", "name": "Gulmohar Park Colony", "public_transport": "platform"}}, {"type": "node", "id": 2166591638, "lat": 17.422995, "lon": 78.3812764, "tags": {"alt_name": "Dhaba", "bus": "yes", "highway": "bus_stop", "name": "Khajaguda X Roads", "public_transport": "platform"}}, {"type": "node", "id": 2166591647, "lat": 17.3969305, "lon": 78.4223255, "tags": {"highway": "bus_stop", "name": "Salarjung Colony"}}, {"type": "node", "id": 2166591650, "lat": 17.4350994, "lon": 78.3680692, "tags": {"bus": "yes", "fixme": "yes", "highway": "bus_stop", "name": "Telecom Nagar", "public_transport": "platform"}}, {"type": "node", "id": 2166591655, "lat": 17.4766959, "lon": 78.3247758, "tags": {"bench": "yes", "bus": "yes", "highway": "bus_stop", "name": "Alind / Doyens Colony", "public_transport": "platform", "shelter": "yes"}}, {"type": "node", "id": 2166591660, "lat": 17.4028251, "lon": 78.4100567, "tags": {"highway": "bus_stop", "name": "Galaxy"}}, {"type": "node", "id": 2166591663, "lat": 17.3989449, "lon": 78.4154157, "tags": {"bus": "yes", "highway": "bus_stop", "name": "Tolichowki", "public_transport": "platform"}}, {"type": "node", "id": 2166591666, "lat": 17.4617157, "lon": 78.3359951, "tags": {"bus": "yes", "highway": "bus_stop", "name": "HCU", "public_transport": "platform"}}, {"type": "node", "id": 2166591667, "lat": 17.3957045, "lon": 78.4308438, "tags": {"highway": "bus_stop", "name": "Rethibowli"}}, {"type": "node", "id": 2166591669, "lat": 17.4034981, "lon": 78.4092359, "tags": {"bus": "yes", "highway": "bus_stop", "name": "Galaxy", "public_transport": "platform"}}, {"type": "node", "id": 2166591671, "lat": 17.4766062, "lon": 78.3246229, "tags": {"bus": "yes", "highway": "bus_stop", "name": "Alind / Doyens Colony", "public_transport": "platform"}}, {"type": "node", "id": 2166591673, "lat": 17.4944145, "lon": 78.315769, "tags": {"bus": "yes", "highway": "bus_stop", "name": "Lingampally", "public_transport": "platform"}}, {"type": "node", "id": 2166591674, "lat": 17.4062472, "lon": 78.4035656, "tags": {"bus": "yes", "highway": "bus_stop", "name": "Sheikpet Nala", "public_transport": "platform"}}, {"type": "node", "id": 2166591675, "lat": 17.3966902, "lon": 78.422105, "tags": {"highway": "bus_stop", "name": "Salarjung Colony"}}, {"type": "node", "id": 2166591677, "lat": 17.4279875, "lon": 78.3751237, "tags": {"alt_name": "HITEX Cross Roads", "bus": "yes", "highway": "bus_stop", "name": "Roda Mistry College", "public_transport": "platform"}}, {"type": "node", "id": 2166591685, "lat": 17.3962507, "lon": 78.4270607, "tags": {"alt_name": "Rethibowli", "bus": "yes", "highway": "bus_stop", "name": "Nanalnagar", "public_transport": "platform"}}, {"type": "node", "id": 2166591688, "lat": 17.4098968, "lon": 78.3982655, "tags": {"highway": "bus_stop", "name": "Narayanamma College"}}, {"type": "node", "id": 2166591691, "lat": 17.4836188, "lon": 78.3168445, "tags": {"bus": "yes", "highway": "bus_stop", "name": "Lingampalli Railway Station", "public_transport": "platform"}}, {"type": "node", "id": 2166591695, "lat": 17.4779069, "lon": 78.3199747, "tags": {"bus": "yes", "highway": "bus_stop", "name": "Gulmohar Park Colony", "public_transport": "platform"}}, {"type": "node", "id": 2166591698, "lat": 17.4623917, "lon": 78.3351475, "tags": {"bus": "yes", "highway": "bus_stop", "name": "HCU", "public_transport": "platform"}}, {"type": "node", "id": 2166860253, "lat": 17.4351458, "lon": 78.367504, "tags": {"addr:street": "Telecom nagar", "bus": "yes", "description": "Bus stop, Airport (Pushpak) bus stop", "fixme": "yes", "highway": "bus_stop", "name": "Telecom Nagar", "phone": "7382925897", "public_transport": "platform"}}, {"type": "node", "id": 2166860255, "lat": 17.4567518, "lon": 78.3399872, "tags": {"bus": "yes", "fixme": "yes", "highway": "bus_stop", "name": "HCU Small Gate", "public_transport": "platform"}}, {"type": "node", "id": 2166860256, "lat": 17.3947601, "lon": 78.437989, "tags": {"highway": "bus_stop", "name": "Mehdipatnam"}}, {"type": "node", "id": 2166860257, "lat": 17.4569204, "lon": 78.3395849, "tags": {"fixme": "yes", "highway": "bus_stop", "name": "HCU Small Gate"}}, {"type": "node", "id": 2166860258, "lat": 17.4499788, "lon": 78.3471358, "tags": {"bus": "yes", "highway": "bus_stop", "name": "Gachibowli Stadium", "public_transport": "platform"}}, {"type": "node", "id": 2170579980, "lat": 17.4325045, "lon": 78.3701881, "tags": {"bus": "yes", "highway": "bus_stop", "name": "Cyberabad Police Commissionerate", "public_transport": "platform"}}, {"type": "node", "id": 2170766680, "lat": 17.4319465, "lon": 78.3714355, "tags": {"bus": "yes", "highway": "bus_stop", "name": "Cyberabad Police Commissionerate", "public_transport": "platform"}}, {"type": "node", "id": 2174747672, "lat": 17.3978696, "lon": 78.4434153, "tags": {"highway": "bus_stop", "name": "Sarojini Devi Eye Hospital"}}, {"type": "node", "id": 2174747675, "lat": 17.3987911, "lon": 78.4448449, "tags": {"highway": "bus_stop", "name": "Sarojini Devi Eye Hospital"}}, {"type": "node", "id": 2174747679, "lat": 17.3956739, "lon": 78.4412338, "tags": {"highway": "bus_stop", "name": "Mehdipatnam"}}, {"type": "node", "id": 2174747680, "lat": 17.3946168, "lon": 78.4392847, "tags": {"highway": "bus_stop", "name": "Mehdipatnam"}}, {"type": "node", "id": 2177311051, "lat": 17.40478, "lon": 78.4610966, "tags": {"highway": "bus_stop", "name": "Lakdi-ka-pool"}}, {"type": "node", "id": 2181369994, "lat": 17.3773493, "lon": 78.4939991, "tags": {"highway": "bus_stop", "name": "Chaderghat"}}, {"type": "node", "id": 2181370040, "lat": 17.3772086, "lon": 78.4924782, "tags": {"highway": "bus_stop", "name": "Chaderghat"}}, {"type": "node", "id": 2183029318, "lat": 17.3696562, "lon": 78.516472, "tags": {"alt_name": "TV Tower", "bus": "yes", "highway": "bus_stop", "name": "Moosarambagh", "public_transport": "platform"}}, {"type": "node", "id": 2183029321, "lat": 17.3729311, "lon": 78.5055031, "tags": {"bus": "yes", "highway": "bus_stop", "name": "Chermas", "public_transport": "platform"}}, {"type": "node", "id": 2183029322, "lat": 17.3687814, "lon": 78.5240908, "tags": {"bus": "yes", "highway": "bus_stop", "name": "Dilsukhnagar", "public_transport": "platform"}}, {"type": "node", "id": 2183029324, "lat": 17.3486646, "lon": 78.5490541, "tags": {"bus": "yes", "highway": "bus_stop", "name": "LB Nagar City Bus Stop", "public_transport": "platform"}}, {"type": "node", "id": 2183029325, "lat": 17.3684307, "lon": 78.5234283, "tags": {"bus": "yes", "highway": "bus_stop", "name": "Dilsukhnagar", "public_transport": "platform"}}, {"type": "node", "id": 2183029326, "lat": 17.3753647, "lon": 78.4985746, "tags": {"bus": "yes", "highway": "bus_stop", "name": "Nalgonda X Roads", "public_transport": "platform"}}, {"type": "node", "id": 2183029331, "lat": 17.3462745, "lon": 78.5516485, "tags": {"highway": "bus_stop", "name": "LB Nagar Bus Stop"}}, {"type": "node", "id": 2183029333, "lat": 17.3682899, "lon": 78.5302921, "tags": {"bus": "yes", "fixme": "name", "highway": "bus_stop", "name": "Chaitanyapuri", "operator": "APSRTC Hyderabad", "public_transport": "platform", "shelter": "yes"}}, {"type": "node", "id": 2183029334, "lat": 17.3687195, "lon": 78.5371176, "tags": {"bus": "yes", "fixme": "name", "highway": "bus_stop", "name": "Fruit Market Bus Stop", "public_transport": "platform", "shelter": "yes"}}, {"type": "node", "id": 2183029335, "lat": 17.3743569, "lon": 78.5032335, "tags": {"alt_name": "Chermas", "bus": "yes", "highway": "bus_stop", "name": "Malakpet Market", "public_transport": "platform"}}, {"type": "node", "id": 2183029336, "lat": 17.3740315, "lon": 78.499935, "tags": {"bus": "yes", "fixme": "name", "highway": "bus_stop", "name": "Malakpet Bus Stop", "public_transport": "platform", "shelter": "no"}}, {"type": "node", "id": 2183029337, "lat": 17.3684129, "lon": 78.5245602, "tags": {"bus": "yes", "highway": "bus_stop", "name": "Dilsukhnagar", "public_transport": "platform"}}, {"type": "node", "id": 2183029338, "lat": 17.3458535, "lon": 78.5521977, "tags": {"highway": "bus_stop", "name": "LB Nagar"}}, {"type": "node", "id": 2183029341, "lat": 17.3700425, "lon": 78.5139933, "tags": {"bus": "yes", "fixme": "name", "highway": "bus_stop", "public_transport": "platform"}}, {"type": "node", "id": 2185000162, "lat": 17.3384414, "lon": 78.5687124, "tags": {"alt_name": "Vanasthalipuram", "bus": "yes", "highway": "bus_stop", "name": "Panama", "public_transport": "platform"}}, {"type": "node", "id": 2185000163, "lat": 17.3379617, "lon": 78.5690846, "tags": {"bus": "yes", "highway": "bus_stop", "name": "Panama", "public_transport": "platform"}}, {"type": "node", "id": 2185005230, "lat": 17.3772034, "lon": 78.4865157, "tags": {"bus": "yes", "highway": "bus_stop", "name": "Imlibun", "name:te": "\u0c07\u0c2e\u0c4d\u0c32\u0c3f\u0c2c\u0c28\u0c4d", "public_transport": "platform"}}, {"type": "node", "id": 2185005241, "lat": 17.3766708, "lon": 78.4862341, "tags": {"bus": "yes", "highway": "bus_stop", "name": "Imlibun", "name:te": "\u0c07\u0c2e\u0c4d\u0c32\u0c3f\u0c2c\u0c28\u0c4d", "public_transport": "platform"}}, {"type": "node", "id": 2185045487, "lat": 17.3784864, "lon": 78.4817136, "tags": {"bus": "yes", "highway": "bus_stop", "name": "TSRTC CBS BUS STAND", "public_transport": "platform"}}, {"type": "node", "id": 2185045507, "lat": 17.3779509, "lon": 78.4813912, "tags": {"bus": "yes", "highway": "bus_stop", "name": "TSRTC CBS BUS STAND", "public_transport": "platform"}}, {"type": "node", "id": 2192962547, "lat": 17.3954587, "lon": 78.4705909, "tags": {"highway": "bus_stop", "name": "Nampally"}}, {"type": "node", "id": 2192962558, "lat": 17.3968067, "lon": 78.4708596, "tags": {"amenity": "toilets", "highway": "bus_stop", "name": "Public Gardens"}}, {"type": "node", "id": 2192962566, "lat": 17.400341, "lon": 78.469852, "tags": {"bench": "yes", "highway": "bus_stop", "shelter": "yes"}}, {"type": "node", "id": 2192962626, "lat": 17.4058277, "lon": 78.4674199, "tags": {"highway": "bus_stop", "name": "RBI", "name:te": "\u0c06\u0c30\u0c4d \u0c2c\u0c40 \u0c10"}}, {"type": "node", "id": 2192962685, "lat": 17.4127086, "lon": 78.4712086, "tags": {"highway": "bus_stop"}}, {"type": "node", "id": 2197048423, "lat": 17.3850259, "lon": 78.4884201, "tags": {"highway": "bus_stop", "name": "Koti Women's College", "name:te": "\u0c15\u0c4b\u0c1f\u0c3f \u0c09\u0c2e\u0c46\u0c28\u0c4d\u0c38\u0c4d \u0c15\u0c3e\u0c32\u0c47\u0c1c\u0c4d"}}, {"type": "node", "id": 2199466758, "lat": 17.3982153, "lon": 78.4437748, "tags": {"highway": "bus_stop", "name": "Sarojini Devi Eye Hospital"}}, {"type": "node", "id": 2199466759, "lat": 17.4032751, "lon": 78.4564939, "tags": {"highway": "bus_stop", "name": "Masab Tank JNTU"}}, {"type": "node", "id": 2199476224, "lat": 17.398973, "lon": 78.4495254, "tags": {"highway": "bus_stop", "name": "NMDC"}}, {"type": "node", "id": 2199476226, "lat": 17.3855251, "lon": 78.4816314, "tags": {"highway": "bus_stop", "name": "Bank Street", "name:te": "\u0c2c\u0c3e\u0c02\u0c15\u0c4d \u0c38\u0c4d\u0c1f\u0c4d\u0c30\u0c40\u0c1f\u0c4d"}}, {"type": "node", "id": 2199476229, "lat": 17.4019366, "lon": 78.4691377, "tags": {"highway": "bus_stop", "name": "All India Radio", "name:te": "\u0c06\u0c32\u0c4d \u0c07\u0c02\u0c21\u0c3f\u0c2f\u0c3e \u0c30\u0c47\u0c21\u0c3f\u0c2f\u0c4b"}}, {"type": "node", "id": 2199508157, "lat": 17.3724345, "lon": 78.5092099, "tags": {"alt_name": "Malakpet Super Bazaar", "bus": "yes", "highway": "bus_stop", "name": "Super Bazaar", "public_transport": "platform"}}, {"type": "node", "id": 2199508159, "lat": 17.3628066, "lon": 78.5438533, "tags": {"alt_name": "Asta Lakshmi", "highway": "bus_stop", "name": "Dwaraka Nagar"}}, {"type": "node", "id": 2199508160, "lat": 17.33679, "lon": 78.5741408, "tags": {"alt_name": "Sushma", "bus": "yes", "highway": "bus_stop", "name": "Vanasthalipuram", "public_transport": "platform"}}, {"type": "node", "id": 2199508162, "lat": 17.3327985, "lon": 78.5895099, "tags": {"bus": "yes", "highway": "bus_stop", "name": "Bhagyalatha", "public_transport": "platform"}}, {"type": "node", "id": 2199508163, "lat": 17.3301662, "lon": 78.5941849, "tags": {"bus": "yes", "highway": "bus_stop", "name": "Hayathnagar Bus Depot", "public_transport": "platform"}}, {"type": "node", "id": 2199508164, "lat": 17.3283254, "lon": 78.5995869, "tags": {"highway": "bus_stop", "name": "RTC Colony"}}, {"type": "node", "id": 2199508169, "lat": 17.3408353, "lon": 78.5625858, "tags": {"highway": "bus_stop", "name": "Chintalkunta"}}, {"type": "node", "id": 2199508171, "lat": 17.3548831, "lon": 78.5458945, "tags": {"highway": "bus_stop", "name": "NTR Nagar Bus Stop", "shelter": "yes"}}, {"type": "node", "id": 2199524801, "lat": 17.3425656, "lon": 78.5564492, "tags": {"highway": "bus_stop", "name": "Check Post"}}, {"type": "node", "id": 2199524802, "lat": 17.3365928, "lon": 78.5736125, "tags": {"alt_name": "Sushma", "bus": "yes", "highway": "bus_stop", "name": "Vanasthalipuram", "public_transport": "platform"}}, {"type": "node", "id": 2199524804, "lat": 17.3627858, "lon": 78.5435264, "tags": {"alt_name": "Asta Lakshmi", "highway": "bus_stop", "name": "Dwaraka Nagar"}}, {"type": "node", "id": 2199524806, "lat": 17.3348161, "lon": 78.5847838, "tags": {"bus": "yes", "highway": "bus_stop", "name": "High Court Colony", "public_transport": "platform"}}, {"type": "node", "id": 2210776943, "lat": 17.4584484, "lon": 78.3673638, "tags": {"bus": "yes", "highway": "bus_stop", "public_transport": "platform", "shelter": "yes"}}, {"type": "node", "id": 2211345663, "lat": 17.489631, "lon": 78.3193388, "tags": {"bus": "yes", "highway": "bus_stop", "name": "Taranagar", "public_transport": "platform"}}, {"type": "node", "id": 2211345681, "lat": 17.4895282, "lon": 78.3193095, "tags": {"bus": "yes", "highway": "bus_stop", "name": "Taranagar", "public_transport": "platform"}}, {"type": "node", "id": 2212520219, "lat": 17.4241182, "lon": 78.5019947, "tags": {"highway": "bus_stop", "name": "Gandhi Hospital"}}, {"type": "node", "id": 2217940686, "lat": 17.3976544, "lon": 78.4753629, "tags": {"bench": "yes", "bin": "yes", "highway": "bus_stop", "name": "Nizam College", "shelter": "yes"}}, {"type": "node", "id": 2217940689, "lat": 17.3930165, "lon": 78.4763954, "tags": {"bench": "yes", "bin": "yes", "highway": "bus_stop", "name": "Abids Grammar School", "shelter": "yes"}}, {"type": "node", "id": 2217950117, "lat": 17.3307424, "lon": 78.6076925, "tags": {"highway": "bus_stop"}}, {"type": "node", "id": 2217950118, "lat": 17.3331355, "lon": 78.6114941, "tags": {"highway": "bus_stop"}}, {"type": "node", "id": 2217950126, "lat": 17.3361288, "lon": 78.6143188, "tags": {"highway": "bus_stop", "name": "Mother Dairy"}}, {"type": "node", "id": 2217950176, "lat": 17.3430236, "lon": 78.5563699, "tags": {"highway": "bus_stop", "name": "Check Post"}}, {"type": "node", "id": 2217950184, "lat": 17.336273, "lon": 78.5787408, "tags": {"bus": "yes", "highway": "bus_stop", "public_transport": "platform"}}, {"type": "node", "id": 2217960497, "lat": 17.3684433, "lon": 78.5228597, "tags": {"bus": "yes", "highway": "bus_stop", "name": "Dilsukhnagar", "public_transport": "platform"}}, {"type": "node", "id": 2217960505, "lat": 17.3500083, "lon": 78.5475524, "tags": {"highway": "bus_stop", "name": "LB Nagar"}}, {"type": "node", "id": 2217960511, "lat": 17.355619, "lon": 78.5452928, "tags": {"highway": "bus_stop", "name": "Doctors Colony Bus Stop", "shelter": "no"}}, {"type": "node", "id": 2217960523, "lat": 17.3327498, "lon": 78.5890542, "tags": {"bus": "yes", "highway": "bus_stop", "name": "Bhagyalatha", "public_transport": "platform"}}, {"type": "node", "id": 2217968813, "lat": 17.4028042, "lon": 78.4594873, "tags": {"highway": "bus_stop", "name": "A.C. Guards"}}, {"type": "node", "id": 2217968814, "lat": 17.3987603, "lon": 78.4494264, "tags": {"highway": "bus_stop", "name": "NMDC"}}, {"type": "node", "id": 2280843044, "lat": 17.4410694, "lon": 78.4924461, "tags": {"bus": "yes", "fixme": "name", "highway": "bus_stop", "public_transport": "platform"}}, {"type": "node", "id": 2280843045, "lat": 17.4414634, "lon": 78.4877909, "tags": {"bus": "yes", "highway": "bus_stop", "name": "Paradise", "name:te": "\u0c2a\u0c3e\u0c30\u0c21\u0c48\u0c1c\u0c4d", "public_transport": "platform"}}, {"type": "node", "id": 2346905503, "lat": 17.3595939, "lon": 78.3876922, "tags": {"highway": "bus_stop", "name": "Bandlaguda"}}, {"type": "node", "id": 2346908504, "lat": 17.3570645, "lon": 78.2999547, "tags": {"highway": "bus_stop", "name": "Chilkur Balaji Temple"}}, {"type": "node", "id": 2403829370, "lat": 17.4317624, "lon": 78.4475007, "tags": {"highway": "bus_stop", "shelter": "yes"}}, {"type": "node", "id": 2412780245, "lat": 17.3714708, "lon": 78.5694911, "tags": {"bus": "yes", "highway": "bus_stop", "name": "Bandlaguda", "operator": "APSRTC", "public_transport": "platform", "shelter": "no"}}, {"type": "node", "id": 2412783668, "lat": 17.3765096, "lon": 78.5589077, "tags": {"highway": "bus_stop", "local_ref": "Nagole", "name": "Nagole to Bandlaguda", "operator": "APSRTC Hyderabad", "shelter": "no"}}, {"type": "node", "id": 2412783670, "lat": 17.3762526, "lon": 78.557441, "tags": {"highway": "bus_stop", "local_ref": "Nagole", "name": "Nagole to Kothapet", "operator": "APSRTC Hyderabad", "shelter": "no"}}, {"type": "node", "id": 2412783672, "lat": 17.3774867, "lon": 78.5577208, "tags": {"highway": "bus_stop", "local_ref": "Nagole", "name": "Nagole X Road", "name_1": "Nagole Cross Road", "operator": "APSRTC Hyderabad", "shelter": "no"}}, {"type": "node", "id": 2428122866, "lat": 17.496407, "lon": 78.3944344, "tags": {"highway": "bus_stop", "name": "JNTU Bus Stop", "shelter": "no"}}, {"type": "node", "id": 2429965407, "lat": 17.3831041, "lon": 78.4828127, "tags": {"highway": "bus_stop", "name": "Medical College Bus Stop", "shelter": "yes"}}, {"type": "node", "id": 2430216676, "lat": 17.3651918, "lon": 78.5568927, "tags": {"highway": "bus_stop", "name": "Alkapuri Bus Stop", "name:te": "\u0c05\u0c32\u0c4d\u0c15\u0c3e\u0c2a\u0c42\u0c30\u0c3f \u0c2c\u0c38\u0c4d \u0c38\u0c4d\u0c1f\u0c3e\u0c2a\u0c4d"}}, {"type": "node", "id": 2445999527, "lat": 17.3765437, "lon": 78.5145697, "tags": {"bus": "yes", "highway": "bus_stop", "name": "Moosarambagh Bus Stop", "public_transport": "platform"}}, {"type": "node", "id": 2458342380, "lat": 17.4190085, "lon": 78.4479002, "tags": {"highway": "bus_stop", "name": "Water Tank"}}, {"type": "node", "id": 2478095042, "lat": 17.2618802, "lon": 78.3879646, "tags": {"highway": "bus_stop"}}, {"type": "node", "id": 2496701778, "lat": 17.476244, "lon": 78.5104189, "tags": {"highway": "bus_stop", "name": "Secunderabad", "name:hi": "\u0938\u093f\u0915\u0902\u0926\u0930\u093e\u092c\u093e\u0926", "name:pa": "\u0a38\u0a3f\u0a15\u0a70\u0a26\u0a30\u0a3e\u0a2c\u0a3e\u0a26"}}, {"type": "node", "id": 2496703145, "lat": 17.4688315, "lon": 78.5082869, "tags": {"highway": "bus_stop", "name": "Wellington Road"}}, {"type": "node", "id": 2496720259, "lat": 17.4192552, "lon": 78.4479864, "tags": {"highway": "bus_stop", "name": "GVK One"}}, {"type": "node", "id": 2496725867, "lat": 17.4158228, "lon": 78.4489433, "tags": {"bus": "yes", "highway": "bus_stop", "name": "City Center", "public_transport": "platform"}}, {"type": "node", "id": 2578033345, "lat": 17.4112354, "lon": 78.4829745, "tags": {"highway": "bus_stop"}}, {"type": "node", "id": 2578033346, "lat": 17.4107607, "lon": 78.4764285, "tags": {"highway": "bus_stop"}}, {"type": "node", "id": 2584772012, "lat": 17.4007724, "lon": 78.5604947, "tags": {"bus": "yes", "highway": "bus_stop", "name": "Uppal 'X' Roads", "note": "LB Nagar Side", "operator": "APSRTC Hyderabad", "public_transport": "platform", "shelter": "yes"}}, {"type": "node", "id": 2585284355, "lat": 17.4016547, "lon": 78.5688139, "tags": {"highway": "bus_stop", "name": "Uppal", "operator": "APSRTC", "shelter": "yes"}}, {"type": "node", "id": 2585317337, "lat": 17.4016983, "lon": 78.56019, "tags": {"highway": "bus_stop", "name": "Uppal 'X' Road", "operator": "APSRTC Hyderabad", "shelter": "yes"}}, {"type": "node", "id": 2585318421, "lat": 17.4013224, "lon": 78.5596644, "tags": {"bus": "yes", "highway": "bus_stop", "name": "Uppal Circle", "public_transport": "platform", "shelter": "no"}}, {"type": "node", "id": 2616365983, "lat": 17.4951062, "lon": 78.3456791, "tags": {"bench": "yes", "bin": "no", "highway": "bus_stop", "lit": "yes", "name": "Mythrinagar Bus Stop", "operator": "The Greater Hyderabad Municipal Corporation", "shelter": "yes"}}, {"type": "node", "id": 2616373415, "lat": 17.4937783, "lon": 78.3497281, "tags": {"bench": "no", "bin": "no", "highway": "bus_stop", "lit": "yes", "name": "Allwyn Colony Bus Stop", "operator": "Greater Hyderabad Municipal Corporation", "passenger_information_display": "no", "shelter": "no", "tactile_paving": "no"}}, {"type": "node", "id": 2653184521, "lat": 17.4771342, "lon": 78.563299, "tags": {"bench": "no", "highway": "bus_stop", "name": "Radhika", "shelter": "no"}}, {"type": "node", "id": 2706499729, "lat": 17.4366898, "lon": 78.4328757, "tags": {"bus": "yes", "highway": "bus_stop", "note": "This stop is not used anymore", "public_transport": "platform"}}, {"type": "node", "id": 2708095579, "lat": 17.4084692, "lon": 78.4735778, "tags": {"highway": "bus_stop", "name": "APSRTC Pushpak", "name:te": "\u0c2a\u0c41\u0c37\u0c4d\u0c2a\u0c15\u0c4d"}}, {"type": "node", "id": 2708109161, "lat": 17.3911811, "lon": 78.5108995, "tags": {"highway": "bus_stop", "name": "Chey Number"}}, {"type": "node", "id": 2708113716, "lat": 17.3918602, "lon": 78.5107867, "tags": {"highway": "bus_stop", "name": "6 Number"}}, {"type": "node", "id": 2708229891, "lat": 17.3973693, "lon": 78.5120339, "tags": {"highway": "bus_stop", "name": "Syndicate Bank Bus Stop"}}, {"type": "node", "id": 2708238383, "lat": 17.3983884, "lon": 78.5123783, "tags": {"highway": "bus_stop", "name": "Syndicate Bank Bus Stop"}}, {"type": "node", "id": 2708667288, "lat": 17.4990474, "lon": 78.3083811, "tags": {"bus": "yes", "highway": "bus_stop", "name": "church bus stop", "public_transport": "platform"}}, {"type": "node", "id": 2708667790, "lat": 17.4999711, "lon": 78.2987109, "tags": {"bus": "yes", "highway": "bus_stop", "name": "Temple Bus Stop", "public_transport": "platform"}}, {"type": "node", "id": 2710816006, "lat": 17.4108441, "lon": 78.4849278, "tags": {"highway": "bus_stop", "name": "ntr stadium bus stop"}}, {"type": "node", "id": 2710839011, "lat": 17.4995311, "lon": 78.4765646, "tags": {"highway": "bus_stop", "name": "Suchitra Bus Stop"}}, {"type": "node", "id": 2710922770, "lat": 17.4704621, "lon": 78.4811663, "tags": {"highway": "bus_stop", "name": "dubai gate bus stop"}}, {"type": "node", "id": 2710944974, "lat": 17.4050023, "lon": 78.476374, "tags": {"highway": "bus_stop", "name": "hill fort", "name:te": "\u0c39\u0c3f\u0c32\u0c4d \u0c2b\u0c4b\u0c30\u0c4d\u0c1f\u0c4d"}}, {"type": "node", "id": 2710957775, "lat": 17.4005079, "lon": 78.4696684, "tags": {"bench": "yes", "highway": "bus_stop", "name": "Assembly", "shelter": "yes"}}, {"type": "node", "id": 2710974553, "lat": 17.4294982, "lon": 78.4881643, "tags": {"highway": "bus_stop", "name": "Ranigunj"}}, {"type": "node", "id": 2710978507, "lat": 17.4354446, "lon": 78.4883801, "tags": {"highway": "bus_stop", "name": "James Street, M.G. Road", "name:te": "\u0c1c\u0c47\u0c2e\u0c4d\u0c38\u0c4d \u0c38\u0c4d\u0c1f\u0c4d\u0c30\u0c40\u0c1f\u0c4d"}}, {"type": "node", "id": 2710981523, "lat": 17.430425, "lon": 78.4921823, "tags": {"highway": "bus_stop", "name": "bible house"}}, {"type": "node", "id": 2710984314, "lat": 17.4050023, "lon": 78.4769104, "tags": {"highway": "bus_stop", "name": "Basheerbagh", "name:te": "\u0c2c\u0c37\u0c40\u0c30\u0c4d \u0c2c\u0c3e\u0c17\u0c4d"}}, {"type": "node", "id": 2710989265, "lat": 17.443076, "lon": 78.4862636, "tags": {"bench": "yes", "highway": "bus_stop", "name": "Paradise", "shelter": "yes"}}, {"type": "node", "id": 2710993256, "lat": 17.440557, "lon": 78.4881924, "tags": {"bus": "yes", "highway": "bus_stop", "name": "Paradise", "name:te": "\u0c2a\u0c3e\u0c30\u0c21\u0c48\u0c1c\u0c4d", "public_transport": "platform"}}, {"type": "node", "id": 2712432879, "lat": 17.413593, "lon": 78.4609563, "tags": {"highway": "bus_stop", "name": "khairatabad"}}, {"type": "node", "id": 2712439279, "lat": 17.4029577, "lon": 78.4583929, "tags": {"alt_name": "Mahavir Hospital", "highway": "bus_stop", "name": "Mahavir Hospital"}}, {"type": "node", "id": 2712621717, "lat": 17.4089749, "lon": 78.4898639, "tags": {"highway": "bus_stop", "name": "ashok nagar"}}, {"type": "node", "id": 2712702745, "lat": 17.391604, "lon": 78.5162173, "tags": {"highway": "bus_stop", "name": "amber pet"}}, {"type": "node", "id": 2714172218, "lat": 17.4521229, "lon": 78.3637319, "tags": {"bus": "yes", "highway": "bus_stop", "name": "Anjaya Nagar", "public_transport": "platform"}}, {"type": "node", "id": 2715277397, "lat": 17.4084652, "lon": 78.4896646, "tags": {"highway": "bus_stop", "local_ref": "40, Sec-Koti Bus stop", "name": "Ashok Nagar"}}, {"type": "node", "id": 2715279111, "lat": 17.4126307, "lon": 78.4885557, "tags": {"highway": "bus_stop", "local_ref": "Nampally - Sec, Koti-Sec bus stop", "name": "Gandhi Nagar"}}, {"type": "node", "id": 2728291752, "lat": 17.2973001, "lon": 78.4186127, "tags": {"highway": "bus_stop"}}, {"type": "node", "id": 2794877040, "lat": 17.4432667, "lon": 78.4821046, "tags": {"highway": "bus_stop", "name": "Anand Theatre", "operator": "APSRTC"}}, {"type": "node", "id": 2798876581, "lat": 17.482051, "lon": 78.5372675, "tags": {"highway": "bus_stop"}}, {"type": "node", "id": 2798876583, "lat": 17.4822594, "lon": 78.5372412, "tags": {"highway": "bus_stop"}}, {"type": "node", "id": 2817389631, "lat": 17.3865919, "lon": 78.4398828, "tags": {"addr:city": "Hyderabad", "addr:postcode": "500028", "addr:street": "Sai Baba Temple, Gudimalkapur, Mehedipatnam", "highway": "bus_stop", "name": "Sai Baba Temple, Gudimalkapur", "shelter": "no"}}, {"type": "node", "id": 2912526828, "lat": 17.4025065, "lon": 78.5594709, "tags": {"highway": "bus_stop", "name": "Uppal Ring Road", "name:ja": "\u30ef\u30e9\u30f3\u30ac\u30eb", "network": "Uppal X road to Hanamkonda", "operator": "TSSRTC"}}, {"type": "node", "id": 3010198836, "lat": 17.4636333, "lon": 78.4525943, "tags": {"highway": "bus_stop", "name": "Shobana Bus Stand", "name:te": "\u0c36\u0c4b\u0c2d\u0c28 \u0c2c\u0c38\u0c4d \u0c38\u0c4d\u0c1f\u0c3e\u0c02\u0c21\u0c4d", "operator": "APSRTC"}}, {"type": "node", "id": 3069694041, "lat": 17.3219774, "lon": 78.4017154, "tags": {"highway": "bus_stop"}}, {"type": "node", "id": 3155691531, "lat": 17.4365057, "lon": 78.4339221, "tags": {"bus": "yes", "highway": "bus_stop", "name": "Yousufguda basti", "operator": "APSRTC", "public_transport": "platform", "shelter": "no"}}, {"type": "node", "id": 3155691532, "lat": 17.4367359, "lon": 78.4321998, "tags": {"bus": "yes", "highway": "bus_stop", "name": "Yousufguda Basti stop", "name:en": "Yousufguda Basti Bus Stop", "name:hi": "\u092f\u0942\u0938\u0941\u092b\u0917\u0941\u0921\u093e \u092c\u0938\u094d\u0924\u0940 \u092c\u0938 \u0938\u094d\u091f\u0949\u092a", "operator": "APSRTC", "public_transport": "platform", "shelter": "no"}}, {"type": "node", "id": 3155693783, "lat": 17.4365545, "lon": 78.4282035, "tags": {"bus": "yes", "highway": "bus_stop", "name": "Yousufguda checkpost", "operator": "APSRTC", "public_transport": "platform", "shelter": "no"}}, {"type": "node", "id": 3155693784, "lat": 17.4365604, "lon": 78.427961, "tags": {"bus": "yes", "highway": "bus_stop", "name": "Yousufguda checkpost", "name:en": "Yousufguda Checkpost Bus Stop", "operator": "APSRTC", "public_transport": "platform", "shelter": "no"}}, {"type": "node", "id": 3157569719, "lat": 17.3467185, "lon": 78.5081947, "tags": {"bus": "yes", "highway": "bus_stop", "name": "Santoshnagar", "public_transport": "platform"}}, {"type": "node", "id": 3166191377, "lat": 17.4964098, "lon": 78.3955361, "tags": {"bus": "yes", "highway": "bus_stop", "name": "JNTU bus stop", "public_transport": "platform"}}, {"type": "node", "id": 3166221993, "lat": 17.4442963, "lon": 78.4331967, "tags": {"bus": "yes", "departures_board": "yes", "highway": "bus_stop", "name": "Kalyan Nagar Jn Bustop", "network": "RTC buses", "operator": "TS RTC", "public_transport": "platform", "shelter": "yes"}}, {"type": "node", "id": 3166260338, "lat": 17.4305963, "lon": 78.4209562, "tags": {"bus": "yes", "highway": "bus_stop", "operator": "A.P.S.R.T.C", "public_transport": "platform", "shelter": "no"}}, {"type": "node", "id": 3170093993, "lat": 17.4083494, "lon": 78.4720874, "tags": {"highway": "bus_stop", "name": "Secretriat Bus Stop", "name:te": "\u0c38\u0c46\u0c15\u0c4d\u0c30\u0c1f\u0c47\u0c30\u0c3f\u0c2f\u0c1f\u0c4d \u0c2c\u0c38\u0c4d \u0c38\u0c4d\u0c1f\u0c3e\u0c2a\u0c4d"}}, {"type": "node", "id": 3170114035, "lat": 17.407482, "lon": 78.4766011, "tags": {"highway": "bus_stop", "name": "Liberty", "name:te": "\u0c32\u0c3f\u0c2c\u0c30\u0c4d\u0c1f\u0c40"}}, {"type": "node", "id": 3170114036, "lat": 17.4071019, "lon": 78.4762585, "tags": {"highway": "bus_stop", "name": "Liberty", "name:te": "\u0c32\u0c3f\u0c2c\u0c30\u0c4d\u0c1f\u0c40"}}, {"type": "node", "id": 3170114037, "lat": 17.4055586, "lon": 78.4770552, "tags": {"highway": "bus_stop", "name": "Liberty"}}, {"type": "node", "id": 3170242754, "lat": 17.4874175, "lon": 78.3913986, "tags": {"highway": "bus_stop", "name": "M.I.G bus stop", "operator": "A.P.S.R.T.C", "shelter": "yes"}}, {"type": "node", "id": 3384133030, "lat": 17.4560989, "lon": 78.3774684, "tags": {"bus": "yes", "highway": "bus_stop", "name": "hitex bus stop", "public_transport": "platform"}}, {"type": "node", "id": 3384147270, "lat": 17.4262292, "lon": 78.4153658, "tags": {"bus": "yes", "highway": "bus_stop", "public_transport": "platform"}}, {"type": "node", "id": 3384148486, "lat": 17.427057, "lon": 78.4157649, "tags": {"bus": "yes", "highway": "bus_stop", "public_transport": "platform"}}, {"type": "node", "id": 3384155183, "lat": 17.4309126, "lon": 78.420884, "tags": {"bus": "yes", "highway": "bus_stop", "public_transport": "platform"}}, {"type": "node", "id": 3388917228, "lat": 17.4835823, "lon": 78.4131832, "tags": {"bench": "yes", "highway": "bus_stop", "name": "Kukatpally Bus Stop", "shelter": "yes"}}, {"type": "node", "id": 3392152369, "lat": 17.4795171, "lon": 78.5582876, "tags": {"highway": "bus_stop", "name": "as rao nagar"}}, {"type": "node", "id": 3393652341, "lat": 17.4279255, "lon": 78.3413112, "tags": {"bus": "yes", "highway": "bus_stop", "public_transport": "platform"}}, {"type": "node", "id": 3509615301, "lat": 17.3943895, "lon": 78.434545, "tags": {"highway": "bus_stop"}}, {"type": "node", "id": 3509637334, "lat": 17.5030312, "lon": 78.5084751, "tags": {"highway": "bus_stop"}}, {"type": "node", "id": 3509653368, "lat": 17.5132576, "lon": 78.4937689, "tags": {"highway": "bus_stop", "name": "citizens colony bus stop"}}, {"type": "node", "id": 3509655788, "lat": 17.5086672, "lon": 78.5036851, "tags": {"highway": "bus_stop", "name": "IG Statue Bus stop"}}, {"type": "node", "id": 3530664317, "lat": 17.485212, "lon": 78.502751, "tags": {"bench": "no", "covered": "no", "highway": "bus_stop", "name": "Subash Nagar bus stop", "shelter": "no"}}, {"type": "node", "id": 3530698152, "lat": 17.489498, "lon": 78.5046124, "tags": {"bench": "no", "covered": "no", "highway": "bus_stop", "name": "Rajiv Nagar, Sai Baba temple bus stop", "shelter": "no"}}, {"type": "node", "id": 3530710154, "lat": 17.4915113, "lon": 78.5030996, "tags": {"bench": "no", "covered": "no", "highway": "bus_stop", "name": "Bhoodevi Nagar Bus Stop", "shelter": "no"}}, {"type": "node", "id": 3530722779, "lat": 17.4919718, "lon": 78.5049825, "tags": {"bench": "no", "covered": "no", "highway": "bus_stop", "name": "Bhoodevi nagar junction bus stop", "shelter": "no"}}, {"type": "node", "id": 3530728498, "lat": 17.4831554, "lon": 78.4996168, "tags": {"highway": "bus_stop"}}, {"type": "node", "id": 3530744673, "lat": 17.512541, "lon": 78.5202577, "tags": {"bench": "yes", "covered": "yes", "highway": "bus_stop", "name": "Lakdawala Bus Stop", "shelter": "yes"}}, {"type": "node", "id": 3530746702, "lat": 17.5015161, "lon": 78.5141154, "tags": {"bench": "yes", "covered": "yes", "highway": "bus_stop", "name": "Alwal Bus stop", "shelter": "yes"}}, {"type": "node", "id": 3624714864, "lat": 17.3746373, "lon": 78.5606156, "tags": {"bus": "yes", "highway": "bus_stop", "operator": "APSRTC Hyderabad", "public_transport": "platform"}}, {"type": "node", "id": 3668037748, "lat": 17.282782, "lon": 78.4116236, "tags": {"highway": "bus_stop"}}, {"type": "node", "id": 3704169954, "lat": 17.4829088, "lon": 78.3203266, "tags": {"bus": "yes", "highway": "bus_stop", "name": "Lingampally Railway Station", "public_transport": "platform"}}, {"type": "node", "id": 3704169955, "lat": 17.4830399, "lon": 78.3205354, "tags": {"bus": "yes", "highway": "bus_stop", "name": "Lingampally Railway Station", "public_transport": "platform"}}, {"type": "node", "id": 3847452683, "lat": 17.4443086, "lon": 78.4722788, "tags": {"highway": "bus_stop", "name": "Prakash Nagar"}}, {"type": "node", "id": 3847452684, "lat": 17.4440393, "lon": 78.4713855, "tags": {"highway": "bus_stop", "name": "Prakash Nagar"}}, {"type": "node", "id": 3858679570, "lat": 17.5467126, "lon": 78.4668466, "tags": {"highway": "bus_stop", "name": "dulapally"}}, {"type": "node", "id": 3969765540, "lat": 17.395382, "lon": 78.4406639, "tags": {"bus": "yes", "highway": "bus_stop", "name": "Mehdipatnam Bus Stop", "public_transport": "platform"}}, {"type": "node", "id": 4158652390, "lat": 17.4026879, "lon": 78.3657916, "tags": {"highway": "bus_stop", "name": "Greenspace Prime"}}, {"type": "node", "id": 4187283994, "lat": 17.4082906, "lon": 78.4731332, "tags": {"highway": "bus_stop"}}, {"type": "node", "id": 4187283995, "lat": 17.4100969, "lon": 78.4760235, "tags": {"highway": "bus_stop"}}, {"type": "node", "id": 4187284601, "lat": 17.4311888, "lon": 78.4881289, "tags": {"highway": "bus_stop"}}, {"type": "node", "id": 4187300499, "lat": 17.3735421, "lon": 78.4759411, "tags": {"highway": "bus_stop"}}, {"type": "node", "id": 4187312089, "lat": 17.4215893, "lon": 78.4845915, "tags": {"highway": "bus_stop"}}, {"type": "node", "id": 4187313089, "lat": 17.371411, "lon": 78.478087, "tags": {"bench": "yes", "highway": "bus_stop", "shelter": "yes"}}, {"type": "node", "id": 4187313189, "lat": 17.371952, "lon": 78.4801645, "tags": {"highway": "bus_stop"}}, {"type": "node", "id": 4190967089, "lat": 17.4339129, "lon": 78.4558023, "tags": {"bench": "yes", "bin": "no", "highway": "bus_stop", "shelter": "yes"}}, {"type": "node", "id": 4190967189, "lat": 17.4269282, "lon": 78.4527079, "tags": {"highway": "bus_stop", "name": "Panjagutta"}}, {"type": "node", "id": 4196826124, "lat": 17.4427338, "lon": 78.4874255, "tags": {"bus": "yes", "highway": "bus_stop", "name": "Paradise Bus Stop", "public_transport": "platform"}}, {"type": "node", "id": 4244032590, "lat": 17.5622944, "lon": 78.4538019, "tags": {"highway": "bus_stop", "name": "maisammaguda", "operator": "maisammaguda,Telangana"}}, {"type": "node", "id": 4245803492, "lat": 17.5637645, "lon": 78.466594, "tags": {"highway": "bus_stop", "name": "Apprell Export Park"}}, {"type": "node", "id": 4245803493, "lat": 17.5447029, "lon": 78.491842, "tags": {"highway": "bus_stop", "name": "kompally"}}, {"type": "node", "id": 4245864989, "lat": 17.568913, "lon": 78.480271, "tags": {"bus": "yes", "highway": "bus_stop", "name": "gundlapochampally", "public_transport": "platform"}}, {"type": "node", "id": 4245864990, "lat": 17.5401462, "lon": 78.4909369, "tags": {"highway": "bus_stop", "name": "kompally"}}, {"type": "node", "id": 4245865189, "lat": 17.5916202, "lon": 78.4928378, "tags": {"bus": "yes", "highway": "bus_stop", "name": "kandlakoya", "public_transport": "platform"}}, {"type": "node", "id": 4258215403, "lat": 17.5677743, "lon": 78.5230714, "tags": {"highway": "bus_stop", "name": "devaryamjal"}}, {"type": "node", "id": 4258215993, "lat": 17.5913177, "lon": 78.4181208, "tags": {"highway": "bus_stop", "name": "dommarapochampally"}}, {"type": "node", "id": 4258216894, "lat": 17.5615155, "lon": 78.4032321, "tags": {"highway": "bus_stop", "name": "bowrampet"}}, {"type": "node", "id": 4258242689, "lat": 17.5673475, "lon": 78.5394093, "tags": {"highway": "bus_stop", "name": "pothayapally"}}, {"type": "node", "id": 4258242690, "lat": 17.5598956, "lon": 78.438233, "tags": {"highway": "bus_stop", "name": "bahdurpally village"}}, {"type": "node", "id": 4283612879, "lat": 17.4985768, "lon": 78.3909239, "tags": {"bench": "no", "bus": "yes", "highway": "bus_stop", "name": "Nizampet X road bus stop", "public_transport": "platform"}}, {"type": "node", "id": 4285721890, "lat": 17.5892934, "lon": 78.4733621, "tags": {"highway": "bus_stop", "name": "Ayodhya x road"}}, {"type": "node", "id": 4293343216, "lat": 17.54735, "lon": 78.572276, "tags": {"bench": "yes", "bin": "no", "highway": "bus_stop", "name": "BITS Pilani", "operator": "TGSRTC", "shelter": "yes", "tactile_paving": "no"}}, {"type": "node", "id": 4317757090, "lat": 17.5380295, "lon": 78.6309349, "tags": {"highway": "bus_stop", "name": "Yadhagiripalli X Road", "operator": "TSRTC"}}, {"type": "node", "id": 4317824091, "lat": 17.5012729, "lon": 78.622335, "tags": {"highway": "bus_stop", "name": "Bundlaguda"}}, {"type": "node", "id": 4319695949, "lat": 17.5199382, "lon": 78.6279076, "tags": {"highway": "bus_stop", "name": "Chiryala"}}, {"type": "node", "id": 4319696708, "lat": 17.5150778, "lon": 78.6272162, "tags": {"highway": "bus_stop", "name": "Chiryala"}}, {"type": "node", "id": 4382893291, "lat": 17.412183, "lon": 78.5856175, "tags": {"artwork_type": "statue", "bus": "yes", "highway": "bus_stop", "material": "metal", "name": "Boduppal NTR Statue;NTR Statue", "name:en": "Boduppal NTR Statue", "public_transport": "platform", "tourism": "artwork"}}, {"type": "node", "id": 4415311692, "lat": 17.4059854, "lon": 78.4896534, "tags": {"highway": "bus_stop"}}, {"type": "node", "id": 4416374791, "lat": 17.4014511, "lon": 78.4888654, "tags": {"highway": "bus_stop"}}, {"type": "node", "id": 4418622010, "lat": 17.4004311, "lon": 78.4894669, "tags": {"highway": "bus_stop", "name": "Narayanaguda bus stop"}}, {"type": "node", "id": 4418622014, "lat": 17.3995935, "lon": 78.4864778, "tags": {"highway": "bus_stop"}}, {"type": "node", "id": 4427688100, "lat": 17.4020163, "lon": 78.5597253, "tags": {"bench": "yes", "highway": "bus_stop", "name": "Uppal to secundrabad bustop", "name:en": "Uppal to secundrabad bustop", "name:hi": "uppal to secundrabad bustop", "shelter": "yes"}}, {"type": "node", "id": 4432327892, "lat": 17.4059013, "lon": 78.4896108, "tags": {"highway": "bus_stop"}}, {"type": "node", "id": 4432379491, "lat": 17.3965091, "lon": 78.5293385, "tags": {"highway": "bus_stop", "name": "Ramantapur studio bustop", "name:en": "Ramantapur studio bustop", "name:hi": "Ramantapur studio bustop"}}, {"type": "node", "id": 4436525396, "lat": 17.3988371, "lon": 78.4940284, "tags": {"highway": "bus_stop"}}, {"type": "node", "id": 4575058291, "lat": 17.3473025, "lon": 78.5515143, "tags": {"highway": "bus_stop", "name": "Lb Nagar to Uppal", "name:en": "Lb Nagar to Uppal"}}, {"type": "node", "id": 4575180816, "lat": 17.3472324, "lon": 78.5498097, "tags": {"highway": "bus_stop", "name": "Lb Nagar City Bus Stop", "name:en": "Lb Nagar"}}, {"type": "node", "id": 4576325295, "lat": 17.3525557, "lon": 78.555611, "tags": {"highway": "bus_stop", "name": "Kamineni bus stop", "name:en": "Kamineni bus stop"}}, {"type": "node", "id": 4576325296, "lat": 17.3531037, "lon": 78.5555993, "tags": {"highway": "bus_stop", "name": "Kamineni to Uppal", "name:en": "Kamineni to Uppal"}}, {"type": "node", "id": 4578677492, "lat": 17.2625542, "lon": 78.3876763, "tags": {"highway": "bus_stop", "name": "Shamshabad bus stop", "name:en": "Shamshabad bus stop", "name:te": "\u0c36\u0c02\u0c37\u0c3e\u0c2c\u0c3e\u0c26\u0c4d \u0c2c\u0c38\u0c4d\u0c38\u0c41 \u0c38\u0c4d\u0c1f\u0c3e\u0c2a\u0c4d"}}, {"type": "node", "id": 4596525092, "lat": 17.3246469, "lon": 78.5661745, "tags": {"highway": "bus_stop", "name": "NGO'S bus stop", "name:en": "NGO'S bus stop"}}, {"type": "node", "id": 4614311390, "lat": 17.4436129, "lon": 78.4748667, "tags": {"highway": "bus_stop", "name": "Rasoolpura"}}, {"type": "node", "id": 4672021895, "lat": 17.4951023, "lon": 78.3159771, "tags": {"bus": "yes", "highway": "bus_stop", "name": "Lingampally", "name:en": "Lingampally", "operator": "TSRTC", "public_transport": "platform"}}, {"type": "node", "id": 4672048192, "lat": 17.4951629, "lon": 78.3326521, "tags": {"bench": "yes", "bin": "no", "bus": "yes", "highway": "bus_stop", "lit": "yes", "name": "Gangaram", "name:en": "Gangaram", "operator": "TSRTC", "public_transport": "platform", "shelter": "yes"}}, {"type": "node", "id": 4683208291, "lat": 17.3553252, "lon": 78.4702895, "tags": {"highway": "bus_stop"}}, {"type": "node", "id": 4684697294, "lat": 17.4954155, "lon": 78.3323683, "tags": {"bus": "yes", "highway": "bus_stop", "name": "Gangaram", "name:en": "Gangaram", "operator": "TSRTC", "public_transport": "platform"}}, {"type": "node", "id": 4706061589, "lat": 17.4395401, "lon": 78.3959296, "tags": {"bus": "yes", "highway": "bus_stop", "name": "Madhapur-Hi Tech city-Kondapur", "name:en": "Madhapur-Hi Tech city-Kondapur", "public_transport": "platform"}}, {"type": "node", "id": 4791192809, "lat": 17.3792607, "lon": 78.5724297, "tags": {"bus": "yes", "highway": "bus_stop", "name": "Jaipuri Last bus stop", "public_transport": "platform"}}, {"type": "node", "id": 4796526725, "lat": 17.3603573, "lon": 78.5045666, "tags": {"highway": "bus_stop", "name": "Saidabad bus stop", "name:en": "Saidabad bus stop"}}, {"type": "node", "id": 4971687263, "lat": 17.3385466, "lon": 78.5217052, "tags": {"bus": "yes", "highway": "bus_stop", "name": "Virat Nagar and New Maruthi Nagar Bus Stop", "public_transport": "platform"}}, {"type": "node", "id": 4978986461, "lat": 17.3627658, "lon": 78.5638404, "tags": {"highway": "bus_stop", "name": "Chanikyapuri Colony Bus Stop"}}, {"type": "node", "id": 5199307762, "lat": 17.4754007, "lon": 78.473989, "tags": {"description": "Near Priyadarshini Hotel", "highway": "bus_stop", "name": "Bowenpally checkpost Bus Stop"}}, {"type": "node", "id": 5214080468, "lat": 17.4041862, "lon": 78.4522692, "tags": {"bench": "yes", "bin": "yes", "highway": "bus_stop", "name": "Masab Tank Bus Stop", "operator": "TSRTC", "shelter": "yes"}}, {"type": "node", "id": 5405052395, "lat": 17.4455592, "lon": 78.3519362, "tags": {"bench": "no", "bus": "yes", "highway": "bus_stop", "name": "Bustop", "public_transport": "platform", "shelter": "no"}}, {"type": "node", "id": 5405054116, "lat": 17.4322281, "lon": 78.3785652, "tags": {"bus": "yes", "highway": "bus_stop", "name": "Bus stop 2", "public_transport": "platform"}}, {"type": "node", "id": 5405055292, "lat": 17.4462582, "lon": 78.351225, "tags": {"bench": "yes", "bin": "yes", "bus": "yes", "description": "Opp of police station", "highway": "bus_stop", "name": "IIIT Bus stop1", "public_transport": "platform", "shelter": "no"}}, {"type": "node", "id": 5405055553, "lat": 17.4408024, "lon": 78.3607926, "tags": {"bus": "yes", "highway": "bus_stop", "name": "Gachibowli flyover bustop", "public_transport": "platform"}}, {"type": "node", "id": 5405059602, "lat": 17.439886, "lon": 78.363404, "tags": {"bus": "yes", "highway": "bus_stop", "public_transport": "platform"}}, {"type": "node", "id": 5425191915, "lat": 17.4129007, "lon": 78.3951039, "tags": {"alt_name": "Dargah", "bus": "yes", "highway": "bus_stop", "name": "Shaikpet Dargah", "public_transport": "platform"}}, {"type": "node", "id": 5432842171, "lat": 17.3996282, "lon": 78.5374457, "tags": {"highway": "bus_stop", "name": "HPS Bus Stop"}}, {"type": "node", "id": 5432858082, "lat": 17.401622, "lon": 78.5596839, "tags": {"highway": "bus_stop", "name": "Uppal 'X' Road Bus Stop", "name:en": "Uppal 'X' Road Bus Stop"}}, {"type": "node", "id": 5471994926, "lat": 17.4026831, "lon": 78.4579947, "tags": {"highway": "bus_stop", "name": "Airport bus stop", "route": "A2"}}, {"type": "node", "id": 5486709289, "lat": 17.4100351, "lon": 78.4865195, "tags": {"bus": "yes", "highway": "bus_stop", "name": "Domalguada Bus top", "public_transport": "platform"}}, {"type": "node", "id": 5596353861, "lat": 17.4358309, "lon": 78.488637, "tags": {"bus": "yes", "highway": "bus_stop", "name": "Jamestreet bus stop", "name:te": "\u0c1c\u0c47\u0c2e\u0c4d\u0c38\u0c4d \u0c38\u0c4d\u0c1f\u0c4d\u0c30\u0c40\u0c1f\u0c4d \u0c2c\u0c38\u0c4d \u0c38\u0c4d\u0c1f\u0c3e\u0c2a\u0c4d", "public_transport": "platform"}}, {"type": "node", "id": 5608451366, "lat": 17.4201797, "lon": 78.5167256, "tags": {"highway": "bus_stop"}}, {"type": "node", "id": 5608451452, "lat": 17.4197433, "lon": 78.5173626, "tags": {"highway": "bus_stop"}}, {"type": "node", "id": 5608452002, "lat": 17.4176627, "lon": 78.5193059, "tags": {"highway": "bus_stop"}}, {"type": "node", "id": 5608452003, "lat": 17.4177407, "lon": 78.5194239, "tags": {"highway": "bus_stop"}}, {"type": "node", "id": 5678695721, "lat": 17.4064622, "lon": 78.3762297, "tags": {"highway": "bus_stop", "wheelchair": "yes"}}, {"type": "node", "id": 5683812465, "lat": 17.4948321, "lon": 78.4519579, "tags": {"bus": "yes", "highway": "bus_stop", "name": "chintal bus stop", "public_transport": "platform", "shelter": "yes"}}, {"type": "node", "id": 5694527048, "lat": 17.596312, "lon": 78.4408787}, {"type": "node", "id": 5694527049, "lat": 17.596265, "lon": 78.4408646}, {"type": "node", "id": 5694527050, "lat": 17.5962013, "lon": 78.4410898}, {"type": "node", "id": 5694527051, "lat": 17.5962483, "lon": 78.4411003}, {"type": "node", "id": 5694527072, "lat": 17.5970849, "lon": 78.4432861, "tags": {"bus": "yes", "highway": "bus_stop", "name": "Bus Parking 2", "public_transport": "platform"}}, {"type": "node", "id": 5826355255, "lat": 17.3297742, "lon": 78.5791414, "tags": {"bench": "no", "bus": "yes", "highway": "bus_stop", "lit": "no", "name": "kamala nagar bus stop", "public_transport": "platform", "ref": "tsrtc", "shelter": "no"}}, {"type": "node", "id": 5942734589, "lat": 17.4462587, "lon": 78.3853261, "tags": {"bus": "yes", "highway": "bus_stop", "name": "Madhapur Image Gardens", "operator": "Govt Of Telangana", "public_transport": "platform", "shelter": "yes", "tactile_paving": "yes"}}, {"type": "node", "id": 5942740806, "lat": 17.4461737, "lon": 78.3850424, "tags": {"bus": "yes", "highway": "bus_stop", "name": "Madhapur Image Gardens", "public_transport": "platform", "shelter": "yes", "tactile_paving": "yes"}}, {"type": "node", "id": 6246310248, "lat": 17.3274768, "lon": 78.6048385, "tags": {"bus": "yes", "highway": "bus_stop", "name": "TSRTC BUS STAND , HAYATNAGAR", "public_transport": "platform"}}, {"type": "node", "id": 6295706426, "lat": 17.4623757, "lon": 78.5616593, "tags": {"highway": "bus_stop"}}, {"type": "node", "id": 6308192283, "lat": 17.3595923, "lon": 78.3880368, "tags": {"highway": "bus_stop", "name": "Bandlaguda Bus Stop", "public_transport": "platform"}}, {"type": "node", "id": 6308211122, "lat": 17.3954325, "lon": 78.5024824, "tags": {"highway": "bus_stop", "name": "Fever Hospital"}}, {"type": "node", "id": 6308233004, "lat": 17.3526315, "lon": 78.3769932, "tags": {"highway": "bus_stop"}}, {"type": "node", "id": 6308233005, "lat": 17.3520925, "lon": 78.3764917, "tags": {"highway": "bus_stop"}}, {"type": "node", "id": 6335405735, "lat": 17.4949272, "lon": 78.3945966, "tags": {"bench": "yes", "bin": "yes", "highway": "bus_stop", "shelter": "yes"}}, {"type": "node", "id": 6435595868, "lat": 17.4909298, "lon": 78.4510134, "tags": {"bus": "yes", "highway": "bus_stop", "name": "Ganesh nagar bustop", "public_transport": "platform"}}, {"type": "node", "id": 6435595869, "lat": 17.4875009, "lon": 78.4500601, "tags": {"bus": "yes", "highway": "bus_stop", "name": "idpl bustop", "public_transport": "platform"}}, {"type": "node", "id": 6480567090, "lat": 17.4950021, "lon": 78.3229702, "tags": {"bus": "yes", "highway": "bus_stop", "name": "Chandanagar Bus Stop", "public_transport": "platform"}}, {"type": "node", "id": 6481835685, "lat": 17.4951337, "lon": 78.3229158, "tags": {"bus": "yes", "highway": "bus_stop", "name": "Chandanagar Bus stop", "public_transport": "platform"}}, {"type": "node", "id": 6570261860, "lat": 17.4230516, "lon": 78.5666056, "tags": {"bus": "yes", "highway": "bus_stop", "name": "Hemanagar Bus Stop", "operator": "APSRTC", "public_transport": "platform", "shelter": "yes"}}, {"type": "node", "id": 6652949087, "lat": 17.3880126, "lon": 78.471976, "tags": {"highway": "bus_stop"}}, {"type": "node", "id": 6685486358, "lat": 17.4295326, "lon": 78.5127952, "tags": {"bench": "yes", "bus": "yes", "highway": "bus_stop", "lit": "yes", "name": "Chilkalguda bus Stop", "network": "17,86J, 107JD", "operator": "TSRTC", "public_transport": "platform", "shelter": "yes", "surface": "paved"}}, {"type": "node", "id": 6685486367, "lat": 17.4252981, "lon": 78.5148611, "tags": {"bench": "yes", "bus": "yes", "highway": "bus_stop", "lit": "yes", "name": "Namalagundu Bus Stop", "network": "86J, 107J/D", "operator": "TSRTC", "public_transport": "platform", "shelter": "yes", "surface": "paved", "wheelchair": "no"}}, {"type": "node", "id": 6693360860, "lat": 17.4275784, "lon": 78.5174116, "tags": {"bench": "no", "bus": "yes", "highway": "bus_stop", "name": "Seethafalmandi Bus Stop", "network": "17,86J, 107JD", "operator": "TSRTC", "public_transport": "platform", "shelter": "no"}}, {"type": "node", "id": 6693360863, "lat": 17.422247, "lon": 78.5169263, "tags": {"bench": "yes", "highway": "bus_stop", "name": "Namalagundu Bus Stop", "network": "86J, 107J/D", "operator": "TSRTC", "shelter": "yes"}}, {"type": "node", "id": 6700585055, "lat": 17.5266275, "lon": 78.44044, "tags": {"bus": "yes", "highway": "bus_stop", "name": "Jeedimetla Bus Stop", "operator": "TSRTC", "public_transport": "platform"}}, {"type": "node", "id": 6700603344, "lat": 17.522617, "lon": 78.4438035, "tags": {"bus": "yes", "highway": "bus_stop", "name": "Substation Bus Stop", "operator": "TSRTC", "public_transport": "platform"}}, {"type": "node", "id": 6710912124, "lat": 17.440645, "lon": 78.4971759, "tags": {"bus": "yes", "highway": "bus_stop", "name": "Clock Tower Circle Bus", "network": "5, 8", "public_transport": "platform"}}, {"type": "node", "id": 6773898388, "lat": 17.4369415, "lon": 78.5052015, "tags": {"bus": "yes", "highway": "bus_stop", "name": "Secunderabad Uppal Bus Stop", "public_transport": "platform"}}, {"type": "node", "id": 6774880494, "lat": 17.4588091, "lon": 78.3672857, "tags": {"bench": "yes", "bin": "yes", "bus": "yes", "highway": "bus_stop", "lit": "yes", "name": "Kothaguda", "network": "10H", "public_transport": "platform", "shelter": "yes"}}, {"type": "node", "id": 6779925305, "lat": 17.5130853, "lon": 78.5544977, "tags": {"bus": "yes", "departures_board": "yes", "highway": "bus_stop", "name": "kolafarm", "network": "balajinagar", "operator": "ghmc", "public_transport": "platform"}}, {"type": "node", "id": 6829483771, "lat": 17.4648077, "lon": 78.5386272, "tags": {"highway": "bus_stop", "local_ref": "All 16 number buses", "name": "Krupa Complex"}}, {"type": "node", "id": 6829483772, "lat": 17.4717388, "lon": 78.5390215, "tags": {"highway": "bus_stop", "local_ref": "All 16 number buses", "name": "Muudu Gudulu"}}, {"type": "node", "id": 6829483774, "lat": 17.4747526, "lon": 78.5380458, "tags": {"highway": "bus_stop", "local_ref": "Old PS", "name": "Neredmet Old PS", "source": "All 16 number buses"}}, {"type": "node", "id": 6934842239, "lat": 17.4420476, "lon": 78.5661125, "tags": {"bus": "yes", "departures_board": "no", "highway": "bus_stop", "name": "Janapriya Bus stop", "public_transport": "platform", "shelter": "yes"}}, {"type": "node", "id": 7007986361, "lat": 17.4953362, "lon": 78.3405813, "tags": {"bench": "yes", "bin": "no", "bus": "yes", "highway": "bus_stop", "lit": "yes", "name": "Deepthi Sri Nagar", "public_transport": "platform", "shelter": "yes"}}, {"type": "node", "id": 7008095266, "lat": 17.4947084, "lon": 78.3168984, "tags": {"bus": "yes", "highway": "bus_stop", "name": "lingampally main bus stop", "public_transport": "platform"}}, {"type": "node", "id": 7008107698, "lat": 17.4799497, "lon": 78.5568336, "tags": {"bus": "yes", "highway": "bus_stop", "name": "A.S. Rao Nagar", "public_transport": "station"}}, {"type": "node", "id": 7008107699, "lat": 17.4775467, "lon": 78.5624222, "tags": {"bench": "yes", "bus": "yes", "highway": "bus_stop", "name": "Radhika Busstop", "public_transport": "station", "shelter": "yes"}}, {"type": "node", "id": 7113622185, "lat": 17.4346781, "lon": 78.4491099, "tags": {"highway": "bus_stop", "name": "Ameerpet"}}, {"type": "node", "id": 7171247795, "lat": 17.3091766, "lon": 78.5331199, "tags": {"bus": "yes", "highway": "bus_stop", "name": "almasguda bus stop", "public_transport": "platform"}}, {"type": "node", "id": 7180083272, "lat": 17.4368679, "lon": 78.4235911, "tags": {"bus": "yes", "highway": "bus_stop", "name": "police line bus stop", "public_transport": "platform"}}, {"type": "node", "id": 7180372032, "lat": 17.5092834, "lon": 78.3001936, "tags": {"bus": "yes", "departures_board": "no", "highway": "bus_stop", "name": "Beeramguda busstop", "public_transport": "platform"}}, {"type": "node", "id": 7243921392, "lat": 17.3952865, "lon": 78.4352397, "tags": {"bus": "yes", "highway": "bus_stop", "name": "medipatnam bus stop", "public_transport": "platform"}}, {"type": "node", "id": 7243975384, "lat": 17.371557, "lon": 78.5694429, "tags": {"bus": "yes", "highway": "bus_stop", "name": "Jaipuri colony bus stop", "public_transport": "platform"}}, {"type": "node", "id": 7244134464, "lat": 17.3287721, "lon": 78.5835166, "tags": {"bus": "yes", "highway": "bus_stop", "name": "Subhadranagar Bus Stop", "public_transport": "platform"}}, {"type": "node", "id": 7244168656, "lat": 17.5018822, "lon": 78.4189175, "tags": {"bus": "yes", "highway": "bus_stop", "name": "Allwyn colony", "public_transport": "platform"}}, {"type": "node", "id": 7244226218, "lat": 17.4803341, "lon": 78.5749601, "tags": {"bus": "yes", "highway": "bus_stop", "name": "kushaiguda", "public_transport": "platform"}}, {"type": "node", "id": 7244226233, "lat": 17.4879595, "lon": 78.6008563, "tags": {"bus": "yes", "highway": "bus_stop", "name": "Nagaram Bus stop", "public_transport": "platform"}}, {"type": "node", "id": 7244238197, "lat": 17.404087, "lon": 78.503738, "tags": {"bus": "yes", "highway": "bus_stop", "name": "VST Bus Stop", "public_transport": "platform"}}, {"type": "node", "id": 7244238208, "lat": 17.4090807, "lon": 78.5087684, "tags": {"bus": "yes", "highway": "bus_stop", "public_transport": "platform"}}, {"type": "node", "id": 7244243967, "lat": 17.4008542, "lon": 78.5080708, "tags": {"bus": "yes", "highway": "bus_stop", "name": "shanker mutt bus stop", "public_transport": "platform"}}, {"type": "node", "id": 7244267537, "lat": 17.409455, "lon": 78.5066988, "tags": {"bus": "yes", "highway": "bus_stop", "public_transport": "platform"}}, {"type": "node", "id": 7246509967, "lat": 17.3761325, "lon": 78.5569899, "tags": {"bus": "yes", "highway": "bus_stop", "name": "dsnr", "public_transport": "platform"}}, {"type": "node", "id": 7246595590, "lat": 17.3511191, "lon": 78.3581379, "tags": {"bus": "yes", "highway": "bus_stop", "public_transport": "platform"}}, {"type": "node", "id": 7246595591, "lat": 17.350817, "lon": 78.3580414, "tags": {"bus": "yes", "highway": "bus_stop", "public_transport": "platform"}}, {"type": "node", "id": 7246595628, "lat": 17.3393362, "lon": 78.3619614, "tags": {"bus": "yes", "highway": "bus_stop", "public_transport": "platform"}}, {"type": "node", "id": 7246595629, "lat": 17.3394137, "lon": 78.3619584, "tags": {"bus": "yes", "highway": "bus_stop", "public_transport": "platform"}}, {"type": "node", "id": 7246595630, "lat": 17.3387322, "lon": 78.3637925, "tags": {"bus": "yes", "highway": "bus_stop", "public_transport": "platform"}}, {"type": "node", "id": 7246595631, "lat": 17.3399442, "lon": 78.36871, "tags": {"bus": "yes", "highway": "bus_stop", "public_transport": "platform"}}, {"type": "node", "id": 7246595632, "lat": 17.341405, "lon": 78.3727709, "tags": {"bus": "yes", "highway": "bus_stop", "public_transport": "platform"}}, {"type": "node", "id": 7432609392, "lat": 17.3294749, "lon": 78.5536367, "tags": {"bus": "yes", "highway": "bus_stop", "public_transport": "platform"}}, {"type": "node", "id": 7716269364, "lat": 17.4184052, "lon": 78.5845384, "tags": {"bus": "yes", "highway": "bus_stop", "name": "Boduppal Ambedkar statue", "name:en": "Boduppal Ambedkar statue", "public_transport": "platform"}}, {"type": "node", "id": 7716299123, "lat": 17.4183442, "lon": 78.5845955, "tags": {"bus": "yes", "highway": "bus_stop", "name": "Boduppal Ambedkar statue", "name:en": "Boduppal Ambedkar statue", "public_transport": "platform"}}, {"type": "node", "id": 7726358259, "lat": 17.3588326, "lon": 78.5248567, "tags": {"highway": "bus_stop"}}, {"type": "node", "id": 7726358276, "lat": 17.3565363, "lon": 78.5300615, "tags": {"highway": "bus_stop"}}, {"type": "node", "id": 7794501332, "lat": 17.4687204, "lon": 78.5444013, "tags": {"bus": "yes", "highway": "bus_stop", "name": "Santhosimata Temple Bus Stop", "public_transport": "platform"}}, {"type": "node", "id": 7794501333, "lat": 17.4686002, "lon": 78.5445726, "tags": {"bus": "yes", "highway": "bus_stop", "name": "Santhosimata Temple Bus Stop", "public_transport": "platform"}}, {"type": "node", "id": 7836389744, "lat": 17.4960657, "lon": 78.358174, "tags": {"bench": "yes", "bin": "no", "bus": "yes", "highway": "bus_stop", "lit": "no", "name": "Miyapur Bus Stop", "public_transport": "platform", "shelter": "yes"}}, {"type": "node", "id": 7836389746, "lat": 17.4956452, "lon": 78.3580186, "tags": {"bench": "yes", "bin": "yes", "bus": "yes", "highway": "bus_stop", "lit": "yes", "name": "Miyapur Bus Stop", "public_transport": "platform", "shelter": "yes"}}, {"type": "node", "id": 7836396286, "lat": 17.4967452, "lon": 78.3632758, "tags": {"bus": "yes", "highway": "bus_stop", "name": "Miyapur X Road Bus Stop", "public_transport": "platform"}}, {"type": "node", "id": 7836396287, "lat": 17.4964001, "lon": 78.3627254, "tags": {"bus": "yes", "highway": "bus_stop", "name": "Miyapur X Road Bus Stop", "public_transport": "platform"}}, {"type": "node", "id": 8044154035, "lat": 17.3728388, "lon": 78.4993697, "tags": {"bus": "yes", "highway": "bus_stop", "public_transport": "platform", "shelter": "no"}}, {"type": "node", "id": 8044216497, "lat": 17.3721098, "lon": 78.4994461, "tags": {"bus": "yes", "highway": "bus_stop", "public_transport": "platform", "shelter": "yes"}}, {"type": "node", "id": 8049989213, "lat": 17.3638368, "lon": 78.5019439, "tags": {"highway": "bus_stop", "shelter": "yes"}}, {"type": "node", "id": 8049989214, "lat": 17.3640455, "lon": 78.5020874, "tags": {"highway": "bus_stop", "shelter": "yes"}}, {"type": "node", "id": 8058995199, "lat": 17.351786, "lon": 78.507077, "tags": {"highway": "bus_stop"}}, {"type": "node", "id": 8058995200, "lat": 17.3517885, "lon": 78.5074619, "tags": {"highway": "bus_stop"}}, {"type": "node", "id": 8058995201, "lat": 17.351969, "lon": 78.5075625, "tags": {"highway": "bus_stop"}}, {"type": "node", "id": 8077176299, "lat": 17.3595443, "lon": 78.5047676, "tags": {"highway": "bus_stop"}}, {"type": "node", "id": 8077176300, "lat": 17.3595251, "lon": 78.5046516, "tags": {"highway": "bus_stop"}}, {"type": "node", "id": 8111142847, "lat": 17.414842, "lon": 78.5710841, "tags": {"bus": "yes", "highway": "bus_stop", "name": "Balaji hills colony bustop", "public_transport": "platform"}}, {"type": "node", "id": 8111160728, "lat": 17.4019433, "lon": 78.560849, "tags": {"bus": "yes", "highway": "bus_stop", "name": "uppal - kushaiguda", "public_transport": "platform"}}, {"type": "node", "id": 8111160729, "lat": 17.4015854, "lon": 78.5622183, "tags": {"bus": "yes", "highway": "bus_stop", "public_transport": "platform"}}, {"type": "node", "id": 8111166889, "lat": 17.4014901, "lon": 78.5652061, "tags": {"bus": "yes", "highway": "bus_stop", "public_transport": "platform"}}, {"type": "node", "id": 8111166890, "lat": 17.4013698, "lon": 78.5625373, "tags": {"bus": "yes", "highway": "bus_stop", "public_transport": "platform"}}, {"type": "node", "id": 8113834434, "lat": 17.3922547, "lon": 78.5167397, "tags": {"bus": "yes", "highway": "bus_stop", "name": "Amberpet bus stop", "public_transport": "platform"}}, {"type": "node", "id": 8233011413, "lat": 17.4969771, "lon": 78.5324672, "tags": {"bus": "yes", "highway": "bus_stop", "name": "ammuguda", "public_transport": "platform", "shelter": "yes"}}, {"type": "node", "id": 8233064853, "lat": 17.5124509, "lon": 78.5579604, "tags": {"bus": "yes", "highway": "bus_stop", "name": "Balaji nagar", "public_transport": "platform"}}, {"type": "node", "id": 8233189494, "lat": 17.5127203, "lon": 78.5626794, "tags": {"bus": "yes", "highway": "bus_stop", "name": "Balaji nagar", "public_transport": "platform"}}, {"type": "node", "id": 8386245800, "lat": 17.3865699, "lon": 78.516708, "tags": {"bus": "yes", "highway": "bus_stop", "name": "Cpl Amberpet Bus stop", "public_transport": "platform", "shelter": "yes"}}, {"type": "node", "id": 8386754559, "lat": 17.4047353, "lon": 78.5865032, "tags": {"bus": "yes", "highway": "bus_stop", "name": "Boduppal bustop", "public_transport": "platform"}}, {"type": "node", "id": 8386754560, "lat": 17.4045179, "lon": 78.5865916, "tags": {"bus": "yes", "highway": "bus_stop", "name": "Boduppal bustop", "public_transport": "platform"}}, {"type": "node", "id": 8386754561, "lat": 17.4013874, "lon": 78.5714637, "tags": {"bus": "yes", "highway": "bus_stop", "public_transport": "platform"}}, {"type": "node", "id": 8386754562, "lat": 17.4013519, "lon": 78.565498, "tags": {"bus": "yes", "highway": "bus_stop", "public_transport": "platform"}}, {"type": "node", "id": 8387157856, "lat": 17.4099864, "lon": 78.5079415, "tags": {"bus": "yes", "highway": "bus_stop", "public_transport": "platform"}}, {"type": "node", "id": 8387157863, "lat": 17.4079329, "lon": 78.5135334, "tags": {"bus": "yes", "highway": "bus_stop", "name": "nallakunta busstop", "public_transport": "platform"}}, {"type": "node", "id": 8389425002, "lat": 17.4839048, "lon": 78.4122815, "tags": {"bench": "yes", "bus": "yes", "highway": "bus_stop", "name": "kukatpally bus stop", "public_transport": "platform", "shelter": "yes"}}, {"type": "node", "id": 8405082471, "lat": 17.3946964, "lon": 78.4405242, "tags": {"bus": "yes", "highway": "bus_stop", "name": "Mehdipatnam Bus Station", "operator": "TSRTC", "public_transport": "platform"}}, {"type": "node", "id": 8405082481, "lat": 17.3948051, "lon": 78.4404249, "tags": {"bus": "yes", "highway": "bus_stop", "name": "Mehdipatnam Bus Station", "operator": "TSRTC", "public_transport": "platform"}}, {"type": "node", "id": 8405082482, "lat": 17.3947641, "lon": 78.4404769, "tags": {"bus": "yes", "highway": "bus_stop", "name": "Mehdipatnam Bus Station", "operator": "TSRTC", "public_transport": "platform"}}, {"type": "node", "id": 8739653948, "lat": 17.4589657, "lon": 78.5000894, "tags": {"bus": "yes", "highway": "bus_stop", "public_transport": "platform", "shelter": "yes"}}, {"type": "node", "id": 8739653949, "lat": 17.4589452, "lon": 78.5002707, "tags": {"bus": "yes", "highway": "bus_stop", "public_transport": "platform", "shelter": "no"}}, {"type": "node", "id": 9360929347, "lat": 17.46921, "lon": 78.5492544, "tags": {"bus": "yes", "highway": "bus_stop", "name": "old safilguda", "public_transport": "platform"}}, {"type": "node", "id": 9369441830, "lat": 17.5125871, "lon": 78.339186, "tags": {"bus": "yes", "highway": "bus_stop", "name": "uppal", "public_transport": "platform"}}, {"type": "node", "id": 9523920159, "lat": 17.5694643, "lon": 78.4426636, "tags": {"bus": "yes", "highway": "bus_stop", "name": "indiramma colony bus stop", "public_transport": "platform"}}, {"type": "node", "id": 9523929899, "lat": 17.5020614, "lon": 78.4260712, "tags": {"bus": "yes", "highway": "bus_stop", "name": "jagathgiri gutta bus stop", "public_transport": "platform"}}, {"type": "node", "id": 9660169717, "lat": 17.3854116, "lon": 78.3545048, "tags": {"highway": "bus_stop", "name": "Narsingi Bus Stop"}}, {"type": "node", "id": 9758851556, "lat": 17.2265858, "lon": 78.3987667, "tags": {"bus": "yes", "highway": "bus_stop", "public_transport": "platform"}}, {"type": "node", "id": 9801520475, "lat": 17.3913148, "lon": 78.543651, "tags": {"highway": "bus_stop", "name": "Gandhi Nagar Bus stop"}}, {"type": "node", "id": 9887230598, "lat": 17.4994291, "lon": 78.3894893, "tags": {"bus": "yes", "highway": "bus_stop", "public_transport": "platform"}}, {"type": "node", "id": 9903887121, "lat": 17.5113036, "lon": 78.4239601, "tags": {"bus": "yes", "highway": "bus_stop", "name": "Srinivas Nagar Last Bus Stop", "public_transport": "platform"}}, {"type": "node", "id": 9916866535, "lat": 17.5114776, "lon": 78.4247147, "tags": {"bus": "yes", "highway": "bus_stop", "name": "srinivas nagar", "public_transport": "platform"}}, {"type": "node", "id": 9918355395, "lat": 17.5089536, "lon": 78.4285379, "tags": {"bus": "yes", "highway": "bus_stop", "name": "E- Seva", "public_transport": "platform"}}, {"type": "node", "id": 9918495805, "lat": 17.508136, "lon": 78.4296361, "tags": {"bus": "yes", "highway": "bus_stop", "name": "Maqdoom Nagar bus stop", "public_transport": "platform"}}, {"type": "node", "id": 9918552427, "lat": 17.4916892, "lon": 78.4514832, "tags": {"bus": "yes", "highway": "bus_stop", "name": "Ganesh Nagar Bus Stop", "public_transport": "platform", "ref": "2"}}, {"type": "node", "id": 9918767492, "lat": 17.5108435, "lon": 78.447589, "tags": {"bus": "yes", "highway": "bus_stop", "name": "Ramaram X road bus stop", "public_transport": "platform"}}, {"type": "node", "id": 9918767493, "lat": 17.5104947, "lon": 78.4476599, "tags": {"bus": "yes", "highway": "bus_stop", "name": "auto Stamd", "public_transport": "platform"}}, {"type": "node", "id": 9918846036, "lat": 17.5223087, "lon": 78.4293048, "tags": {"bus": "yes", "highway": "bus_stop", "name": "umcc", "public_transport": "platform"}}, {"type": "node", "id": 9961127852, "lat": 17.4893076, "lon": 78.4445332, "tags": {"bus": "yes", "highway": "bus_stop", "name": "Nanda Nagar", "name:pa": "\u0a28\u0a70\u0a26\u0a3e \u0a28\u0a17\u0a30", "name:ur": "\u0646\u0646\u062f\u0627 \u0646\u06af\u0631", "public_transport": "platform"}}, {"type": "node", "id": 10277755872, "lat": 17.4601463, "lon": 78.5642815, "tags": {"bus": "yes", "highway": "bus_stop", "name": "2nd Phase bus Stop", "public_transport": "platform"}}, {"type": "node", "id": 10279877029, "lat": 17.3012944, "lon": 78.4382809, "tags": {"bus": "yes", "highway": "bus_stop", "name": "Madhuban Colony", "public_transport": "platform"}}, {"type": "node", "id": 11082995794, "lat": 17.3684133, "lon": 78.5241497, "tags": {"bus": "yes", "highway": "bus_stop", "public_transport": "platform"}}, {"type": "node", "id": 11373156771, "lat": 17.2875979, "lon": 78.6935578, "tags": {"highway": "bus_stop", "name": "Mazidpur X Roads"}}, {"type": "node", "id": 11373181969, "lat": 17.4199483, "lon": 78.6068151, "tags": {"highway": "bus_stop", "name": "RTC Colony"}}, {"type": "node", "id": 11373181970, "lat": 17.4114348, "lon": 78.6070496, "tags": {"highway": "bus_stop", "name": "Chengicherla IDA Entrance", "tourism": "viewpoint"}}, {"type": "node", "id": 11373182069, "lat": 17.4227511, "lon": 78.6060886, "tags": {"highway": "bus_stop", "name": "Chengicherla Depot Bus Stop"}}, {"type": "node", "id": 11373182169, "lat": 17.4013579, "lon": 78.5815697, "tags": {"highway": "bus_stop", "name": "Peerzadiguda Road Bus Stop"}}, {"type": "node", "id": 11373182269, "lat": 17.4053501, "lon": 78.588911, "tags": {"highway": "bus_stop", "name": "Uppal Depot Bus Stop"}}, {"type": "node", "id": 11373184769, "lat": 17.3098347, "lon": 78.6867411, "tags": {"highway": "bus_stop", "name": "Abdullapurmettu Bus Stop"}}, {"type": "node", "id": 11373184969, "lat": 17.3100121, "lon": 78.6866162, "tags": {"highway": "bus_stop", "name": "Abdullapurmettu Bus Stop"}}, {"type": "node", "id": 11373206569, "lat": 17.3116197, "lon": 78.6825877, "tags": {"highway": "bus_stop", "name": "RFC Bus Stop"}}, {"type": "node", "id": 11373206669, "lat": 17.3118311, "lon": 78.6824653, "tags": {"highway": "bus_stop", "name": "RFC Bus Stop"}}, {"type": "node", "id": 11373206670, "lat": 17.3132208, "lon": 78.6788998, "tags": {"highway": "bus_stop", "name": "SGM Polytechnic"}}, {"type": "node", "id": 11373227369, "lat": 17.3214309, "lon": 78.6387324, "tags": {"highway": "bus_stop", "name": "Peddamberpet"}}, {"type": "node", "id": 11373227370, "lat": 17.3215876, "lon": 78.6387132, "tags": {"highway": "bus_stop", "name": "Peddamberpet"}}, {"type": "node", "id": 11373227469, "lat": 17.3204344, "lon": 78.6417859, "tags": {"highway": "bus_stop", "name": "Peddamberpet X Roads"}}, {"type": "node", "id": 11385065570, "lat": 17.3208011, "lon": 78.6137856, "tags": {"highway": "bus_stop", "name": "Word & Deed Colony"}}, {"type": "node", "id": 11385065571, "lat": 17.4332003, "lon": 78.6084647, "tags": {"highway": "bus_stop", "name": "Chengicherla"}}, {"type": "node", "id": 11385092469, "lat": 17.4331107, "lon": 78.6085864, "tags": {"highway": "bus_stop", "name": "Chengicherla"}}, {"type": "node", "id": 11385093569, "lat": 17.4489891, "lon": 78.6115598, "tags": {"highway": "bus_stop", "name": "Shkati", "name:en": "Shakthi Sai Nagar Kaman"}}, {"type": "node", "id": 11385093669, "lat": 17.4489672, "lon": 78.611471, "tags": {"highway": "bus_stop", "name": "Shakthi Sai Nagar Kaman"}}, {"type": "node", "id": 11385106669, "lat": 17.4590351, "lon": 78.6043469, "tags": {"highway": "bus_stop", "name": "Cherlapalli Railway Station"}}, {"type": "node", "id": 11485653826, "lat": 17.347001, "lon": 78.5511269, "tags": {"bus": "yes", "highway": "bus_stop", "name": "LB Nagar Bus Stop", "public_transport": "platform"}}, {"type": "node", "id": 11485653827, "lat": 17.3460037, "lon": 78.5507702, "tags": {"bus": "yes", "highway": "bus_stop", "name": "LB Nagar Bus Stop", "public_transport": "platform"}}, {"type": "node", "id": 11531549769, "lat": 17.4227743, "lon": 78.6061024, "tags": {"highway": "bus_stop", "name": "Chengicherla Bus Depot road"}}, {"type": "node", "id": 11553204121, "lat": 17.3955731, "lon": 78.3149717, "tags": {"bus": "yes", "highway": "bus_stop", "public_transport": "platform"}}, {"type": "node", "id": 11595483069, "lat": 17.4114477, "lon": 78.6070518, "tags": {"highway": "bus_stop", "name": "Chengicherla Road Bus Stop"}}, {"type": "node", "id": 11601232210, "lat": 17.2379774, "lon": 78.4285696, "tags": {"bus": "yes", "highway": "bus_stop", "name": "AP/TS RTC Bus Stop", "public_transport": "platform"}}, {"type": "node", "id": 11690828288, "lat": 17.4734856, "lon": 78.5507089, "tags": {"bus": "yes", "highway": "bus_stop", "public_transport": "platform"}}, {"type": "node", "id": 11736379629, "lat": 17.4945147, "lon": 78.3944117, "tags": {"bench": "yes", "bus": "yes", "highway": "bus_stop", "public_transport": "platform", "shelter": "yes"}}, {"type": "node", "id": 11736408116, "lat": 17.4964222, "lon": 78.3940452, "tags": {"bus": "yes", "departures_board": "yes", "highway": "bus_stop", "name": "Jntu Bus Stop", "name:en": "Jntu Bus Stop", "public_transport": "platform", "shelter": "yes"}}, {"type": "node", "id": 11770988840, "lat": 17.4343964, "lon": 78.3688876, "tags": {"bus": "yes", "highway": "bus_stop", "public_transport": "platform"}}, {"type": "node", "id": 11770988842, "lat": 17.4308354, "lon": 78.3724103, "tags": {"bus": "yes", "highway": "bus_stop", "public_transport": "platform"}}, {"type": "node", "id": 11770988849, "lat": 17.4444819, "lon": 78.4872492, "tags": {"bus": "yes", "highway": "bus_stop", "public_transport": "platform"}}, {"type": "node", "id": 11770988856, "lat": 17.4428102, "lon": 78.4974573, "tags": {"bus": "yes", "highway": "bus_stop", "public_transport": "platform"}}, {"type": "node", "id": 11770988857, "lat": 17.4430034, "lon": 78.4939211, "tags": {"bus": "yes", "highway": "bus_stop", "public_transport": "platform"}}, {"type": "node", "id": 11770988859, "lat": 17.442626, "lon": 78.3774021, "tags": {"bus": "yes", "highway": "bus_stop", "public_transport": "platform"}}, {"type": "node", "id": 11770993369, "lat": 17.4669656, "lon": 78.4453181, "tags": {"bus": "yes", "highway": "bus_stop", "public_transport": "platform"}}, {"type": "node", "id": 11770993379, "lat": 17.4796632, "lon": 78.3901641, "tags": {"bus": "yes", "highway": "bus_stop", "public_transport": "platform"}}, {"type": "node", "id": 11770993387, "lat": 17.4263581, "lon": 78.4166031, "tags": {"bus": "yes", "highway": "bus_stop", "name": "Jubilee Hills - Checkpost", "public_transport": "platform"}}, {"type": "node", "id": 11771783688, "lat": 17.4222531, "lon": 78.3832381, "tags": {"bench": "yes", "bus": "yes", "highway": "bus_stop", "name": "Khajaguda X Road", "public_transport": "platform", "shelter": "yes"}}, {"type": "node", "id": 11771783711, "lat": 17.4121581, "lon": 78.4321338, "tags": {"bus": "yes", "highway": "bus_stop", "public_transport": "platform"}}, {"type": "node", "id": 12096995596, "lat": 17.4622818, "lon": 78.4909154, "tags": {"bus": "yes", "departures_board": "no", "highway": "bus_stop", "name": "Diamond Point", "public_transport": "platform", "shelter": "no"}}, {"type": "node", "id": 12635265400, "lat": 17.4937197, "lon": 78.6058267, "tags": {"bus": "yes", "highway": "bus_stop", "name": "Rampally X Roads Bus stop", "public_transport": "platform"}}, {"type": "node", "id": 12635282501, "lat": 17.4936091, "lon": 78.6056213, "tags": {"bus": "yes", "highway": "bus_stop", "name": "Rampally X Roads Bus stop", "public_transport": "platform"}}, {"type": "node", "id": 12635282502, "lat": 17.493982, "lon": 78.6057502, "tags": {"bus": "yes", "highway": "bus_stop", "name": "Rampally X Roads Bus stop", "public_transport": "platform"}}, {"type": "node", "id": 12635282503, "lat": 17.4942808, "lon": 78.6065174, "tags": {"bus": "yes", "highway": "bus_stop", "name": "Rampally X  Roads Bus stop", "public_transport": "platform"}}, {"type": "node", "id": 12635282504, "lat": 17.4879013, "lon": 78.6009771, "tags": {"bus": "yes", "highway": "bus_stop", "name": "Nagaram Bus stop", "public_transport": "platform"}}, {"type": "node", "id": 13111779741, "lat": 17.4187227, "lon": 78.2188418, "tags": {"bus": "yes", "highway": "bus_stop", "name": "ICFAI Bus stop", "public_transport": "platform"}}, {"type": "node", "id": 13272710064, "lat": 17.4209535, "lon": 78.4113173, "tags": {"highway": "bus_stop"}}, {"type": "node", "id": 13272714577, "lat": 17.4185971, "lon": 78.4130492, "tags": {"highway": "bus_stop"}}, {"type": "node", "id": 13295409602, "lat": 17.4060315, "lon": 78.4671352, "tags": {"bus": "yes", "highway": "bus_stop", "public_transport": "platform"}}, {"type": "node", "id": 13308030563, "lat": 17.4461896, "lon": 78.3775642, "tags": {"highway": "bus_stop", "name": "Opp. Cyber Gateway Bus Stop"}}, {"type": "node", "id": 13308034675, "lat": 17.4474811, "lon": 78.3842208, "tags": {"highway": "bus_stop"}}, {"type": "node", "id": 13308059287, "lat": 17.4411436, "lon": 78.3903966, "tags": {"highway": "bus_stop"}}, {"type": "node", "id": 13308064098, "lat": 17.441156, "lon": 78.3893805, "tags": {"highway": "bus_stop"}}, {"type": "node", "id": 13308076749, "lat": 17.4621433, "lon": 78.3851619, "tags": {"highway": "bus_stop", "name": "Yashoda Hospitals"}}, {"type": "node", "id": 13308087733, "lat": 17.4551358, "lon": 78.3781882, "tags": {"highway": "bus_stop", "name": "Shilparamam bus bay"}}, {"type": "node", "id": 13308091901, "lat": 17.4520621, "lon": 78.3814529, "tags": {"highway": "bus_stop", "name": "Hitech City 'X' Roads"}}, {"type": "node", "id": 13324778746, "lat": 17.380171, "lon": 78.5821085, "tags": {"bus": "yes", "highway": "bus_stop", "public_transport": "platform"}}, {"type": "node", "id": 13335598226, "lat": 17.5077267, "lon": 78.4632591, "tags": {"bus": "yes", "highway": "bus_stop", "name": "jayaram nagar bus stop", "public_transport": "platform"}}, {"type": "node", "id": 13335598244, "lat": 17.5076748, "lon": 78.4624207, "tags": {"bus": "yes", "highway": "bus_stop", "name": "jayaram nagar bus stop", "public_transport": "platform"}}, {"type": "node", "id": 13368585997, "lat": 17.375228, "lon": 78.3959336, "tags": {"bus": "yes", "highway": "bus_stop", "name": "Ramdev Guda", "public_transport": "platform"}}, {"type": "node", "id": 13368619690, "lat": 17.3752166, "lon": 78.3969025, "tags": {"bus": "yes", "highway": "bus_stop", "name": "Ramdev Guda", "public_transport": "platform"}}, {"type": "node", "id": 13399710689, "lat": 17.4221695, "lon": 78.3811563, "tags": {"bench": "yes", "bus": "yes", "highway": "bus_stop", "name": "Khajaguda X Road", "public_transport": "platform", "shelter": "yes"}}, {"type": "node", "id": 13426461104, "lat": 17.4356845, "lon": 78.5373343, "tags": {"bus": "yes", "highway": "bus_stop", "name": "Shanthi nagar bus stop", "network": "TGSRTC", "public_transport": "platform"}}, {"type": "node", "id": 13437156197, "lat": 17.4329014, "lon": 78.4868336, "tags": {"bus": "yes", "highway": "bus_stop", "name": "james street", "public_transport": "platform"}}, {"type": "node", "id": 13460679830, "lat": 17.4178533, "lon": 78.3673233, "tags": {"bench": "yes", "bus": "yes", "highway": "bus_stop", "name": "Khajaguda", "public_transport": "platform", "shelter": "yes"}}, {"type": "node", "id": 13460679831, "lat": 17.4181737, "lon": 78.3672858, "tags": {"bench": "yes", "bus": "yes", "highway": "bus_stop", "name": "Khajaguda", "public_transport": "platform", "shelter": "yes"}}, {"type": "way", "id": 598292280, "nodes": [5694527048, 5694527049, 5694527050, 5694527051, 5694527048], "tags": {"bus": "yes", "highway": "bus_stop", "public_transport": "platform"}}]}